driver_id,driver_name,phone,license_number,partner_company,city,state,status,created_at
1,Jivin Edwin,07877292549,DL00012885,Shadowfax,Chennai,Tamil Nadu,Active,2024-02-04 16:23:30
2,Yuvaan Zacharia,0322946722,DL00022295,Shadowfax,Surat,Gujarat,Active,2024-01-11 02:14:11
3,Aradhya Bahl,0233174091,DL00032178,In-house,Bengaluru,Karnataka,Inactive,2023-08-18 21:20:50
4,Gokul Rama,05388810196,DL00046423,In-house,Chennai,Tamil Nadu,Inactive,2024-05-28 12:32:42
5,Aniruddh Garg,7865518334,DL00058304,In-house,Mysuru,Karnataka,Inactive,2025-07-14 07:00:42
6,Lagan Seshadri,7678937462,DL00064452,EcomExpress,New Delhi,Delhi,Active,2021-10-01 05:10:18
7,Farhan Sharaf,3367732073,DL00072119,Shadowfax,Mysuru,Karnataka,Inactive,2021-01-18 10:34:40
8,Zeeshan Sidhu,+916702881122,DL00086581,Shadowfax,New Delhi,Delhi,Inactive,2022-03-01 03:19:30
9,Dishani Barman,+911094813848,DL00099759,Delhivery,Mysuru,Karnataka,Active,2025-02-21 05:06:51
10,Faiyaz Singhal,+911066252067,DL00105219,EcomExpress,Coimbatore,Tamil Nadu,Active,2021-02-06 01:31:17
11,Ojas Shan,+912815056907,DL00115904,EcomExpress,New Delhi,Delhi,Active,2023-10-19 21:30:09
12,Hrishita Chaudhary,9263251891,DL00126417,In-house,Nagpur,Maharashtra,Active,2023-08-27 00:21:42
13,Shlok Din,+918012086747,DL00135823,In-house,Pune,Maharashtra,Active,2020-11-27 16:03:34
14,Anya Borra,5573237449,DL00148382,Shadowfax,Coimbatore,Tamil Nadu,Inactive,2022-10-27 18:26:15
15,Manjari Lal,3832699869,DL00156765,BlueDart,New Delhi,Delhi,Inactive,2023-04-30 05:45:41
16,Nirvaan Sarraf,+913710118828,DL00162545,Delhivery,New Delhi,Delhi,Active,2022-02-28 12:52:30
17,Yuvaan Setty,04276935752,DL00171740,EcomExpress,Ahmedabad,Gujarat,Inactive,2020-04-13 15:51:45
18,Taimur Lalla,08658194084,DL00189054,Delhivery,Nagpur,Maharashtra,Inactive,2022-08-05 05:21:50
19,Miraya Bora,09734873564,DL00194603,In-house,Ahmedabad,Gujarat,Active,2023-09-17 12:46:05
20,Jivika Kurian,0991316667,DL00202074,Delhivery,Coimbatore,Tamil Nadu,Inactive,2020-06-03 19:48:41
21,Dhruv Bhakta,+917244065107,DL00219000,BlueDart,Ahmedabad,Gujarat,Active,2023-10-18 02:22:57
22,Renee Kale,+912520657522,DL00226254,EcomExpress,Bengaluru,Karnataka,Inactive,2022-04-24 23:11:13
23,Vihaan Vasa,+918979885182,DL00236464,Delhivery,New Delhi,Delhi,Active,2024-02-20 13:59:12
24,Kimaya Maharaj,9119738533,DL00241937,EcomExpress,Mysuru,Karnataka,Active,2024-04-25 17:20:25
25,Jayesh Goswami,+911755300923,DL00253656,EcomExpress,Chennai,Tamil Nadu,Active,2021-06-08 06:42:27
26,Sara Lal,8938676337,DL00266044,Shadowfax,Bengaluru,Karnataka,Inactive,2023-08-13 21:55:33
27,Drishya Chaudhari,+910306950755,DL00277864,In-house,Nagpur,Maharashtra,Inactive,2025-06-12 13:16:03
28,Tiya Sabharwal,+919424878951,DL00284493,In-house,Mysuru,Karnataka,Active,2020-12-09 03:26:48
29,Nitya Sami,5182126674,DL00293999,BlueDart,Mysuru,Karnataka,Active,2024-06-29 15:22:49
30,Renee Lal,5776810650,DL00305303,EcomExpress,Coimbatore,Tamil Nadu,Inactive,2025-05-14 13:45:33
31,Kaira Samra,1856953169,DL00317621,Delhivery,New Delhi,Delhi,Inactive,2025-07-02 23:20:37
32,Nishith Mandal,+913339061744,DL00322625,Shadowfax,Coimbatore,Tamil Nadu,Inactive,2023-09-08 22:12:42
33,Mohanlal Kadakia,+915578099238,DL00339757,Shadowfax,Mumbai,Maharashtra,Active,2025-05-01 23:31:17
34,Mamooty Shanker,+915805888200,DL00342661,In-house,Coimbatore,Tamil Nadu,Inactive,2023-07-28 04:02:36
35,Akarsh Arora,5140557135,DL00354129,In-house,Mysuru,Karnataka,Active,2024-05-22 04:53:40
36,Anay Madan,5397549353,DL00366456,In-house,New Delhi,Delhi,Active,2020-06-01 20:25:33
37,Jayan Dutt,01152675965,DL00373932,BlueDart,Surat,Gujarat,Active,2024-06-08 00:23:48
38,Tiya Lalla,01103244183,DL00388224,BlueDart,Mysuru,Karnataka,Active,2024-08-30 05:25:51
39,Jiya Choudhary,+918333715165,DL00399394,In-house,Ahmedabad,Gujarat,Active,2025-08-14 22:33:36
40,Rohan Shetty,+913901965400,DL00407669,BlueDart,Coimbatore,Tamil Nadu,Active,2023-09-06 11:48:16
41,Saksham Bansal,9811054466,DL00418023,BlueDart,Mysuru,Karnataka,Active,2022-07-04 23:33:14
42,Saksham Goel,5180948551,DL00425699,EcomExpress,Bengaluru,Karnataka,Active,2023-07-28 04:00:31
43,Kiara Sarraf,1418703471,DL00431654,Shadowfax,Mumbai,Maharashtra,Inactive,2024-02-24 06:17:53
44,Farhan Sanghvi,+917513678799,DL00442618,Shadowfax,Mumbai,Maharashtra,Active,2024-07-02 12:59:41
45,Myra Dhingra,07880842704,DL00458762,BlueDart,Mysuru,Karnataka,Inactive,2024-12-07 06:07:57
46,Trisha Karnik,+914230210329,DL00466093,EcomExpress,Bengaluru,Karnataka,Inactive,2024-11-26 03:43:51
47,Khushi Thakur,+914136398449,DL00471901,BlueDart,Ahmedabad,Gujarat,Inactive,2021-05-08 13:51:27
48,Vaibhav Bhalla,+913067486965,DL00483976,In-house,Coimbatore,Tamil Nadu,Inactive,2022-08-12 11:39:56
49,Shamik Wali,8272484426,DL00491388,Shadowfax,Ahmedabad,Gujarat,Active,2025-07-11 14:40:25
50,Yashvi Bhatt,2504417215,DL00503629,Shadowfax,Pune,Maharashtra,Active,2022-09-15 19:43:41
51,Farhan Rau,04261469973,DL00513558,In-house,Chennai,Tamil Nadu,Inactive,2021-03-29 15:06:19
52,Nehmat Walla,00213145158,DL00523024,In-house,Nagpur,Maharashtra,Active,2024-04-01 08:11:27
53,Aarush Dhaliwal,06314725655,DL00535431,Shadowfax,Coimbatore,Tamil Nadu,Active,2020-10-21 07:03:58
54,Hrishita Amble,1976477537,DL00543934,BlueDart,Mysuru,Karnataka,Active,2023-07-25 11:01:03
55,Faiyaz Wali,1065705164,DL00559735,EcomExpress,Nagpur,Maharashtra,Inactive,2022-04-07 09:11:40
56,Myra Shetty,+913436823706,DL00565285,BlueDart,Coimbatore,Tamil Nadu,Inactive,2025-05-24 04:07:03
57,Dishani Tata,1523500068,DL00579219,In-house,Surat,Gujarat,Inactive,2020-01-11 12:09:32
58,Anahita Shenoy,+914375096271,DL00587874,BlueDart,Chennai,Tamil Nadu,Inactive,2023-08-27 21:40:02
59,Nirvi Kothari,07864619123,DL00594634,EcomExpress,Nagpur,Maharashtra,Inactive,2020-10-02 13:22:18
60,Zaina Sundaram,+919418671988,DL00602432,In-house,Nagpur,Maharashtra,Inactive,2023-03-05 16:33:56
61,Anya Rout,5439446094,DL00619120,In-house,Bengaluru,Karnataka,Inactive,2023-07-07 23:54:33
62,Aradhya Bala,05234003339,DL00626847,Delhivery,Mysuru,Karnataka,Active,2021-12-09 15:07:52
63,Mamooty Sundaram,+910760330171,DL00636390,Delhivery,Chennai,Tamil Nadu,Inactive,2023-09-24 07:06:31
64,Kiaan Swamy,1622597794,DL00649276,BlueDart,Pune,Maharashtra,Active,2023-09-09 23:40:59
65,Jivin Saraf,+913370372720,DL00651204,In-house,Bengaluru,Karnataka,Active,2024-08-27 00:05:27
66,Manjari Chadha,+917537693455,DL00669020,Shadowfax,Ahmedabad,Gujarat,Inactive,2023-03-26 01:43:31
67,Khushi Sheth,9381528376,DL00671595,Shadowfax,Bengaluru,Karnataka,Inactive,2022-01-30 11:11:40
68,Piya Johal,07541418194,DL00686891,EcomExpress,New Delhi,Delhi,Inactive,2021-08-17 08:34:39
69,Nitya Tandon,01576229742,DL00699842,In-house,Chennai,Tamil Nadu,Inactive,2023-10-24 03:03:56
70,Oorja Mani,5263319847,DL00702050,In-house,Ahmedabad,Gujarat,Active,2025-02-18 11:36:19
71,Neelofar Gour,06974797155,DL00719161,In-house,Bengaluru,Karnataka,Inactive,2024-03-21 21:26:20
72,Romil Gaba,+917035297054,DL00729377,In-house,Pune,Maharashtra,Active,2022-05-30 16:24:31
73,Zeeshan Sachdev,+919508266127,DL00739487,Shadowfax,Mysuru,Karnataka,Active,2021-02-22 12:06:21
74,Samarth Hora,+915243134521,DL00745985,BlueDart,Nagpur,Maharashtra,Inactive,2022-06-13 16:31:27
75,Neysa Ratti,+914040929900,DL00759138,EcomExpress,Bengaluru,Karnataka,Active,2021-01-08 17:55:18
76,Anay Tak,+917544034678,DL00763116,EcomExpress,Mysuru,Karnataka,Inactive,2020-05-22 17:26:33
77,Shalv Bajaj,04600445255,DL00771214,In-house,New Delhi,Delhi,Active,2022-01-22 03:19:57
78,Misha Badal,07724291587,DL00787296,In-house,Mysuru,Karnataka,Inactive,2021-09-30 21:22:48
79,Krish Wagle,0188762443,DL00791890,EcomExpress,Chennai,Tamil Nadu,Inactive,2021-06-28 11:22:14
80,Neysa Zachariah,+916476360750,DL00803989,Delhivery,New Delhi,Delhi,Active,2025-08-16 13:22:00
81,Ranbir Sampath,8796832764,DL00815513,BlueDart,New Delhi,Delhi,Inactive,2022-01-02 01:53:09
82,Indrans Ranganathan,7892615840,DL00827987,In-house,Ahmedabad,Gujarat,Inactive,2022-11-28 13:19:29
83,Rania Kakar,01844583348,DL00834815,In-house,Mysuru,Karnataka,Active,2024-06-21 08:32:11
84,Samaira Dyal,08321707144,DL00845893,EcomExpress,New Delhi,Delhi,Active,2022-10-21 23:30:39
85,Hridaan Basu,0646498056,DL00856799,BlueDart,Ahmedabad,Gujarat,Active,2024-09-01 01:38:46
86,Alisha Choudhary,+912690705461,DL00862483,In-house,New Delhi,Delhi,Active,2021-03-17 02:58:58
87,Yuvraj  Lata,7958041682,DL00874655,BlueDart,Chennai,Tamil Nadu,Active,2021-11-24 11:59:21
88,Vivaan Tak,4341095830,DL00887460,EcomExpress,Surat,Gujarat,Inactive,2020-09-01 14:57:11
89,Bhamini Agarwal,08103861469,DL00899190,In-house,New Delhi,Delhi,Inactive,2021-03-06 21:55:06
90,Bhavin Kala,09387545779,DL00906660,In-house,Nagpur,Maharashtra,Active,2022-11-11 15:37:27
91,Ivan Borah,+917359743479,DL00916310,BlueDart,New Delhi,Delhi,Active,2021-01-17 06:49:52
92,Shanaya Kari,+919716105478,DL00923190,BlueDart,New Delhi,Delhi,Inactive,2022-01-03 05:45:50
93,Ela Sehgal,5831002629,DL00932198,Shadowfax,Surat,Gujarat,Active,2020-12-05 13:05:35
94,Dhanush Char,08460868045,DL00945511,BlueDart,Coimbatore,Tamil Nadu,Active,2022-02-06 19:48:51
95,Badal Seth,09188059490,DL00957223,EcomExpress,Mysuru,Karnataka,Active,2020-07-13 01:31:06
96,Samiha Upadhyay,6816507959,DL00968680,BlueDart,Chennai,Tamil Nadu,Inactive,2020-07-14 12:07:53
97,Miraan Khare,07061453994,DL00978438,Shadowfax,Surat,Gujarat,Inactive,2024-07-01 07:45:07
98,Gatik Deshpande,04647320554,DL00981865,BlueDart,Coimbatore,Tamil Nadu,Inactive,2024-02-27 19:53:36
99,Ivana Badami,+916269525510,DL00992590,Shadowfax,New Delhi,Delhi,Inactive,2020-06-27 23:19:55
100,Dhruv Hora,+914518884863,DL01001834,BlueDart,Chennai,Tamil Nadu,Inactive,2024-02-07 19:50:37
101,Alia Varma,02533736478,DL01018522,Shadowfax,Coimbatore,Tamil Nadu,Inactive,2024-08-21 19:51:56
102,Veer Lall,5614451863,DL01025650,Shadowfax,Mysuru,Karnataka,Inactive,2025-07-31 17:11:58
103,Kaira Bahl,+911804867354,DL01032608,Shadowfax,New Delhi,Delhi,Inactive,2025-08-23 10:05:15
104,Jiya Bhalla,+910452130457,DL01049524,EcomExpress,Surat,Gujarat,Active,2022-05-29 13:46:58
105,Tiya Warrior,8148259623,DL01052984,Shadowfax,Mysuru,Karnataka,Inactive,2023-10-11 01:37:23
106,Armaan Kaul,+916729770080,DL01063391,Shadowfax,Nagpur,Maharashtra,Active,2024-11-12 09:59:40
107,Riaan Keer,+918320940128,DL01074460,Shadowfax,Coimbatore,Tamil Nadu,Active,2022-01-16 16:56:27
108,Nakul Hegde,7308060668,DL01088638,Shadowfax,Chennai,Tamil Nadu,Active,2022-04-15 03:40:16
109,Zain Dara,+916440498893,DL01093664,BlueDart,Bengaluru,Karnataka,Inactive,2024-07-02 15:41:58
110,Ishaan Brahmbhatt,+916152319193,DL01104123,BlueDart,Surat,Gujarat,Inactive,2021-04-17 04:34:32
111,Rasha Gokhale,+913920602890,DL01115883,BlueDart,Pune,Maharashtra,Inactive,2021-12-22 20:03:53
112,Mohanlal Karnik,9081815080,DL01129055,In-house,Pune,Maharashtra,Inactive,2020-08-04 09:05:12
113,Vaibhav Khanna,08697286334,DL01132248,EcomExpress,Ahmedabad,Gujarat,Inactive,2022-11-17 01:44:35
114,Jivin Sahni,+913871359890,DL01149549,Shadowfax,Chennai,Tamil Nadu,Active,2024-01-13 14:06:49
115,Samarth Sagar,06142780403,DL01151473,BlueDart,Mysuru,Karnataka,Active,2024-12-23 11:29:23
116,Sara Deshpande,+913587657353,DL01167998,EcomExpress,Pune,Maharashtra,Inactive,2020-01-26 00:50:43
117,Amani Singh,+917676032920,DL01175123,Delhivery,Surat,Gujarat,Active,2020-03-24 18:38:51
118,Keya Kata,1176859618,DL01181809,BlueDart,Mumbai,Maharashtra,Active,2025-08-09 03:42:43
119,Kavya Wagle,+918014989023,DL01197705,Shadowfax,Ahmedabad,Gujarat,Active,2025-01-01 17:15:54
120,Samiha Mahal,07269688584,DL01205365,In-house,Pune,Maharashtra,Active,2020-01-16 13:01:53
121,Samarth Agarwal,+917862172056,DL01218457,Shadowfax,Mysuru,Karnataka,Inactive,2021-07-12 17:02:25
122,Yasmin Wagle,04132863645,DL01221330,In-house,Ahmedabad,Gujarat,Inactive,2024-02-02 15:09:33
123,Emir Goyal,+918793619482,DL01239005,EcomExpress,New Delhi,Delhi,Active,2021-12-21 07:16:17
124,Jivin Mannan,+913366793924,DL01243404,Shadowfax,Coimbatore,Tamil Nadu,Active,2022-04-11 06:00:38
125,Kabir Vyas,06783908238,DL01258116,Shadowfax,Pune,Maharashtra,Active,2024-09-29 09:41:51
126,Ahana  Chanda,06001734899,DL01267740,Delhivery,New Delhi,Delhi,Active,2020-04-24 14:10:59
127,Divyansh Rajan,04899594021,DL01274613,Delhivery,Mysuru,Karnataka,Active,2024-07-10 14:15:09
128,Yasmin Chopra,6511695771,DL01288088,BlueDart,Surat,Gujarat,Active,2025-07-23 21:39:52
129,Anahi Reddy,+914969683394,DL01293120,BlueDart,Surat,Gujarat,Active,2022-10-29 17:19:44
130,Divyansh Garg,+914296532802,DL01302877,BlueDart,Coimbatore,Tamil Nadu,Inactive,2025-06-05 18:54:53
131,Baiju Sachdev,+919768368710,DL01311011,BlueDart,Chennai,Tamil Nadu,Active,2020-12-03 04:11:46
132,Urvi Kapoor,06221881061,DL01322110,Delhivery,Pune,Maharashtra,Inactive,2024-05-08 08:46:53
133,Madhup Bhasin,+918038609316,DL01335211,Shadowfax,Bengaluru,Karnataka,Active,2024-03-26 08:27:59
134,Zaina Kumar,2635415220,DL01346569,BlueDart,New Delhi,Delhi,Active,2024-04-02 15:08:28
135,Dharmajan Dugar,9817558844,DL01356880,BlueDart,Mysuru,Karnataka,Inactive,2022-07-31 17:17:11
136,Chirag Bal,+916784740771,DL01362132,EcomExpress,Pune,Maharashtra,Active,2021-11-08 15:04:03
137,Manjari Tak,+910792414854,DL01373120,Delhivery,Coimbatore,Tamil Nadu,Active,2025-04-08 14:19:36
138,Dishani Ben,05777267796,DL01381288,Shadowfax,Nagpur,Maharashtra,Inactive,2024-06-06 19:39:52
139,Misha Bhatti,01921303848,DL01399012,EcomExpress,Coimbatore,Tamil Nadu,Active,2020-10-26 20:38:36
140,Anvi Karnik,+914023240793,DL01405985,BlueDart,Coimbatore,Tamil Nadu,Active,2023-12-20 17:15:16
141,Nirvaan Jhaveri,00513542219,DL01412098,Delhivery,Chennai,Tamil Nadu,Active,2025-08-20 14:16:00
142,Farhan Singhal,+919219319146,DL01422401,EcomExpress,Mumbai,Maharashtra,Active,2022-03-13 08:05:38
143,Tiya Konda,04619669057,DL01433285,Shadowfax,Bengaluru,Karnataka,Active,2023-08-14 19:05:53
144,Akarsh Hora,04713373166,DL01444408,EcomExpress,Nagpur,Maharashtra,Inactive,2025-07-18 11:14:58
145,Arnav Mangat,07279680841,DL01452634,Shadowfax,New Delhi,Delhi,Active,2025-05-14 09:30:49
146,Nitara Date,02004300222,DL01469981,BlueDart,Chennai,Tamil Nadu,Inactive,2025-05-11 23:06:39
147,Ivana Wason,+918231007996,DL01474709,Delhivery,Mysuru,Karnataka,Inactive,2020-07-12 15:37:06
148,Prerak Amble,1573251987,DL01483208,EcomExpress,Mysuru,Karnataka,Inactive,2020-06-01 16:32:47
149,Misha Mahajan,7819084991,DL01498952,In-house,Surat,Gujarat,Inactive,2024-08-06 09:04:55
150,Samar Ghosh,6171805005,DL01508500,BlueDart,Mysuru,Karnataka,Active,2023-10-28 15:09:58
151,Anay Anand,8386711935,DL01515501,EcomExpress,Chennai,Tamil Nadu,Inactive,2025-03-27 04:19:45
152,Rati Mangat,9267259450,DL01522128,Shadowfax,Nagpur,Maharashtra,Inactive,2024-09-07 20:44:28
153,Madhav Sawhney,09283247646,DL01538626,EcomExpress,Ahmedabad,Gujarat,Inactive,2021-07-28 07:13:09
154,Nirvi Dar,07166692827,DL01543945,Delhivery,Chennai,Tamil Nadu,Inactive,2023-04-08 22:34:18
155,Pranay Ramaswamy,+911532096653,DL01556969,In-house,New Delhi,Delhi,Inactive,2022-03-29 20:05:30
156,Amira Bhandari,+911598279915,DL01562519,EcomExpress,Chennai,Tamil Nadu,Inactive,2021-09-20 23:55:32
157,Alisha Ahluwalia,+919240905698,DL01578618,BlueDart,Ahmedabad,Gujarat,Inactive,2025-06-16 07:33:50
158,Indrans Kaul,+914003356927,DL01581667,BlueDart,Pune,Maharashtra,Active,2022-06-13 12:17:23
159,Rania Chandra,+910835069052,DL01592803,EcomExpress,Nagpur,Maharashtra,Inactive,2022-12-19 17:00:43
160,Mahika Rajan,+911621543092,DL01606127,Shadowfax,Surat,Gujarat,Active,2024-02-14 03:36:56
161,Aayush Subramaniam,03521036240,DL01614678,EcomExpress,Bengaluru,Karnataka,Active,2020-01-07 00:53:04
162,Aarav Venkataraman,2589534201,DL01625938,In-house,New Delhi,Delhi,Active,2024-04-28 22:05:36
163,Jhanvi Som,8401043365,DL01638102,BlueDart,Ahmedabad,Gujarat,Active,2024-12-05 14:32:20
164,Ishaan Ahuja,04460058745,DL01647555,BlueDart,Mysuru,Karnataka,Inactive,2025-02-19 08:15:14
165,Miraan Chaudry,+914841501035,DL01656806,Delhivery,Chennai,Tamil Nadu,Active,2022-10-18 20:27:44
166,Ira Choudhary,4492772396,DL01667456,Delhivery,Chennai,Tamil Nadu,Active,2025-03-08 18:11:54
167,Adira Venkataraman,03310227220,DL01672388,EcomExpress,Surat,Gujarat,Active,2021-08-30 10:55:01
168,Kiara Loke,+915699971878,DL01688071,In-house,Bengaluru,Karnataka,Inactive,2020-12-01 09:57:11
169,Gokul Deep,+914783564107,DL01691219,EcomExpress,Coimbatore,Tamil Nadu,Active,2022-08-15 06:19:30
170,Inaaya  Goda,04163190400,DL01702268,EcomExpress,Ahmedabad,Gujarat,Active,2021-09-06 22:04:05
171,Advika Chopra,0535103958,DL01711093,BlueDart,Bengaluru,Karnataka,Inactive,2023-02-04 05:33:37
172,Damini Goel,05880319953,DL01724758,EcomExpress,New Delhi,Delhi,Active,2022-08-22 04:50:42
173,Saanvi Varma,1536984643,DL01734786,BlueDart,Mumbai,Maharashtra,Active,2022-05-12 23:02:25
174,Rohan Basak,08142730622,DL01749905,In-house,Nagpur,Maharashtra,Active,2024-06-25 07:36:55
175,Lakshay Banik,0866720697,DL01758498,Delhivery,Ahmedabad,Gujarat,Active,2023-08-14 06:12:01
176,Krish Solanki,06077210187,DL01767711,BlueDart,Surat,Gujarat,Active,2023-11-11 20:32:02
177,Nayantara Rana,05270410983,DL01777486,BlueDart,Ahmedabad,Gujarat,Active,2023-04-03 17:35:19
178,Dhanuk Agrawal,+918446649358,DL01786924,BlueDart,Coimbatore,Tamil Nadu,Active,2022-02-21 22:22:32
179,Shamik Vala,+917981759238,DL01794530,In-house,Chennai,Tamil Nadu,Inactive,2024-09-03 22:20:17
180,Indrans Kurian,+916816326110,DL01808371,BlueDart,Chennai,Tamil Nadu,Inactive,2021-03-31 20:05:46
181,Mishti Buch,+919166657865,DL01816715,Shadowfax,Coimbatore,Tamil Nadu,Inactive,2020-07-08 06:36:04
182,Dhruv Suri,+915365271135,DL01827203,EcomExpress,Mumbai,Maharashtra,Inactive,2020-04-10 01:08:59
183,Lagan Saran,+915319604033,DL01835377,Delhivery,Ahmedabad,Gujarat,Active,2020-06-08 00:38:32
184,Kiaan Anand,+910307265279,DL01847604,EcomExpress,Mumbai,Maharashtra,Inactive,2023-03-22 09:18:12
185,Ivana Trivedi,+911383177428,DL01853911,Shadowfax,Chennai,Tamil Nadu,Active,2020-07-06 05:22:03
186,Kaira Shetty,8997537963,DL01866805,In-house,Chennai,Tamil Nadu,Active,2023-11-26 12:43:39
187,Neelofar Saini,+916904276842,DL01877315,Delhivery,Mumbai,Maharashtra,Inactive,2020-11-23 20:43:45
188,Reyansh Rajagopalan,9639400905,DL01883358,In-house,Surat,Gujarat,Inactive,2024-05-21 01:30:48
189,Ranbir De,+912700184842,DL01895925,Shadowfax,Ahmedabad,Gujarat,Inactive,2020-08-05 13:21:28
190,Kiaan Gill,00244461118,DL01904729,EcomExpress,Coimbatore,Tamil Nadu,Inactive,2025-07-07 20:32:07
191,Indranil Ravi,9335328309,DL01912647,BlueDart,Coimbatore,Tamil Nadu,Active,2021-10-09 12:14:52
192,Keya Chakrabarti,8593933165,DL01927484,EcomExpress,Ahmedabad,Gujarat,Active,2020-02-20 06:57:40
193,Jivin Chanda,+911670895831,DL01932931,Delhivery,New Delhi,Delhi,Inactive,2021-02-28 09:48:16
194,Nirvaan Aggarwal,06701030858,DL01949219,Shadowfax,Surat,Gujarat,Active,2025-07-06 09:17:56
195,Dharmajan Trivedi,03336023763,DL01959224,Delhivery,New Delhi,Delhi,Inactive,2022-04-08 14:21:43
196,Madhav Dar,00841746335,DL01966641,Shadowfax,Surat,Gujarat,Active,2020-07-03 15:14:45
197,Samiha Lata,03624662716,DL01973113,In-house,Surat,Gujarat,Active,2020-08-17 01:00:46
198,Keya Dhawan,+910531444705,DL01988678,Shadowfax,New Delhi,Delhi,Active,2020-08-17 14:41:49
199,Purab Yadav,08587275565,DL01996537,In-house,Surat,Gujarat,Active,2024-09-17 05:23:46
200,Keya Balasubramanian,01015124932,DL02009370,Delhivery,Bengaluru,Karnataka,Active,2023-07-23 00:23:15
201,Uthkarsh Golla,4577920831,DL02013773,EcomExpress,New Delhi,Delhi,Inactive,2022-11-20 14:55:28
202,Riaan Shah,7828768497,DL02026985,In-house,Coimbatore,Tamil Nadu,Active,2023-05-16 10:41:06
203,Vanya Bera,+916981205009,DL02032898,BlueDart,Mumbai,Maharashtra,Active,2022-08-03 19:25:30
204,Zoya Sangha,04022864777,DL02047154,In-house,Surat,Gujarat,Inactive,2021-04-06 03:17:54
205,Oorja Baral,+915548863510,DL02059193,Shadowfax,Nagpur,Maharashtra,Inactive,2022-02-07 15:37:39
206,Bhamini Borah,+915345182706,DL02067391,BlueDart,New Delhi,Delhi,Inactive,2023-04-28 20:10:51
207,Dhanush Boase,0452929337,DL02075687,EcomExpress,New Delhi,Delhi,Active,2021-11-17 20:08:35
208,Anaya Rastogi,09565362186,DL02082950,BlueDart,Mysuru,Karnataka,Active,2023-09-04 05:16:59
209,Chirag Goswami,0992583189,DL02098819,EcomExpress,Nagpur,Maharashtra,Active,2021-01-02 21:55:37
210,Aradhya Bath,01751400042,DL02104863,Delhivery,Mumbai,Maharashtra,Inactive,2024-02-14 01:54:17
211,Anahita Sehgal,+917651401714,DL02119404,In-house,Bengaluru,Karnataka,Active,2024-04-03 14:53:57
212,Navya Yadav,9258822534,DL02126337,BlueDart,Nagpur,Maharashtra,Inactive,2023-03-14 18:07:00
213,Arnav Kakar,05599480851,DL02134464,EcomExpress,Mysuru,Karnataka,Active,2025-02-22 17:08:23
214,Mahika Arya,0609756028,DL02141844,BlueDart,Chennai,Tamil Nadu,Active,2020-07-25 08:37:01
215,Ayesha Sur,+910727941311,DL02156206,Shadowfax,Bengaluru,Karnataka,Active,2021-07-20 04:39:55
216,Gokul Deol,02522098174,DL02161715,Delhivery,Ahmedabad,Gujarat,Inactive,2021-05-05 04:37:17
217,Reyansh Walia,09954954520,DL02179245,Shadowfax,Surat,Gujarat,Inactive,2022-08-13 21:10:31
218,Romil Kara,4798177309,DL02189243,EcomExpress,Bengaluru,Karnataka,Inactive,2022-07-31 19:34:55
219,Amira Ramachandran,00122016533,DL02193832,Delhivery,Chennai,Tamil Nadu,Inactive,2024-10-22 22:56:26
220,Chirag Kapoor,06511660232,DL02204294,EcomExpress,Pune,Maharashtra,Inactive,2020-11-26 20:43:22
221,Aarush Rama,+915253577953,DL02211349,BlueDart,Bengaluru,Karnataka,Active,2020-06-05 22:46:38
222,Vihaan Chand,+915935094823,DL02229915,EcomExpress,Coimbatore,Tamil Nadu,Active,2024-12-11 00:11:44
223,Nayantara Sachar,4616608026,DL02237287,In-house,Mysuru,Karnataka,Active,2024-01-28 05:37:31
224,Mishti Shah,05418565133,DL02243045,EcomExpress,Surat,Gujarat,Active,2025-09-08 00:28:35
225,Ehsaan Rao,+919350716552,DL02258115,Delhivery,Coimbatore,Tamil Nadu,Inactive,2025-07-31 13:54:57
226,Yuvraj  Balan,+913395216388,DL02269179,Shadowfax,Chennai,Tamil Nadu,Active,2024-01-21 21:42:26
227,Renee Badami,5694451008,DL02271137,In-house,Ahmedabad,Gujarat,Active,2021-07-08 11:56:39
228,Kashvi Keer,09738736471,DL02288566,Delhivery,Mumbai,Maharashtra,Active,2020-09-25 19:57:21
229,Mehul Bhardwaj,9125747779,DL02291138,EcomExpress,Ahmedabad,Gujarat,Active,2023-09-03 09:57:03
230,Amira Arora,04518427346,DL02306758,In-house,New Delhi,Delhi,Inactive,2023-03-15 21:56:09
231,Vardaniya Chad,3131098098,DL02319105,In-house,Mysuru,Karnataka,Active,2021-01-03 06:15:09
232,Azad Sangha,6766318899,DL02326058,BlueDart,Bengaluru,Karnataka,Active,2021-09-16 16:08:09
233,Kismat Sami,04814221368,DL02333354,EcomExpress,Pune,Maharashtra,Inactive,2022-05-22 06:18:49
234,Dhruv Goyal,03133457132,DL02347871,BlueDart,Pune,Maharashtra,Inactive,2021-07-30 10:23:22
235,Eva Dyal,+918735342407,DL02354990,Shadowfax,Coimbatore,Tamil Nadu,Inactive,2024-06-27 04:50:12
236,Anya Bhasin,+910607835894,DL02363895,EcomExpress,Surat,Gujarat,Inactive,2023-06-25 05:59:59
237,Azad Baral,1705557465,DL02373788,EcomExpress,Mumbai,Maharashtra,Active,2021-07-21 17:23:40
238,Gatik Tiwari,08093394996,DL02385149,BlueDart,Nagpur,Maharashtra,Inactive,2020-02-15 10:07:44
239,Vaibhav Karnik,2230395353,DL02399206,Shadowfax,Pune,Maharashtra,Inactive,2022-06-10 08:42:39
240,Vaibhav Batta,1439535828,DL02405123,BlueDart,Bengaluru,Karnataka,Active,2022-07-01 07:21:06
241,Zoya Hora,2919286962,DL02414521,Shadowfax,Bengaluru,Karnataka,Active,2021-05-06 18:18:17
242,Rhea Dhillon,5038257026,DL02424186,EcomExpress,Mysuru,Karnataka,Active,2021-09-12 18:38:38
243,Zain Tara,+910376605577,DL02434177,Shadowfax,Bengaluru,Karnataka,Active,2020-05-23 13:02:55
244,Ishaan Yohannan,+916224853104,DL02445287,Delhivery,New Delhi,Delhi,Active,2021-09-16 13:59:49
245,Charvi Deshmukh,05729943322,DL02458429,Delhivery,New Delhi,Delhi,Active,2021-06-27 20:31:18
246,Yashvi Bhagat,2111299262,DL02465976,Shadowfax,New Delhi,Delhi,Active,2023-12-11 23:50:58
247,Aaina Mannan,05387090262,DL02471862,Shadowfax,Bengaluru,Karnataka,Inactive,2022-05-15 07:27:08
248,Zain Bobal,+918216125362,DL02482122,In-house,Nagpur,Maharashtra,Active,2024-02-10 23:52:20
249,Ehsaan Rajagopal,+919512745694,DL02497292,BlueDart,New Delhi,Delhi,Inactive,2021-11-13 04:00:22
250,Armaan Behl,1709460481,DL02507946,Delhivery,Nagpur,Maharashtra,Inactive,2020-09-05 16:45:22
251,Dharmajan Seshadri,01868570219,DL02515111,Shadowfax,Nagpur,Maharashtra,Active,2025-05-18 02:27:08
252,Yuvaan Baral,05534928320,DL02523433,EcomExpress,Ahmedabad,Gujarat,Inactive,2021-04-16 01:17:45
253,Mannat Khatri,05472406838,DL02539970,BlueDart,Mumbai,Maharashtra,Active,2021-02-26 04:46:17
254,Darshit Bhatt,0533315136,DL02545646,Shadowfax,Ahmedabad,Gujarat,Inactive,2023-01-23 13:54:57
255,Divit Sanghvi,+912318592692,DL02553317,In-house,Mumbai,Maharashtra,Inactive,2020-06-24 01:14:20
256,Ritvik Vig,03822873524,DL02568462,Shadowfax,New Delhi,Delhi,Active,2020-01-12 14:23:35
257,Vidur Bora,05851103601,DL02578689,Delhivery,New Delhi,Delhi,Active,2023-07-09 08:14:48
258,Reyansh Arora,+911030493278,DL02583566,BlueDart,New Delhi,Delhi,Inactive,2025-05-16 11:58:32
259,Ela Khare,05184543787,DL02593677,In-house,Mysuru,Karnataka,Inactive,2020-12-22 11:47:01
260,Stuvan Bandi,8502606124,DL02606364,EcomExpress,Chennai,Tamil Nadu,Inactive,2023-03-07 00:29:55
261,Anahita Bhatti,0841605464,DL02616163,EcomExpress,New Delhi,Delhi,Active,2020-02-07 20:22:20
262,Farhan Wable,08316236760,DL02629589,Shadowfax,Mysuru,Karnataka,Inactive,2024-05-05 14:07:40
263,Taran Talwar,+919285660070,DL02635996,EcomExpress,Ahmedabad,Gujarat,Active,2025-09-02 00:46:22
264,Drishya Sule,3952920549,DL02646611,In-house,New Delhi,Delhi,Inactive,2023-10-13 02:38:29
265,Shlok Shetty,1361089376,DL02656491,BlueDart,Mysuru,Karnataka,Active,2024-03-28 13:52:53
266,Jivin Srinivasan,8781073235,DL02663201,EcomExpress,Surat,Gujarat,Inactive,2022-06-28 04:30:16
267,Indrans Ganguly,04026731342,DL02676549,Shadowfax,Chennai,Tamil Nadu,Inactive,2023-03-07 12:52:45
268,Myra Manda,9727726308,DL02688177,BlueDart,Nagpur,Maharashtra,Inactive,2021-02-24 15:17:19
269,Ela Sampath,06378160055,DL02699726,Delhivery,Coimbatore,Tamil Nadu,Active,2022-11-22 18:12:16
270,Rati Bava,3724490267,DL02707134,BlueDart,Nagpur,Maharashtra,Inactive,2021-03-12 23:14:33
271,Baiju Lala,00122445716,DL02718935,BlueDart,Ahmedabad,Gujarat,Inactive,2024-07-13 13:04:04
272,Samaira Balay,07065712456,DL02722260,EcomExpress,Ahmedabad,Gujarat,Inactive,2022-12-10 20:57:59
273,Samaira Edwin,6169911847,DL02738079,In-house,Surat,Gujarat,Active,2021-05-23 09:58:07
274,Kashvi Talwar,9987618935,DL02743604,In-house,Mumbai,Maharashtra,Active,2021-01-02 04:24:01
275,Nirvaan Karpe,04207711443,DL02752837,BlueDart,Pune,Maharashtra,Active,2021-02-06 08:51:35
276,Vaibhav Mander,+918473983859,DL02769271,In-house,Mysuru,Karnataka,Inactive,2024-07-03 02:54:22
277,Madhav Ram,4516624460,DL02775365,EcomExpress,Mumbai,Maharashtra,Active,2022-12-09 09:46:18
278,Dishani Dua,+912991903350,DL02786373,Shadowfax,New Delhi,Delhi,Active,2020-12-30 05:22:56
279,Jiya Mahal,03710383315,DL02799820,In-house,New Delhi,Delhi,Active,2025-05-08 10:24:20
280,Samiha Keer,3783312072,DL02805805,In-house,New Delhi,Delhi,Active,2020-10-04 03:04:10
281,Faiyaz Lala,8379299588,DL02818126,Delhivery,New Delhi,Delhi,Active,2022-09-01 17:44:30
282,Heer Sankaran,03987259876,DL02826931,Delhivery,Chennai,Tamil Nadu,Active,2024-07-21 14:53:21
283,Navya Varughese,05487385349,DL02834547,In-house,New Delhi,Delhi,Active,2021-10-07 20:47:21
284,Kimaya Kata,7848124281,DL02845758,Delhivery,Mysuru,Karnataka,Inactive,2024-01-15 12:22:50
285,Shaan Bhavsar,03813812034,DL02855634,Shadowfax,Nagpur,Maharashtra,Active,2021-11-21 17:41:37
286,Pihu Borah,+914651522060,DL02864700,EcomExpress,Chennai,Tamil Nadu,Inactive,2024-02-08 01:46:02
287,Lagan Arya,02771639323,DL02874865,In-house,Coimbatore,Tamil Nadu,Active,2022-06-12 12:31:23
288,Tiya Chawla,03167127187,DL02885961,In-house,Coimbatore,Tamil Nadu,Active,2023-02-12 08:51:26
289,Raunak Wason,05580899683,DL02898290,In-house,Coimbatore,Tamil Nadu,Inactive,2025-06-22 03:27:26
290,Kabir Golla,09042579875,DL02907052,EcomExpress,New Delhi,Delhi,Inactive,2022-12-02 09:56:31
291,Damini Badal,02334002870,DL02919275,In-house,Coimbatore,Tamil Nadu,Inactive,2022-02-23 15:50:42
292,Shamik Sharma,+912513622254,DL02927266,In-house,Nagpur,Maharashtra,Active,2022-10-11 21:26:14
293,Pari Bobal,+910727066435,DL02936571,EcomExpress,Nagpur,Maharashtra,Inactive,2020-12-22 08:46:19
294,Mamooty Kamdar,00437362479,DL02948468,In-house,Pune,Maharashtra,Active,2022-05-22 21:27:41
295,Reyansh Bahri,+911803440076,DL02956731,Shadowfax,New Delhi,Delhi,Active,2023-02-10 00:56:14
296,Aniruddh Srivastava,6937093240,DL02967948,BlueDart,Coimbatore,Tamil Nadu,Active,2020-09-22 05:08:24
297,Damini Bajaj,00375310224,DL02979924,In-house,Bengaluru,Karnataka,Active,2024-09-07 18:25:54
298,Bhamini Chatterjee,2534301576,DL02988165,In-house,Mysuru,Karnataka,Inactive,2022-08-08 05:46:08
299,Zeeshan Bose,01608674199,DL02991372,EcomExpress,New Delhi,Delhi,Inactive,2022-04-11 20:17:42
300,Manikya Sachdeva,02945876446,DL03008888,BlueDart,Mysuru,Karnataka,Active,2021-04-10 09:41:44
301,Nakul Choudhry,+911494546313,DL03019675,EcomExpress,Ahmedabad,Gujarat,Active,2023-09-23 03:45:56
302,Diya Khalsa,+916455509435,DL03022650,In-house,Nagpur,Maharashtra,Inactive,2023-03-23 19:44:40
303,Kabir Khare,06517495035,DL03034471,In-house,Mumbai,Maharashtra,Inactive,2021-11-24 06:53:37
304,Sahil Dhaliwal,6589760799,DL03042105,In-house,Ahmedabad,Gujarat,Inactive,2021-03-26 22:48:43
305,Jivin Ravi,+913905124447,DL03053632,Delhivery,Nagpur,Maharashtra,Inactive,2020-08-29 14:27:37
306,Ela Sodhi,03680424011,DL03062185,Shadowfax,Ahmedabad,Gujarat,Inactive,2021-08-23 13:33:59
307,Saksham Ramakrishnan,5647266281,DL03077058,Shadowfax,Nagpur,Maharashtra,Inactive,2021-07-13 13:53:54
308,Hiran Virk,6528450704,DL03088344,EcomExpress,Mumbai,Maharashtra,Inactive,2020-03-18 21:31:54
309,Kavya Dara,2332062520,DL03092195,BlueDart,Surat,Gujarat,Active,2020-08-31 08:08:12
310,Gatik Hora,+915662218486,DL03108841,Shadowfax,Ahmedabad,Gujarat,Inactive,2025-01-14 06:29:07
311,Alisha Babu,08399784122,DL03117831,Shadowfax,Mysuru,Karnataka,Active,2021-01-10 05:27:08
312,Zeeshan Sachdev,8376603188,DL03129337,BlueDart,Ahmedabad,Gujarat,Active,2023-02-09 08:03:20
313,Vanya Salvi,09440311093,DL03132451,In-house,New Delhi,Delhi,Inactive,2022-07-11 00:05:25
314,Arnav Bhandari,+914732858173,DL03143816,EcomExpress,Ahmedabad,Gujarat,Inactive,2023-08-06 04:35:44
315,Mamooty Dua,+918528959718,DL03159771,Shadowfax,Mysuru,Karnataka,Inactive,2024-06-29 12:48:47
316,Uthkarsh Sathe,+914959255127,DL03167141,Shadowfax,Ahmedabad,Gujarat,Active,2020-08-26 18:09:26
317,Saksham Lal,+911947682474,DL03175782,Delhivery,Mysuru,Karnataka,Active,2022-11-17 01:56:13
318,Sahil Ahuja,00629847627,DL03186089,Delhivery,Pune,Maharashtra,Inactive,2023-08-14 02:58:29
319,Elakshi Kar,+914087747888,DL03193449,Delhivery,Mumbai,Maharashtra,Inactive,2021-03-09 10:12:45
320,Suhana Shankar,04866953035,DL03206644,BlueDart,Pune,Maharashtra,Active,2020-06-26 10:14:25
321,Alia Sachar,7110367074,DL03213167,Shadowfax,Pune,Maharashtra,Active,2022-10-06 11:17:50
322,Umang Keer,+916778728732,DL03226031,BlueDart,Nagpur,Maharashtra,Inactive,2020-02-05 06:32:25
323,Tanya Bose,0372012026,DL03238472,In-house,Ahmedabad,Gujarat,Active,2024-06-25 03:50:40
324,Pihu Borah,05212810790,DL03243859,In-house,Chennai,Tamil Nadu,Active,2024-03-07 00:49:37
325,Zoya Krishna,+917715554788,DL03259024,In-house,Chennai,Tamil Nadu,Inactive,2020-02-11 08:56:55
326,Miraya Konda,+910207652908,DL03267762,BlueDart,New Delhi,Delhi,Active,2020-06-07 05:57:50
327,Adah Hans,00900419157,DL03279674,In-house,Ahmedabad,Gujarat,Inactive,2020-05-27 17:02:33
328,Samiha Sidhu,7622300825,DL03283205,Shadowfax,Mysuru,Karnataka,Inactive,2021-11-17 12:25:29
329,Sumer Choudhury,09947239549,DL03298849,Shadowfax,Nagpur,Maharashtra,Active,2022-01-07 00:28:29
330,Yuvaan Kumer,+914930582547,DL03307976,Shadowfax,Surat,Gujarat,Inactive,2020-06-18 18:11:53
331,Anya Chawla,9897422301,DL03319193,EcomExpress,Surat,Gujarat,Active,2020-04-01 10:26:23
332,Uthkarsh Yohannan,+911308286976,DL03328749,Delhivery,Mysuru,Karnataka,Inactive,2021-12-20 19:43:28
333,Pihu Bajaj,+911920764170,DL03335173,EcomExpress,Bengaluru,Karnataka,Active,2025-05-01 10:27:06
334,Mamooty Reddy,7770992343,DL03344859,BlueDart,Pune,Maharashtra,Active,2021-06-05 20:54:55
335,Dhanush Ghosh,+913915358100,DL03353185,Delhivery,Ahmedabad,Gujarat,Active,2020-02-12 10:06:40
336,Piya Anne,0422104876,DL03361100,Delhivery,Mumbai,Maharashtra,Inactive,2020-08-20 00:46:51
337,Pihu Kohli,09579714931,DL03377828,Delhivery,Bengaluru,Karnataka,Active,2024-08-24 08:24:50
338,Kavya Krish,01183094502,DL03388240,EcomExpress,Mumbai,Maharashtra,Active,2024-07-27 21:02:50
339,Nakul Sarkar,+917963034449,DL03392885,Shadowfax,Mysuru,Karnataka,Active,2021-09-04 07:50:49
340,Vanya Dhawan,08991244132,DL03403585,Shadowfax,Ahmedabad,Gujarat,Inactive,2024-03-09 10:52:51
341,Nakul Deshmukh,+917666608441,DL03412074,Shadowfax,New Delhi,Delhi,Inactive,2020-09-11 14:24:15
342,Yakshit Gour,1873459475,DL03422491,EcomExpress,Mysuru,Karnataka,Active,2025-07-12 00:43:39
343,Taimur Chokshi,6938106950,DL03437605,In-house,Coimbatore,Tamil Nadu,Inactive,2021-02-03 11:45:40
344,Madhav Dass,4622198692,DL03445129,Shadowfax,Surat,Gujarat,Inactive,2021-09-25 05:55:46
345,Samaira Dyal,0631062934,DL03454768,BlueDart,New Delhi,Delhi,Inactive,2021-03-07 12:11:12
346,Heer Chakrabarti,+913279006609,DL03464865,In-house,Pune,Maharashtra,Active,2024-07-24 09:08:34
347,Kashvi Toor,1073705012,DL03476603,Shadowfax,New Delhi,Delhi,Active,2023-07-26 01:17:26
348,Ehsaan Shukla,+919636226871,DL03482574,Shadowfax,New Delhi,Delhi,Active,2022-03-21 05:36:51
349,Krish Shanker,+915457964438,DL03493042,BlueDart,Chennai,Tamil Nadu,Inactive,2020-04-19 18:54:06
350,Zeeshan Chaudry,00409502739,DL03504982,BlueDart,Pune,Maharashtra,Inactive,2022-06-18 19:13:11
351,Kartik Yohannan,+914857521641,DL03511616,In-house,Surat,Gujarat,Inactive,2023-06-24 08:02:08
352,Neysa Krishnan,+918856639129,DL03524937,BlueDart,Nagpur,Maharashtra,Active,2022-07-19 15:32:11
353,Tanya Chander,+919567735255,DL03534225,EcomExpress,New Delhi,Delhi,Inactive,2021-12-01 07:39:06
354,Samar Mannan,02426408631,DL03546633,EcomExpress,Surat,Gujarat,Active,2024-05-17 15:06:45
355,Biju Sibal,01326334801,DL03556129,BlueDart,Pune,Maharashtra,Active,2022-02-27 20:54:17
356,Charvi Dubey,09770696959,DL03568556,Delhivery,Surat,Gujarat,Active,2021-04-24 10:35:26
357,Aniruddh Talwar,4507846967,DL03579704,Delhivery,Mumbai,Maharashtra,Inactive,2022-07-15 03:29:39
358,Aarush Gara,01743849724,DL03589492,Shadowfax,Ahmedabad,Gujarat,Inactive,2020-05-31 16:47:11
359,Vihaan Sani,+910693662559,DL03593924,In-house,Surat,Gujarat,Active,2021-01-25 07:53:00
360,Stuvan Chatterjee,3869658677,DL03604261,EcomExpress,Nagpur,Maharashtra,Active,2022-10-02 08:19:49
361,Suhana Dhar,+915367655808,DL03617350,In-house,Coimbatore,Tamil Nadu,Active,2022-10-23 15:32:39
362,Damini Contractor,5767428855,DL03626106,EcomExpress,Mysuru,Karnataka,Active,2020-09-29 04:37:22
363,Ehsaan Shroff,0403133257,DL03639359,EcomExpress,Ahmedabad,Gujarat,Active,2024-11-14 17:09:27
364,Shaan Raju,04842594412,DL03643337,BlueDart,Chennai,Tamil Nadu,Active,2023-01-10 04:43:10
365,Faiyaz Kalita,+916480917754,DL03656250,Delhivery,Surat,Gujarat,Active,2023-06-12 23:42:10
366,Shamik Badal,+918318382470,DL03661297,BlueDart,Bengaluru,Karnataka,Active,2020-07-03 01:07:35
367,Hazel Goyal,04251313380,DL03672007,EcomExpress,New Delhi,Delhi,Inactive,2025-05-18 03:47:46
368,Krish Subramanian,1100037461,DL03689542,Shadowfax,Ahmedabad,Gujarat,Active,2023-07-12 21:40:26
369,Dhruv Bakshi,+913497531022,DL03691358,Shadowfax,New Delhi,Delhi,Active,2022-11-04 16:36:58
370,Yashvi Varkey,06557196341,DL03702121,Delhivery,Bengaluru,Karnataka,Inactive,2020-08-05 03:07:50
371,Yashvi Mammen,01582400602,DL03719636,EcomExpress,Coimbatore,Tamil Nadu,Active,2020-03-18 16:07:14
372,Vaibhav Dey,6699633794,DL03727874,Shadowfax,Mysuru,Karnataka,Active,2023-06-03 07:45:07
373,Ojas Buch,4908073232,DL03732183,Delhivery,New Delhi,Delhi,Active,2025-07-09 09:38:48
374,Miraya Bhakta,09004517596,DL03741853,Shadowfax,Surat,Gujarat,Active,2020-08-27 10:24:19
375,Tushar Bassi,3666525228,DL03757355,Delhivery,Bengaluru,Karnataka,Inactive,2021-12-06 18:25:20
376,Samar Gour,07107718441,DL03768397,In-house,New Delhi,Delhi,Active,2022-08-28 19:49:46
377,Arhaan Talwar,+912136645049,DL03779328,In-house,Bengaluru,Karnataka,Active,2022-02-01 23:22:53
378,Bhavin Tella,+919656700248,DL03785179,BlueDart,Nagpur,Maharashtra,Inactive,2024-05-11 03:46:52
379,Mishti Sani,05330096196,DL03799749,EcomExpress,Pune,Maharashtra,Active,2022-10-28 13:08:26
380,Onkar Dasgupta,+911756053870,DL03808538,In-house,Ahmedabad,Gujarat,Active,2023-06-11 22:59:40
381,Mohanlal Sandal,05217802648,DL03813780,EcomExpress,New Delhi,Delhi,Inactive,2024-11-28 17:55:47
382,Darshit Lanka,2746799384,DL03822489,Shadowfax,Coimbatore,Tamil Nadu,Inactive,2025-02-19 22:46:09
383,Alisha Vohra,05943400531,DL03838586,Delhivery,New Delhi,Delhi,Inactive,2024-02-27 04:02:07
384,Tushar Mannan,+916891465756,DL03841469,BlueDart,Bengaluru,Karnataka,Active,2020-11-11 05:52:30
385,Kabir Kashyap,02698623154,DL03859411,BlueDart,Bengaluru,Karnataka,Active,2020-03-10 02:00:27
386,Divit Balasubramanian,8198954796,DL03863676,Shadowfax,New Delhi,Delhi,Active,2020-03-30 15:35:15
387,Jayesh Barman,02996132835,DL03879392,In-house,Chennai,Tamil Nadu,Inactive,2022-05-28 07:16:46
388,Shanaya Kothari,01863201180,DL03889629,BlueDart,Mumbai,Maharashtra,Active,2023-09-22 11:40:46
389,Aarush Ramachandran,+912813665781,DL03899611,BlueDart,Mysuru,Karnataka,Active,2021-11-15 13:35:59
390,Yashvi Dasgupta,03787061557,DL03907216,Shadowfax,Ahmedabad,Gujarat,Active,2020-08-29 03:28:40
391,Samarth Sarna,09289735327,DL03917271,BlueDart,Coimbatore,Tamil Nadu,Inactive,2020-04-06 09:19:43
392,Elakshi Tata,+919284049763,DL03924678,Shadowfax,Chennai,Tamil Nadu,Active,2021-02-20 03:30:22
393,Eshani Bava,09469475626,DL03938202,Shadowfax,Nagpur,Maharashtra,Active,2025-03-14 21:03:02
394,Siya Rao,+919931938131,DL03946110,Delhivery,Nagpur,Maharashtra,Active,2021-06-04 19:28:50
395,Sara Balan,+911719420829,DL03951489,BlueDart,Nagpur,Maharashtra,Inactive,2022-05-17 20:24:06
396,Samar Hari,5447548903,DL03965985,BlueDart,New Delhi,Delhi,Inactive,2023-03-19 16:10:39
397,Nirvaan Bhargava,4677249553,DL03975104,Delhivery,Pune,Maharashtra,Inactive,2022-12-27 03:56:59
398,Yasmin Lad,01448452148,DL03981963,Shadowfax,New Delhi,Delhi,Inactive,2025-03-15 01:39:45
399,Eva Bansal,0204252847,DL03994315,Shadowfax,Chennai,Tamil Nadu,Active,2023-03-02 06:35:17
400,Diya Gandhi,05114926000,DL04005540,In-house,Bengaluru,Karnataka,Active,2021-10-02 05:07:33
401,Purab Dayal,9265704019,DL04014801,Delhivery,Pune,Maharashtra,Inactive,2023-05-18 08:11:39
402,Madhav Bal,5684946995,DL04028478,EcomExpress,Bengaluru,Karnataka,Active,2024-06-03 15:35:21
403,Zoya Sarna,+914749031052,DL04037349,BlueDart,Chennai,Tamil Nadu,Active,2021-05-30 09:36:20
404,Riaan Chandran,1054200123,DL04049055,EcomExpress,Mumbai,Maharashtra,Inactive,2022-09-29 06:36:04
405,Eva Mammen,0705569935,DL04057751,Shadowfax,Nagpur,Maharashtra,Inactive,2025-03-26 20:46:54
406,Pari Srinivasan,2989533650,DL04069586,Shadowfax,Pune,Maharashtra,Active,2025-03-01 07:25:14
407,Hazel Koshy,9065678844,DL04071244,BlueDart,Ahmedabad,Gujarat,Active,2024-08-30 04:57:20
408,Zara Lala,+910603942037,DL04089375,BlueDart,New Delhi,Delhi,Active,2022-12-10 02:56:02
409,Nakul Chatterjee,5880060065,DL04097512,Delhivery,Pune,Maharashtra,Inactive,2025-03-02 09:46:19
410,Manikya Shah,01845435976,DL04101658,Shadowfax,Ahmedabad,Gujarat,Active,2020-03-05 21:17:51
411,Rati Joshi,+915422728978,DL04113938,In-house,Bengaluru,Karnataka,Active,2025-07-28 15:50:28
412,Anahita Garde,4612891138,DL04124878,EcomExpress,Chennai,Tamil Nadu,Inactive,2021-02-15 18:32:40
413,Yakshit Rana,5043190092,DL04131116,In-house,Pune,Maharashtra,Inactive,2020-01-01 14:43:11
414,Adira Sahni,4349150729,DL04149593,BlueDart,Pune,Maharashtra,Active,2021-02-07 08:14:59
415,Priyansh Borah,6750596563,DL04155375,In-house,Surat,Gujarat,Inactive,2021-05-10 19:08:51
416,Vivaan Suresh,06659461905,DL04165650,Delhivery,Bengaluru,Karnataka,Inactive,2020-11-18 02:10:59
417,Purab Mandal,07261158874,DL04173618,EcomExpress,New Delhi,Delhi,Active,2024-03-20 13:40:52
418,Hrishita Kibe,9840877833,DL04189714,Delhivery,Bengaluru,Karnataka,Active,2020-12-20 19:35:13
419,Advika Krishnamurthy,6756590994,DL04192933,In-house,New Delhi,Delhi,Inactive,2022-06-08 14:32:28
420,Raghav Manda,+916848168368,DL04207724,Shadowfax,Ahmedabad,Gujarat,Inactive,2023-11-09 20:04:13
421,Diya Yogi,09186926431,DL04211543,In-house,Coimbatore,Tamil Nadu,Active,2020-08-14 21:57:03
422,Gokul Grewal,05302571652,DL04222164,Delhivery,Coimbatore,Tamil Nadu,Inactive,2024-03-02 08:45:43
423,Hiran Choudhry,3244819471,DL04237449,BlueDart,Ahmedabad,Gujarat,Active,2023-05-18 20:22:41
424,Zeeshan Bhagat,0904663748,DL04245849,EcomExpress,Mumbai,Maharashtra,Inactive,2024-08-13 11:54:56
425,Purab Boase,07323836725,DL04255168,Shadowfax,Mysuru,Karnataka,Inactive,2023-11-29 09:33:05
426,Darshit Sarin,0509925918,DL04263236,In-house,Surat,Gujarat,Active,2023-07-01 07:30:41
427,Anay Dash,9034725961,DL04271518,EcomExpress,Ahmedabad,Gujarat,Inactive,2025-01-07 05:30:36
428,Nakul Rastogi,07444712464,DL04287104,Delhivery,Ahmedabad,Gujarat,Inactive,2021-11-10 14:33:21
429,Yakshit Kar,+919581328599,DL04294681,BlueDart,Mysuru,Karnataka,Active,2023-03-27 00:45:37
430,Reyansh Joshi,9828217945,DL04309458,Shadowfax,Ahmedabad,Gujarat,Active,2020-07-15 05:30:15
431,Ivana Bhalla,+911146581830,DL04318199,In-house,Pune,Maharashtra,Active,2025-09-09 17:25:57
432,Gatik Kaul,08509940427,DL04321355,Delhivery,New Delhi,Delhi,Inactive,2020-09-10 12:29:29
433,Dhruv Dewan,+915438291956,DL04331945,Delhivery,Ahmedabad,Gujarat,Active,2022-11-30 14:43:53
434,Priyansh Lalla,09434658663,DL04349717,EcomExpress,New Delhi,Delhi,Active,2022-10-08 21:21:45
435,Kashvi Vohra,+911515235115,DL04351260,In-house,Ahmedabad,Gujarat,Active,2023-11-22 11:40:23
436,Yasmin Andra,1714228659,DL04363824,EcomExpress,New Delhi,Delhi,Inactive,2023-06-19 08:39:17
437,Devansh Kala,06795601257,DL04373015,In-house,New Delhi,Delhi,Inactive,2025-03-14 06:45:18
438,Shalv Agrawal,+914706810279,DL04384695,In-house,Coimbatore,Tamil Nadu,Inactive,2022-11-06 21:48:01
439,Myra Dass,+915706418231,DL04391359,In-house,Mumbai,Maharashtra,Inactive,2023-07-29 08:55:01
440,Kartik Atwal,8977893414,DL04404599,EcomExpress,Surat,Gujarat,Active,2022-03-25 02:10:08
441,Kiara Kala,2799338013,DL04414384,Delhivery,New Delhi,Delhi,Inactive,2023-08-30 06:35:55
442,Uthkarsh Walla,9012511973,DL04427336,Shadowfax,Bengaluru,Karnataka,Inactive,2020-03-23 00:39:31
443,Jivin Ramakrishnan,0970549222,DL04431555,EcomExpress,Coimbatore,Tamil Nadu,Active,2020-11-27 13:42:58
444,Prisha Mani,+910904245569,DL04441895,Delhivery,New Delhi,Delhi,Inactive,2023-09-22 00:50:24
445,Navya Madan,+911238486502,DL04456437,Delhivery,Coimbatore,Tamil Nadu,Inactive,2022-02-04 09:18:00
446,Mannat Bava,3124152240,DL04467134,EcomExpress,Coimbatore,Tamil Nadu,Active,2025-08-29 12:47:28
447,Kashvi Datta,0652410311,DL04474226,BlueDart,Bengaluru,Karnataka,Active,2024-11-12 21:54:27
448,Hiran Swaminathan,6729796703,DL04488230,In-house,Nagpur,Maharashtra,Active,2022-04-24 02:45:00
449,Dishani Thaker,+917490791242,DL04493123,Delhivery,Chennai,Tamil Nadu,Inactive,2023-08-16 13:17:18
450,Jayant Bajaj,02889289045,DL04507946,In-house,Mysuru,Karnataka,Active,2021-04-25 16:46:54
451,Anay Mahal,06812871837,DL04518267,EcomExpress,Mysuru,Karnataka,Inactive,2023-09-30 03:41:02
452,Ivan Lad,04786525230,DL04521157,BlueDart,Mumbai,Maharashtra,Inactive,2025-09-06 22:39:30
453,Arhaan Choudhary,4809614698,DL04536880,Delhivery,New Delhi,Delhi,Inactive,2022-09-21 22:34:09
454,Madhup Shere,9273102156,DL04549382,Shadowfax,Pune,Maharashtra,Inactive,2023-11-19 16:40:20
455,Taran Bhandari,1794504935,DL04554315,BlueDart,Mysuru,Karnataka,Inactive,2025-06-01 09:08:00
456,Dhruv Grover,08461988210,DL04564304,Shadowfax,Nagpur,Maharashtra,Active,2025-04-19 22:53:43
457,Anahi Shroff,01224558734,DL04573883,EcomExpress,Mumbai,Maharashtra,Active,2025-02-14 15:07:32
458,Ira Krishnan,01529128448,DL04584894,Delhivery,Chennai,Tamil Nadu,Inactive,2020-11-14 05:19:35
459,Abram Doctor,+914161295640,DL04599518,Shadowfax,Chennai,Tamil Nadu,Active,2020-06-07 09:59:54
460,Alisha Kurian,08628731903,DL04604713,EcomExpress,Bengaluru,Karnataka,Inactive,2022-06-20 22:45:44
461,Chirag Som,2446209235,DL04616609,BlueDart,Surat,Gujarat,Inactive,2021-03-28 09:02:44
462,Zain Deol,07515711255,DL04627023,In-house,Chennai,Tamil Nadu,Active,2021-11-04 01:24:06
463,Ahana  Bali,05932276934,DL04633672,BlueDart,New Delhi,Delhi,Active,2024-09-30 17:07:35
464,Madhav Gandhi,2793667939,DL04644072,EcomExpress,Chennai,Tamil Nadu,Active,2024-02-09 04:25:53
465,Himmat Anand,8564924346,DL04656048,BlueDart,Nagpur,Maharashtra,Active,2023-04-25 09:37:41
466,Jayant Johal,+912033893951,DL04665429,Shadowfax,Nagpur,Maharashtra,Inactive,2020-01-11 05:18:50
467,Inaaya  Devi,05619627460,DL04675882,In-house,Nagpur,Maharashtra,Active,2020-11-30 06:21:51
468,Dishani Bhalla,+917928099197,DL04687690,In-house,New Delhi,Delhi,Active,2020-08-07 12:04:13
469,Anay Divan,04890404269,DL04693162,Delhivery,Chennai,Tamil Nadu,Active,2021-08-05 04:53:42
470,Ela Bedi,+911630871114,DL04705034,Shadowfax,Pune,Maharashtra,Active,2023-01-14 22:25:26
471,Rohan Tak,04793892493,DL04718847,Shadowfax,Surat,Gujarat,Active,2021-03-01 09:02:51
472,Samar Sem,00170607594,DL04728453,Shadowfax,Coimbatore,Tamil Nadu,Active,2022-04-19 08:38:39
473,Anya Brahmbhatt,08719245946,DL04731758,In-house,Ahmedabad,Gujarat,Inactive,2020-02-19 01:23:34
474,Trisha Bhalla,+911497048182,DL04743867,Delhivery,Bengaluru,Karnataka,Inactive,2024-06-11 11:32:49
475,Alisha Kale,00317015694,DL04754149,EcomExpress,New Delhi,Delhi,Inactive,2023-12-14 07:31:45
476,Misha Gaba,05925860064,DL04765802,EcomExpress,Surat,Gujarat,Inactive,2020-08-19 02:06:23
477,Saira Sankaran,+918296137770,DL04777589,BlueDart,Bengaluru,Karnataka,Active,2020-02-28 14:02:32
478,Eva Golla,+919519862709,DL04787080,Delhivery,Surat,Gujarat,Active,2021-08-24 17:23:51
479,Damini Deshpande,+916794472361,DL04795454,BlueDart,New Delhi,Delhi,Active,2021-12-22 18:16:21
480,Aaina Deshpande,8628580236,DL04805462,EcomExpress,New Delhi,Delhi,Inactive,2022-05-07 12:56:19
481,Keya Yohannan,5489319015,DL04818034,BlueDart,Ahmedabad,Gujarat,Inactive,2022-01-30 15:53:58
482,Ahana  Vig,+916906171024,DL04828562,In-house,Chennai,Tamil Nadu,Inactive,2021-10-16 12:42:34
483,Taimur Tailor,+918621875631,DL04838862,EcomExpress,Coimbatore,Tamil Nadu,Inactive,2024-09-29 13:33:11
484,Kashvi Mammen,06784919315,DL04844881,EcomExpress,Chennai,Tamil Nadu,Inactive,2022-05-24 15:27:21
485,Ishaan Ramakrishnan,03550451589,DL04854470,In-house,New Delhi,Delhi,Inactive,2023-11-20 08:19:33
486,Anya Contractor,05271151836,DL04866625,In-house,Mysuru,Karnataka,Active,2025-02-12 04:20:25
487,Aaina Dyal,09485938949,DL04876594,BlueDart,New Delhi,Delhi,Active,2025-01-16 15:47:13
488,Prerak Gala,+911936831397,DL04883539,EcomExpress,Bengaluru,Karnataka,Active,2023-07-30 11:12:37
489,Siya Lad,6945492847,DL04896642,Delhivery,Bengaluru,Karnataka,Inactive,2025-04-29 11:09:04
490,Aradhya Chadha,06971646262,DL04904998,BlueDart,Nagpur,Maharashtra,Active,2020-10-05 05:54:57
491,Riaan Hans,+911837743762,DL04917639,Shadowfax,New Delhi,Delhi,Inactive,2020-02-22 04:05:24
492,Vihaan Chakraborty,9738127634,DL04927614,BlueDart,Coimbatore,Tamil Nadu,Inactive,2022-09-02 09:49:09
493,Veer Keer,01080120335,DL04932150,Delhivery,Nagpur,Maharashtra,Inactive,2022-02-18 14:47:34
494,Dhruv Bedi,0633794730,DL04941907,EcomExpress,Surat,Gujarat,Inactive,2024-10-25 16:36:21
495,Aniruddh Ganesan,+918175960594,DL04951990,BlueDart,Chennai,Tamil Nadu,Inactive,2020-06-22 11:12:08
496,Inaaya  Sathe,+917774091718,DL04969425,Delhivery,Nagpur,Maharashtra,Inactive,2020-07-10 10:24:51
497,Uthkarsh Thaman,9074701452,DL04979572,Shadowfax,Coimbatore,Tamil Nadu,Active,2022-01-30 03:39:15
498,Taran Khatri,07627859115,DL04984090,In-house,Mysuru,Karnataka,Inactive,2023-01-27 16:16:16
499,Nehmat Babu,+912965764918,DL04994067,Shadowfax,Bengaluru,Karnataka,Inactive,2024-09-23 05:13:10
500,Vanya Garde,8853596939,DL05004975,EcomExpress,Ahmedabad,Gujarat,Inactive,2024-07-22 21:56:02
501,Neelofar Roy,0623173948,DL05015535,Delhivery,Mysuru,Karnataka,Active,2025-07-31 09:29:54
502,Vidur Walla,+918718868208,DL05028905,Shadowfax,Chennai,Tamil Nadu,Inactive,2021-02-02 00:51:30
503,Ivan Buch,+912869391163,DL05033957,Delhivery,Mumbai,Maharashtra,Inactive,2020-06-28 00:32:06
504,Eshani Korpal,02679456883,DL05048955,EcomExpress,Nagpur,Maharashtra,Inactive,2021-04-16 05:01:21
505,Neysa Khurana,+919733579245,DL05058158,Shadowfax,New Delhi,Delhi,Inactive,2021-10-11 06:17:26
506,Divyansh Sankaran,8638329960,DL05068791,EcomExpress,Nagpur,Maharashtra,Inactive,2023-04-09 07:37:23
507,Alia Bahl,4699071601,DL05074821,Delhivery,Pune,Maharashtra,Inactive,2020-03-19 22:53:56
508,Elakshi Thakur,+912066202233,DL05086522,Delhivery,Pune,Maharashtra,Inactive,2025-09-04 10:33:46
509,Jiya Bal,7637927957,DL05098501,Delhivery,New Delhi,Delhi,Active,2022-08-14 18:29:31
510,Alisha Ahuja,+913778513269,DL05106829,BlueDart,Mysuru,Karnataka,Active,2022-07-14 01:31:42
511,Aradhya Borra,4601012098,DL05119034,In-house,Coimbatore,Tamil Nadu,Inactive,2021-08-01 07:22:19
512,Samar Karan,0336222683,DL05127604,Shadowfax,Ahmedabad,Gujarat,Inactive,2021-06-17 02:24:54
513,Aaina Bajwa,8256892607,DL05132626,EcomExpress,Coimbatore,Tamil Nadu,Inactive,2025-07-04 11:20:57
514,Faiyaz Sandal,9074858987,DL05147193,EcomExpress,Mumbai,Maharashtra,Active,2020-11-06 03:00:36
515,Shalv Dar,01995391744,DL05153555,EcomExpress,Chennai,Tamil Nadu,Inactive,2020-01-10 10:57:12
516,Alia Sur,+914989818228,DL05169113,Shadowfax,Chennai,Tamil Nadu,Active,2020-02-23 02:35:50
517,Ela Kashyap,05865344203,DL05177256,In-house,Coimbatore,Tamil Nadu,Inactive,2021-10-03 19:06:07
518,Advik Wadhwa,5139631539,DL05186076,In-house,Bengaluru,Karnataka,Active,2024-03-30 20:35:35
519,Nirvi Tailor,0700590016,DL05199534,Shadowfax,New Delhi,Delhi,Active,2025-08-27 08:00:11
520,Ryan Karpe,9742170613,DL05202603,EcomExpress,Coimbatore,Tamil Nadu,Active,2021-08-10 04:46:42
521,Adah Kala,+916262300198,DL05215524,BlueDart,Mysuru,Karnataka,Inactive,2021-03-14 09:14:53
522,Ayesha Gupta,1347306202,DL05222438,BlueDart,Chennai,Tamil Nadu,Inactive,2021-07-23 13:40:12
523,Tushar Venkatesh,02025703511,DL05235169,BlueDart,Chennai,Tamil Nadu,Active,2021-04-09 07:12:46
524,Piya Handa,+914675272417,DL05244602,EcomExpress,Bengaluru,Karnataka,Active,2020-10-02 19:24:53
525,Biju Gokhale,5661618386,DL05256033,BlueDart,New Delhi,Delhi,Active,2021-08-14 05:27:01
526,Shanaya Goswami,+914069325899,DL05265056,In-house,Mumbai,Maharashtra,Inactive,2021-02-17 14:17:56
527,Mamooty Dara,+913545907881,DL05279006,BlueDart,Coimbatore,Tamil Nadu,Active,2023-08-19 15:24:45
528,Shalv Aurora,+918880053911,DL05285180,Delhivery,Ahmedabad,Gujarat,Inactive,2025-01-20 09:06:25
529,Shayak Mangat,4996995440,DL05292104,In-house,Bengaluru,Karnataka,Inactive,2021-07-25 00:21:00
530,Adah Chaudry,03649587847,DL05306380,Delhivery,Pune,Maharashtra,Active,2024-01-07 03:00:17
531,Mehul Krish,02031221794,DL05314461,Delhivery,Bengaluru,Karnataka,Active,2020-08-14 20:30:43
532,Samaira Hayre,02932995699,DL05325641,BlueDart,New Delhi,Delhi,Inactive,2020-10-31 23:54:42
533,Hansh Ratta,+913202507877,DL05333414,Delhivery,Chennai,Tamil Nadu,Active,2022-08-21 23:08:06
534,Kaira Gaba,+915411889890,DL05346488,Shadowfax,Bengaluru,Karnataka,Active,2022-03-18 01:55:21
535,Adah Chandran,+911534129339,DL05351511,Delhivery,Mysuru,Karnataka,Active,2025-02-07 09:35:24
536,Adah Sood,7692112232,DL05367910,EcomExpress,Surat,Gujarat,Active,2020-05-30 00:29:55
537,Nishith Savant,05410798001,DL05375123,EcomExpress,Bengaluru,Karnataka,Inactive,2022-04-20 09:58:27
538,Vidur Gade,6392864495,DL05384823,EcomExpress,Coimbatore,Tamil Nadu,Active,2021-05-29 15:41:35
539,Samarth Wali,01751808712,DL05391280,BlueDart,Bengaluru,Karnataka,Inactive,2024-07-30 10:42:53
540,Lagan Sathe,01071688017,DL05407452,BlueDart,New Delhi,Delhi,Inactive,2023-07-07 00:50:27
541,Pranay Korpal,9548860989,DL05411207,Shadowfax,Coimbatore,Tamil Nadu,Inactive,2023-12-26 03:22:49
542,Ishaan Raju,+913042262709,DL05423036,Delhivery,Ahmedabad,Gujarat,Inactive,2020-03-12 15:19:39
543,Dishani Dayal,+917445279582,DL05437111,BlueDart,Ahmedabad,Gujarat,Inactive,2024-12-13 10:11:01
544,Kartik Bahl,0394518226,DL05443103,Delhivery,Coimbatore,Tamil Nadu,Active,2025-02-10 09:22:32
545,Eshani Sekhon,+919929759048,DL05452748,BlueDart,New Delhi,Delhi,Active,2022-05-24 09:14:57
546,Raghav Tata,02380764560,DL05464516,In-house,Mysuru,Karnataka,Active,2023-02-11 21:08:02
547,Abram Badami,1751382174,DL05477378,BlueDart,New Delhi,Delhi,Active,2023-03-05 09:51:23
548,Indranil Singh,0744112896,DL05486179,EcomExpress,Mumbai,Maharashtra,Inactive,2022-01-12 07:00:07
549,Kiaan Dani,+917810008089,DL05499468,In-house,Bengaluru,Karnataka,Active,2022-04-19 02:11:55
550,Pihu Reddy,+917214567226,DL05507258,Shadowfax,New Delhi,Delhi,Active,2023-10-29 13:46:29
551,Mamooty Shere,7330609261,DL05517915,BlueDart,Ahmedabad,Gujarat,Inactive,2021-07-01 21:25:57
552,Yuvaan Sheth,+911540429237,DL05523127,Shadowfax,Pune,Maharashtra,Inactive,2021-12-18 18:13:44
553,Mohanlal Chhabra,+916659531251,DL05531849,In-house,Coimbatore,Tamil Nadu,Inactive,2024-11-06 06:53:42
554,Kavya Shan,+910613133280,DL05549202,Shadowfax,Bengaluru,Karnataka,Inactive,2021-08-30 10:44:20
555,Divyansh Andra,+914105534716,DL05556550,EcomExpress,Bengaluru,Karnataka,Inactive,2024-12-22 19:31:23
556,Bhamini Sem,+912249099081,DL05569259,In-house,Bengaluru,Karnataka,Inactive,2021-11-13 02:30:51
557,Purab Ratti,+910247451488,DL05579713,In-house,Mysuru,Karnataka,Active,2023-04-14 13:56:53
558,Alia Mani,4516267411,DL05587686,In-house,Pune,Maharashtra,Inactive,2020-08-31 18:51:35
559,Hansh Roy,04124123406,DL05592955,EcomExpress,Bengaluru,Karnataka,Active,2024-05-08 21:55:51
560,Fateh Rout,9660927638,DL05608604,BlueDart,Chennai,Tamil Nadu,Inactive,2023-06-25 20:00:27
561,Vardaniya Wason,3465046431,DL05611021,Shadowfax,Coimbatore,Tamil Nadu,Inactive,2020-08-05 00:14:46
562,Vidur Chauhan,+913940158820,DL05624504,In-house,New Delhi,Delhi,Active,2022-06-06 17:13:32
563,Khushi Dave,07523540374,DL05636966,In-house,Mumbai,Maharashtra,Active,2023-12-06 12:09:33
564,Jiya Bora,+915428307376,DL05647055,EcomExpress,Nagpur,Maharashtra,Inactive,2023-08-30 19:00:00
565,Advik Chanda,5263789048,DL05658455,Shadowfax,New Delhi,Delhi,Active,2024-07-24 19:00:23
566,Faiyaz De,06802767358,DL05666575,In-house,Coimbatore,Tamil Nadu,Active,2020-04-19 00:30:05
567,Pihu Varghese,0032871966,DL05677581,BlueDart,Pune,Maharashtra,Inactive,2020-12-22 05:03:43
568,Elakshi Rastogi,+914751775440,DL05688019,EcomExpress,Bengaluru,Karnataka,Active,2025-07-27 06:58:54
569,Kimaya Wagle,02419213674,DL05692521,BlueDart,Ahmedabad,Gujarat,Active,2025-04-17 06:01:31
570,Vedika Virk,5691709352,DL05708841,Shadowfax,Surat,Gujarat,Active,2020-04-20 22:01:08
571,Keya Halder,03991368129,DL05711540,Delhivery,New Delhi,Delhi,Inactive,2025-04-11 17:40:55
572,Tejas Agarwal,+917129967987,DL05725609,Delhivery,New Delhi,Delhi,Inactive,2025-02-17 07:36:22
573,Gatik Ranganathan,04915990263,DL05734681,In-house,Nagpur,Maharashtra,Active,2021-11-16 16:25:13
574,Nakul Wali,04051659605,DL05749311,EcomExpress,New Delhi,Delhi,Inactive,2023-02-28 17:03:08
575,Indrajit Char,+916410816689,DL05754508,Delhivery,Mysuru,Karnataka,Active,2024-03-12 01:59:24
576,Ahana  Atwal,2592903038,DL05768628,In-house,Chennai,Tamil Nadu,Active,2025-02-10 23:26:58
577,Yakshit Thaker,08778899796,DL05777163,Shadowfax,Surat,Gujarat,Inactive,2020-01-11 16:30:51
578,Eshani Lala,8069536656,DL05781347,EcomExpress,Coimbatore,Tamil Nadu,Inactive,2023-11-17 09:37:56
579,Divij Devi,06082619938,DL05793608,BlueDart,Coimbatore,Tamil Nadu,Inactive,2023-10-23 20:38:56
580,Farhan Kalla,00159484247,DL05804161,In-house,Mysuru,Karnataka,Inactive,2020-06-06 23:34:37
581,Ritvik Som,+911081975632,DL05815527,EcomExpress,Surat,Gujarat,Active,2024-11-24 10:43:14
582,Kabir Rattan,4393041755,DL05827462,Shadowfax,Chennai,Tamil Nadu,Inactive,2024-08-11 13:35:01
583,Siya Chaudry,+913956861020,DL05832463,BlueDart,Ahmedabad,Gujarat,Active,2020-07-16 12:30:00
584,Kartik Bail,01924175940,DL05845204,In-house,Ahmedabad,Gujarat,Active,2024-04-19 13:03:15
585,Faiyaz Maharaj,+911622119624,DL05857833,In-house,New Delhi,Delhi,Active,2024-05-16 19:59:49
586,Umang Bobal,1368102516,DL05867700,EcomExpress,Chennai,Tamil Nadu,Active,2021-12-22 22:29:16
587,Shayak Bhattacharyya,+919756639578,DL05873689,In-house,Coimbatore,Tamil Nadu,Active,2022-03-22 10:17:16
588,Zara Shetty,+910991783281,DL05888848,Shadowfax,Ahmedabad,Gujarat,Active,2020-08-29 19:31:47
589,Mishti Gera,+916767275893,DL05894453,Shadowfax,Mumbai,Maharashtra,Inactive,2021-03-28 04:32:46
590,Shray Bedi,08688021223,DL05901132,EcomExpress,Pune,Maharashtra,Inactive,2020-06-25 05:26:34
591,Rohan Chatterjee,3008041391,DL05914037,BlueDart,Chennai,Tamil Nadu,Active,2024-08-04 14:29:56
592,Kiara Dora,5493453611,DL05926886,EcomExpress,New Delhi,Delhi,Active,2024-01-31 14:49:35
593,Oorja Buch,8534826066,DL05931987,In-house,New Delhi,Delhi,Active,2024-08-20 19:12:35
594,Heer Konda,05970367553,DL05949824,Shadowfax,Ahmedabad,Gujarat,Active,2024-08-25 16:32:13
595,Madhup Din,7421659155,DL05955789,EcomExpress,Mumbai,Maharashtra,Inactive,2023-01-29 16:44:13
596,Riya Dewan,09614299536,DL05968040,EcomExpress,Mysuru,Karnataka,Active,2020-08-04 00:23:31
597,Rohan Chada,2249484381,DL05979210,EcomExpress,Mumbai,Maharashtra,Active,2022-06-07 15:06:52
598,Indrans Trivedi,08596553989,DL05982250,Delhivery,Bengaluru,Karnataka,Active,2022-10-20 23:36:31
599,Anya Vohra,01735257687,DL05999543,BlueDart,Surat,Gujarat,Inactive,2023-07-28 21:00:52
600,Kaira Dora,2324801198,DL06007098,BlueDart,Nagpur,Maharashtra,Inactive,2025-03-12 17:13:20
601,Samiha Ranganathan,9103223593,DL06012069,Shadowfax,Mumbai,Maharashtra,Active,2025-03-21 05:30:44
602,Nitya Goel,+917685507103,DL06021639,In-house,Nagpur,Maharashtra,Active,2020-12-12 02:35:59
603,Nishith Dugar,02141779481,DL06034975,Shadowfax,New Delhi,Delhi,Active,2023-06-27 04:33:26
604,Uthkarsh Srinivas,+914682747593,DL06048744,Delhivery,Nagpur,Maharashtra,Inactive,2023-11-29 22:12:46
605,Nirvi Kala,+914159624688,DL06054624,Delhivery,Mysuru,Karnataka,Inactive,2022-04-11 14:19:29
606,Renee Bajwa,6754756481,DL06061461,BlueDart,New Delhi,Delhi,Active,2025-02-23 12:58:10
607,Arnav Trivedi,+919037551297,DL06073404,EcomExpress,Ahmedabad,Gujarat,Inactive,2022-11-15 18:20:52
608,Anahi Talwar,02004142331,DL06083842,EcomExpress,Coimbatore,Tamil Nadu,Inactive,2024-02-12 09:15:42
609,Purab Varughese,+918718882624,DL06097994,Delhivery,Chennai,Tamil Nadu,Active,2020-01-30 04:15:27
610,Kimaya Dubey,+914720067403,DL06104675,In-house,Chennai,Tamil Nadu,Inactive,2020-08-20 02:07:14
611,Abram Talwar,02699866087,DL06116938,Shadowfax,New Delhi,Delhi,Inactive,2023-11-22 12:38:37
612,Nehmat Rattan,+915115747531,DL06125014,Delhivery,Chennai,Tamil Nadu,Active,2022-10-16 06:19:19
613,Priyansh Dhillon,04635171653,DL06136371,EcomExpress,New Delhi,Delhi,Inactive,2025-08-22 05:44:39
614,Riaan Dutt,09116122174,DL06144054,Delhivery,New Delhi,Delhi,Inactive,2023-08-24 07:34:23
615,Aaryahi Chaudhary,+913987480939,DL06151350,In-house,Coimbatore,Tamil Nadu,Active,2023-07-18 16:46:06
616,Diya Shan,8539407194,DL06166917,In-house,New Delhi,Delhi,Active,2023-08-17 18:59:44
617,Shanaya Zacharia,05707342427,DL06173829,Shadowfax,Bengaluru,Karnataka,Inactive,2024-10-04 00:57:37
618,Ela Balan,3333900651,DL06188925,BlueDart,Coimbatore,Tamil Nadu,Inactive,2023-03-06 10:54:15
619,Seher Dhaliwal,4108302959,DL06198854,BlueDart,Chennai,Tamil Nadu,Inactive,2024-04-25 04:30:51
620,Kashvi Sastry,+912984873807,DL06202324,BlueDart,Ahmedabad,Gujarat,Active,2022-04-17 03:22:43
621,Tanya Talwar,3331885982,DL06212793,Shadowfax,Ahmedabad,Gujarat,Inactive,2021-10-13 00:54:48
622,Mamooty Keer,02569589169,DL06228638,EcomExpress,New Delhi,Delhi,Inactive,2023-02-13 11:32:51
623,Shayak Comar,+919199197893,DL06237081,BlueDart,Pune,Maharashtra,Active,2025-03-05 19:16:15
624,Ela Singh,06686281080,DL06245774,Shadowfax,Surat,Gujarat,Inactive,2021-05-30 19:16:51
625,Shamik Bhattacharyya,+913979570224,DL06255984,Delhivery,New Delhi,Delhi,Active,2024-05-13 17:12:23
626,Shaan Bawa,+915821218132,DL06262746,Delhivery,Coimbatore,Tamil Nadu,Inactive,2020-07-11 13:39:52
627,Indrajit Yadav,+913977954187,DL06272297,BlueDart,Bengaluru,Karnataka,Inactive,2023-11-29 11:40:18
628,Khushi Vyas,06245787977,DL06284703,Delhivery,Bengaluru,Karnataka,Active,2021-07-07 16:41:36
629,Nirvaan Keer,+911128231767,DL06298719,EcomExpress,Mumbai,Maharashtra,Inactive,2024-08-12 15:55:10
630,Pihu Rege,6142321452,DL06308114,Shadowfax,Surat,Gujarat,Active,2021-02-18 20:26:08
631,Inaaya  Chauhan,+915461643607,DL06315549,In-house,Mumbai,Maharashtra,Active,2021-05-11 02:25:48
632,Alisha Sarna,+910257442225,DL06324110,BlueDart,Bengaluru,Karnataka,Inactive,2025-01-13 13:10:16
633,Armaan Solanki,+916150075961,DL06336717,EcomExpress,Mysuru,Karnataka,Active,2024-06-23 21:41:30
634,Kavya Dewan,0591062327,DL06343222,EcomExpress,Bengaluru,Karnataka,Inactive,2021-07-03 01:10:16
635,Kimaya Mander,06964118005,DL06354538,EcomExpress,Coimbatore,Tamil Nadu,Active,2024-10-14 07:32:51
636,Urvi Khare,09400548326,DL06368174,Shadowfax,New Delhi,Delhi,Active,2021-04-28 06:16:57
637,Indrajit Edwin,06951877372,DL06378954,BlueDart,Bengaluru,Karnataka,Inactive,2022-03-08 02:24:15
638,Ritvik Ghosh,+911725682738,DL06386961,EcomExpress,Chennai,Tamil Nadu,Inactive,2023-09-25 22:32:27
639,Aniruddh Seth,04060428953,DL06391245,EcomExpress,Bengaluru,Karnataka,Inactive,2024-02-27 21:54:09
640,Aradhya Sampath,08707194633,DL06405129,Delhivery,New Delhi,Delhi,Inactive,2024-08-24 11:57:23
641,Aarush Hayer,9956134996,DL06413587,Delhivery,Coimbatore,Tamil Nadu,Inactive,2020-10-16 05:41:55
642,Zaina Mann,9933259645,DL06421198,Delhivery,Surat,Gujarat,Inactive,2020-04-13 20:55:53
643,Ehsaan Hans,08376203065,DL06434102,Delhivery,New Delhi,Delhi,Inactive,2021-03-22 09:37:39
644,Drishya Ramachandran,+917858491502,DL06442380,Delhivery,New Delhi,Delhi,Active,2022-08-05 01:18:27
645,Biju Verma,04249522031,DL06458106,Shadowfax,New Delhi,Delhi,Active,2020-07-03 06:25:09
646,Elakshi Chhabra,+912200411744,DL06462449,EcomExpress,Mysuru,Karnataka,Inactive,2020-10-22 11:51:41
647,Baiju Dada,9430505106,DL06471957,In-house,Bengaluru,Karnataka,Inactive,2023-06-18 17:37:59
648,Inaaya  Shanker,+918383011257,DL06483498,BlueDart,Chennai,Tamil Nadu,Inactive,2020-02-06 10:46:00
649,Divit Mahajan,8210355598,DL06498851,Delhivery,New Delhi,Delhi,Inactive,2022-04-23 11:45:30
650,Tarini Sathe,5573483290,DL06506823,EcomExpress,Coimbatore,Tamil Nadu,Active,2021-09-30 06:10:00
651,Manjari Kulkarni,0050309317,DL06512008,Shadowfax,New Delhi,Delhi,Active,2020-02-24 16:28:57
652,Jhanvi Kumer,02706014112,DL06528363,Shadowfax,Mysuru,Karnataka,Inactive,2021-04-23 16:18:03
653,Adah Ratti,02280398605,DL06535134,Delhivery,Coimbatore,Tamil Nadu,Inactive,2025-04-08 09:16:11
654,Saksham Goswami,1367316738,DL06546386,EcomExpress,Coimbatore,Tamil Nadu,Active,2022-01-13 19:50:22
655,Sana Dugar,+917809041197,DL06552882,Shadowfax,Coimbatore,Tamil Nadu,Inactive,2021-04-23 22:02:56
656,Farhan Bumb,08478179266,DL06567510,Shadowfax,Bengaluru,Karnataka,Active,2024-10-10 02:50:09
657,Kaira Sundaram,08244571928,DL06579187,Shadowfax,Surat,Gujarat,Active,2021-01-03 05:19:45
658,Rhea Loke,5560195356,DL06588795,BlueDart,Nagpur,Maharashtra,Active,2023-10-05 00:31:13
659,Stuvan Sha,+911943146744,DL06594120,BlueDart,Mumbai,Maharashtra,Active,2021-09-03 13:00:54
660,Raunak Tailor,0498808872,DL06607582,BlueDart,New Delhi,Delhi,Inactive,2022-05-25 08:36:14
661,Shray Verma,+912581601738,DL06617049,Delhivery,New Delhi,Delhi,Active,2025-07-30 16:51:01
662,Nehmat Jani,+917867916733,DL06627479,BlueDart,Surat,Gujarat,Inactive,2020-05-18 11:39:59
663,Manikya Sur,8251985797,DL06634995,Delhivery,New Delhi,Delhi,Active,2020-12-19 03:24:35
664,Amira Deo,2289917923,DL06645205,In-house,Nagpur,Maharashtra,Active,2022-07-30 14:49:31
665,Anika Deol,8704470707,DL06651481,Shadowfax,New Delhi,Delhi,Active,2023-07-13 07:28:30
666,Miraya Yohannan,03543325473,DL06668045,Delhivery,Coimbatore,Tamil Nadu,Active,2020-02-22 01:08:49
667,Suhana Bal,06313455411,DL06674748,BlueDart,Mysuru,Karnataka,Inactive,2021-05-28 02:12:06
668,Rania Shroff,+919918699180,DL06684700,Delhivery,Coimbatore,Tamil Nadu,Inactive,2022-03-19 12:39:17
669,Anika Viswanathan,04613623817,DL06698721,Delhivery,Ahmedabad,Gujarat,Active,2024-03-03 02:02:55
670,Urvi Mahajan,5106435249,DL06702447,Shadowfax,Mysuru,Karnataka,Active,2023-04-24 07:20:38
671,Anahi Hayer,08613298978,DL06711567,Shadowfax,Coimbatore,Tamil Nadu,Active,2020-07-23 04:13:21
672,Divyansh Gara,6699978572,DL06727127,BlueDart,Bengaluru,Karnataka,Active,2024-10-01 06:30:46
673,Ranbir Varma,09622851829,DL06733456,Shadowfax,Ahmedabad,Gujarat,Active,2023-01-23 06:26:49
674,Miraan Jha,08030614169,DL06747936,In-house,Coimbatore,Tamil Nadu,Active,2020-12-05 11:25:03
675,Manjari Dhawan,08105883882,DL06758181,Delhivery,Surat,Gujarat,Inactive,2021-09-18 12:15:49
676,Uthkarsh Shenoy,01711274069,DL06764986,BlueDart,Ahmedabad,Gujarat,Active,2022-02-14 12:13:44
677,Emir Shan,8401391588,DL06778515,Delhivery,Chennai,Tamil Nadu,Inactive,2020-04-30 14:03:06
678,Neelofar Rege,09830478859,DL06788613,EcomExpress,Chennai,Tamil Nadu,Inactive,2021-10-14 23:38:53
679,Manikya Lad,01004347288,DL06798750,Shadowfax,Mysuru,Karnataka,Active,2024-05-17 09:25:40
680,Rhea Salvi,7747378265,DL06808166,BlueDart,Pune,Maharashtra,Active,2021-09-26 18:44:43
681,Rhea Sangha,+914346075498,DL06814932,BlueDart,Ahmedabad,Gujarat,Active,2021-08-06 20:05:06
682,Nakul Agarwal,2297734779,DL06823638,BlueDart,Nagpur,Maharashtra,Active,2021-12-16 09:54:01
683,Mohanlal Tripathi,9875254273,DL06833448,Shadowfax,Chennai,Tamil Nadu,Active,2021-03-08 01:48:01
684,Anahita Saini,8659123065,DL06843633,In-house,Mysuru,Karnataka,Inactive,2021-05-20 02:38:50
685,Prerak Shere,+916440553213,DL06854428,EcomExpress,Chennai,Tamil Nadu,Active,2025-02-03 08:26:13
686,Damini Bahl,+911981393898,DL06867871,EcomExpress,New Delhi,Delhi,Inactive,2022-01-22 16:14:03
687,Himmat Sachdeva,+910220605714,DL06871909,EcomExpress,New Delhi,Delhi,Inactive,2023-11-10 09:30:48
688,Amira Chawla,08185601019,DL06884960,BlueDart,Bengaluru,Karnataka,Active,2023-06-06 23:07:11
689,Mohanlal Kannan,+916939802515,DL06891683,Shadowfax,Chennai,Tamil Nadu,Inactive,2023-10-21 04:23:18
690,Kartik Rajagopalan,0251933588,DL06907331,Shadowfax,Chennai,Tamil Nadu,Inactive,2024-09-19 11:22:45
691,Jivika Saxena,2577951894,DL06917600,In-house,Coimbatore,Tamil Nadu,Inactive,2022-12-06 03:10:06
692,Ivan Wali,6721273778,DL06927945,Delhivery,Mumbai,Maharashtra,Inactive,2021-02-14 01:04:28
693,Hridaan Bassi,+914505674517,DL06936920,Delhivery,New Delhi,Delhi,Inactive,2020-05-12 02:17:32
694,Tarini Hegde,0632474644,DL06947440,Shadowfax,Coimbatore,Tamil Nadu,Active,2021-04-17 19:46:43
695,Kismat Dugar,6771295556,DL06953296,BlueDart,Chennai,Tamil Nadu,Inactive,2023-02-21 10:16:01
696,Neelofar Golla,02913898892,DL06962302,BlueDart,Bengaluru,Karnataka,Inactive,2021-07-21 08:02:25
697,Kartik Saha,3350063137,DL06973696,EcomExpress,Chennai,Tamil Nadu,Inactive,2021-10-06 07:57:47
698,Hiran Dash,03116801517,DL06988567,In-house,Surat,Gujarat,Inactive,2020-10-18 19:15:51
699,Hunar Sidhu,+914419602835,DL06998419,Delhivery,Chennai,Tamil Nadu,Inactive,2020-05-21 20:05:44
700,Aarush Viswanathan,09785856389,DL07005791,In-house,Mysuru,Karnataka,Inactive,2021-02-15 17:04:46
701,Kartik Batta,1544360729,DL07014321,In-house,New Delhi,Delhi,Active,2024-05-11 23:29:57
702,Neelofar Mann,09812725569,DL07025708,BlueDart,New Delhi,Delhi,Active,2024-11-10 12:29:30
703,Kismat Cherian,+917120985950,DL07033695,Delhivery,Mysuru,Karnataka,Active,2020-10-27 13:50:35
704,Gokul Talwar,+913409856302,DL07048481,EcomExpress,Surat,Gujarat,Active,2023-01-18 07:13:03
705,Lavanya Ahuja,9228719814,DL07051327,BlueDart,Pune,Maharashtra,Active,2022-08-16 13:23:51
706,Raghav Walla,+917500649255,DL07063927,Shadowfax,Coimbatore,Tamil Nadu,Active,2020-03-07 21:18:01
707,Anaya Shankar,+918947046404,DL07071257,Delhivery,Bengaluru,Karnataka,Active,2025-01-28 19:25:07
708,Arnav Sandal,1749466511,DL07088597,Shadowfax,Ahmedabad,Gujarat,Inactive,2020-08-03 23:49:36
709,Samar Kaur,05518227158,DL07098493,Delhivery,New Delhi,Delhi,Inactive,2020-07-19 01:30:26
710,Vritika Rana,08961330136,DL07105012,BlueDart,New Delhi,Delhi,Inactive,2024-09-19 01:14:15
711,Vanya Solanki,04238032515,DL07111531,Delhivery,Ahmedabad,Gujarat,Inactive,2021-09-10 01:02:47
712,Saira Yadav,+919852426254,DL07129901,In-house,Surat,Gujarat,Active,2023-02-27 15:04:05
713,Sara Vig,+913970600236,DL07134150,EcomExpress,New Delhi,Delhi,Active,2024-11-14 21:35:30
714,Lavanya Jain,+917889722745,DL07143330,In-house,Nagpur,Maharashtra,Active,2020-09-10 10:03:27
715,Sahil Comar,05708694919,DL07151870,Shadowfax,Coimbatore,Tamil Nadu,Inactive,2024-01-21 12:57:52
716,Parinaaz Krish,06107084198,DL07163486,EcomExpress,Mysuru,Karnataka,Active,2024-10-31 21:43:36
717,Seher Lalla,6494934743,DL07173799,BlueDart,Chennai,Tamil Nadu,Inactive,2024-07-10 00:01:21
718,Tarini Sabharwal,+917230159101,DL07182762,BlueDart,Surat,Gujarat,Inactive,2023-05-01 21:03:17
719,Ivana Dara,05521660047,DL07192771,BlueDart,Ahmedabad,Gujarat,Inactive,2020-12-13 16:31:53
720,Raghav Buch,07456848242,DL07208803,Delhivery,New Delhi,Delhi,Active,2024-01-20 21:02:27
721,Indrans Dara,1356539253,DL07211732,Shadowfax,Surat,Gujarat,Inactive,2024-07-10 17:42:12
722,Hunar Mahal,6822686964,DL07222586,In-house,New Delhi,Delhi,Inactive,2023-02-05 07:08:55
723,Nirvi Sachar,06151794149,DL07238528,Shadowfax,Mumbai,Maharashtra,Active,2021-02-26 06:00:57
724,Tarini Kara,8790315697,DL07243728,EcomExpress,Surat,Gujarat,Inactive,2022-07-15 19:39:20
725,Shamik Sibal,00789681578,DL07254828,In-house,Pune,Maharashtra,Inactive,2021-10-12 12:08:25
726,Navya Gera,4556941370,DL07262062,Shadowfax,Nagpur,Maharashtra,Inactive,2023-03-11 09:50:58
727,Shaan Lall,0767249248,DL07276896,Delhivery,Nagpur,Maharashtra,Inactive,2020-09-22 06:49:50
728,Misha Sethi,+916476792556,DL07287424,In-house,Bengaluru,Karnataka,Inactive,2024-04-05 17:52:25
729,Jivin Seshadri,+917021201432,DL07291815,Shadowfax,New Delhi,Delhi,Inactive,2021-08-18 14:56:17
730,Oorja Sankar,9304739044,DL07303293,BlueDart,Coimbatore,Tamil Nadu,Active,2022-11-20 01:27:01
731,Rati Khalsa,8608021187,DL07313032,In-house,Ahmedabad,Gujarat,Inactive,2022-05-08 03:04:13
732,Rasha Bora,+910647592892,DL07324646,BlueDart,New Delhi,Delhi,Active,2024-07-23 12:54:19
733,Jivika Dasgupta,04493716638,DL07335811,Shadowfax,Chennai,Tamil Nadu,Active,2023-10-11 08:50:32
734,Dishani Gaba,+912750057765,DL07345493,Shadowfax,Ahmedabad,Gujarat,Inactive,2024-08-08 20:29:25
735,Suhana Babu,+917487746812,DL07352877,EcomExpress,Nagpur,Maharashtra,Inactive,2025-08-30 16:43:53
736,Anaya Bhattacharyya,+914228132762,DL07367384,Delhivery,Coimbatore,Tamil Nadu,Inactive,2020-11-08 19:00:31
737,Prerak Madan,01119200823,DL07378297,In-house,Coimbatore,Tamil Nadu,Inactive,2023-05-15 14:00:00
738,Vihaan Barman,7924352905,DL07386081,Delhivery,Chennai,Tamil Nadu,Active,2024-12-30 11:54:15
739,Vaibhav Borra,+917272210585,DL07395903,Delhivery,Ahmedabad,Gujarat,Active,2024-08-04 17:41:00
740,Prisha Bali,+916476196386,DL07404962,Delhivery,Bengaluru,Karnataka,Active,2024-03-07 21:48:10
741,Arnav Bansal,9751555021,DL07414653,EcomExpress,Bengaluru,Karnataka,Active,2022-04-22 13:54:56
742,Farhan Karan,03612838613,DL07427302,BlueDart,New Delhi,Delhi,Active,2023-08-21 09:06:15
743,Yuvraj  Sharma,9327747824,DL07436468,In-house,Chennai,Tamil Nadu,Inactive,2023-04-02 15:41:57
744,Vritika Kari,+916235211465,DL07445836,In-house,Bengaluru,Karnataka,Inactive,2024-04-02 16:42:31
745,Veer Randhawa,1510177006,DL07451879,Shadowfax,Surat,Gujarat,Inactive,2020-10-15 19:16:11
746,Lavanya Loke,06337447907,DL07462580,Delhivery,Bengaluru,Karnataka,Inactive,2023-11-21 21:27:55
747,Divij Yohannan,06052837039,DL07474440,BlueDart,Mysuru,Karnataka,Active,2021-04-01 12:52:13
748,Zoya Chaudhary,02850312694,DL07481188,In-house,Coimbatore,Tamil Nadu,Active,2022-02-20 08:53:38
749,Divit Bava,00070613243,DL07492018,BlueDart,Nagpur,Maharashtra,Inactive,2021-01-04 21:55:39
750,Stuvan Batra,9037507593,DL07502364,Shadowfax,Chennai,Tamil Nadu,Inactive,2023-01-17 04:24:41
751,Vritika Kapur,+913186347073,DL07517527,EcomExpress,Surat,Gujarat,Inactive,2024-03-18 08:44:31
752,Jayant Mallick,+911137879542,DL07526080,EcomExpress,Pune,Maharashtra,Inactive,2021-07-15 17:32:05
753,Kiara Shere,05783255084,DL07536553,EcomExpress,Pune,Maharashtra,Inactive,2021-09-01 07:38:53
754,Zoya Ram,+910823899331,DL07545069,In-house,Chennai,Tamil Nadu,Inactive,2021-03-13 09:51:48
755,Yuvaan Kaur,+912459800961,DL07558672,In-house,Coimbatore,Tamil Nadu,Active,2024-06-02 07:27:54
756,Krish Bhavsar,+919618060369,DL07568333,EcomExpress,New Delhi,Delhi,Active,2021-06-22 14:32:35
757,Siya Apte,03279340200,DL07575892,In-house,New Delhi,Delhi,Active,2024-01-02 00:50:44
758,Rasha Kashyap,03727165939,DL07589356,EcomExpress,New Delhi,Delhi,Active,2024-02-26 15:06:55
759,Adah Madan,0763043274,DL07597747,EcomExpress,Chennai,Tamil Nadu,Active,2023-06-15 14:21:02
760,Bhamini Babu,+916286578806,DL07602233,EcomExpress,Surat,Gujarat,Inactive,2021-05-17 22:11:18
761,Prisha Master,03904271505,DL07613535,EcomExpress,Pune,Maharashtra,Inactive,2020-10-02 22:29:18
762,Rhea Sahota,04307663804,DL07624630,EcomExpress,New Delhi,Delhi,Inactive,2024-04-01 08:03:21
763,Nitara Sachar,+916686268148,DL07632217,Shadowfax,New Delhi,Delhi,Inactive,2020-10-31 02:02:47
764,Aniruddh Ramanathan,03017410788,DL07649394,EcomExpress,Ahmedabad,Gujarat,Active,2025-03-14 12:58:19
765,Riya Sani,3299436229,DL07652904,EcomExpress,Chennai,Tamil Nadu,Active,2023-11-14 03:29:09
766,Anahita Tailor,9723131617,DL07664939,Delhivery,New Delhi,Delhi,Active,2020-03-31 04:41:33
767,Vedika Chhabra,5371126661,DL07679469,In-house,Mysuru,Karnataka,Inactive,2022-08-13 00:50:06
768,Gatik Tandon,+917685322631,DL07684233,EcomExpress,Coimbatore,Tamil Nadu,Active,2024-08-30 11:35:18
769,Aaina Ahuja,4941785350,DL07691697,Shadowfax,New Delhi,Delhi,Inactive,2023-02-10 08:32:28
770,Zara Brar,8775024625,DL07701324,EcomExpress,Surat,Gujarat,Active,2020-05-25 20:54:52
771,Ryan Mane,9623544925,DL07718398,EcomExpress,Surat,Gujarat,Inactive,2020-06-21 07:17:10
772,Indrans Kale,+915863397676,DL07723481,EcomExpress,Bengaluru,Karnataka,Inactive,2021-06-11 22:48:52
773,Purab Dugar,01007677832,DL07734413,In-house,New Delhi,Delhi,Active,2020-04-03 21:38:30
774,Saksham Khare,+910180895178,DL07742113,BlueDart,Mumbai,Maharashtra,Active,2021-02-15 14:11:57
775,Ranbir Kamdar,+915150732568,DL07753122,Delhivery,Surat,Gujarat,Inactive,2025-05-07 18:23:00
776,Indranil Bala,+912815875811,DL07764433,Delhivery,Bengaluru,Karnataka,Inactive,2025-06-30 18:05:31
777,Gokul Dasgupta,+914528969925,DL07774406,Shadowfax,Coimbatore,Tamil Nadu,Inactive,2020-07-28 01:13:40
778,Shaan Sachdeva,3871844342,DL07784483,Shadowfax,Ahmedabad,Gujarat,Inactive,2023-08-12 20:05:03
779,Ela Kari,9873911481,DL07795901,EcomExpress,Mysuru,Karnataka,Active,2020-09-23 18:35:19
780,Tiya Sama,4279265806,DL07804940,EcomExpress,Bengaluru,Karnataka,Active,2021-05-23 11:43:39
781,Dhanuk Bansal,00661639533,DL07815190,In-house,Surat,Gujarat,Active,2025-03-20 17:22:32
782,Anvi Dara,7944965764,DL07823648,EcomExpress,Surat,Gujarat,Active,2024-10-26 12:49:22
783,Aaryahi Amble,06238320147,DL07833053,BlueDart,Mumbai,Maharashtra,Active,2020-08-16 07:30:59
784,Hansh Vohra,09760063501,DL07841794,In-house,Mysuru,Karnataka,Active,2021-05-25 15:14:42
785,Zain Dey,08094283551,DL07857903,Delhivery,Coimbatore,Tamil Nadu,Inactive,2025-04-20 18:28:51
786,Indrans Chandran,+916060028646,DL07861792,Delhivery,Coimbatore,Tamil Nadu,Active,2024-11-14 20:36:20
787,Manikya Sami,+917474634338,DL07872417,In-house,Pune,Maharashtra,Active,2024-01-12 03:50:56
788,Jivin Kibe,8242485176,DL07881194,In-house,Mysuru,Karnataka,Inactive,2020-02-28 01:59:59
789,Ritvik Hans,7998868456,DL07898162,Delhivery,Mysuru,Karnataka,Inactive,2024-08-17 07:12:24
790,Samarth Rout,09345098274,DL07903758,Shadowfax,Coimbatore,Tamil Nadu,Inactive,2025-06-10 14:21:13
791,Sana Luthra,00931596213,DL07915813,BlueDart,Coimbatore,Tamil Nadu,Active,2022-04-05 08:29:45
792,Aradhya Baral,09394028995,DL07922041,Delhivery,Mysuru,Karnataka,Inactive,2020-08-04 20:08:05
793,Samarth Khosla,+912185671234,DL07934551,In-house,Coimbatore,Tamil Nadu,Active,2023-05-20 21:29:46
794,Damini Kapoor,+916771912431,DL07941516,BlueDart,Chennai,Tamil Nadu,Active,2021-06-17 03:25:42
795,Priyansh Sangha,7435832557,DL07956686,EcomExpress,New Delhi,Delhi,Active,2024-05-05 00:19:03
796,Mahika Mann,1562332920,DL07966010,In-house,Coimbatore,Tamil Nadu,Inactive,2020-10-15 04:08:07
797,Saanvi Chad,02025426664,DL07979228,In-house,New Delhi,Delhi,Active,2021-07-08 16:20:46
798,Bhamini Saxena,4509341183,DL07983516,In-house,Ahmedabad,Gujarat,Inactive,2025-04-17 01:20:35
799,Divit Sur,+915725136021,DL07998311,BlueDart,Mysuru,Karnataka,Inactive,2023-04-04 08:41:57
800,Dhanush Kala,3710490725,DL08006431,Shadowfax,Coimbatore,Tamil Nadu,Inactive,2024-10-06 17:50:42
801,Bhamini Dhar,+913968036198,DL08016706,EcomExpress,Pune,Maharashtra,Inactive,2022-12-29 18:34:37
802,Khushi Lall,04661422494,DL08026818,In-house,Surat,Gujarat,Inactive,2025-06-24 10:11:47
803,Divyansh Loke,03661296999,DL08036841,Shadowfax,Coimbatore,Tamil Nadu,Active,2023-07-18 22:48:44
804,Zain Bains,03342466358,DL08042825,BlueDart,New Delhi,Delhi,Inactive,2022-09-19 13:52:12
805,Aaina Tripathi,08766943887,DL08059686,Delhivery,Surat,Gujarat,Active,2021-11-12 14:40:57
806,Oorja Desai,04247622997,DL08063349,In-house,Surat,Gujarat,Active,2024-01-30 01:57:24
807,Manikya Sekhon,+915978504368,DL08074320,Shadowfax,Surat,Gujarat,Active,2022-01-27 19:21:46
808,Kismat Basak,+911358325028,DL08088144,EcomExpress,Surat,Gujarat,Active,2020-08-16 23:34:15
809,Taimur Soman,01186955440,DL08093144,In-house,Coimbatore,Tamil Nadu,Active,2024-10-24 09:12:57
810,Stuvan Wadhwa,03944378532,DL08101517,Shadowfax,Coimbatore,Tamil Nadu,Inactive,2024-10-17 10:23:42
811,Seher De,3554307666,DL08113197,Shadowfax,Mysuru,Karnataka,Inactive,2023-08-27 20:24:27
812,Lakshit Shere,3979735383,DL08124942,In-house,New Delhi,Delhi,Inactive,2025-05-26 19:04:44
813,Vivaan Chad,+911561867499,DL08133685,Shadowfax,Coimbatore,Tamil Nadu,Inactive,2020-03-09 04:09:12
814,Farhan Sandal,01097920538,DL08147265,BlueDart,Ahmedabad,Gujarat,Inactive,2021-02-15 23:04:18
815,Vritika Krishnamurthy,+910609053808,DL08151955,BlueDart,Coimbatore,Tamil Nadu,Active,2021-03-04 09:20:20
816,Nehmat Shukla,01073185350,DL08166116,Delhivery,Ahmedabad,Gujarat,Inactive,2023-01-09 17:02:40
817,Ranbir Tak,7814616832,DL08174181,Shadowfax,Coimbatore,Tamil Nadu,Active,2022-01-11 08:49:26
818,Kiara Contractor,+911792973033,DL08186700,Shadowfax,Chennai,Tamil Nadu,Inactive,2024-07-23 08:04:28
819,Oorja Agrawal,4130592531,DL08195529,Shadowfax,Mysuru,Karnataka,Active,2025-02-03 15:27:00
820,Lagan Garg,8195811539,DL08207098,In-house,Mysuru,Karnataka,Active,2022-05-01 06:35:29
821,Yakshit Krishnan,+912510273708,DL08217754,Shadowfax,Surat,Gujarat,Inactive,2021-09-24 12:11:32
822,Shaan Kurian,+912676361681,DL08222301,In-house,Ahmedabad,Gujarat,Inactive,2021-01-04 10:19:23
823,Samarth Butala,4146709013,DL08239245,Shadowfax,New Delhi,Delhi,Active,2023-11-20 07:53:59
824,Madhav Thakur,0379190189,DL08245655,EcomExpress,New Delhi,Delhi,Inactive,2020-10-11 10:59:38
825,Alia Sagar,+917055706019,DL08252268,In-house,Pune,Maharashtra,Active,2024-12-18 16:28:38
826,Tejas Lanka,+919692917773,DL08268322,In-house,Ahmedabad,Gujarat,Inactive,2020-12-23 01:18:37
827,Ishita Mani,+916812111524,DL08272175,EcomExpress,Surat,Gujarat,Inactive,2023-11-19 22:00:37
828,Anaya Shan,09385105067,DL08287007,EcomExpress,Coimbatore,Tamil Nadu,Inactive,2024-12-13 17:25:47
829,Darshit Suri,07867074317,DL08298972,EcomExpress,New Delhi,Delhi,Active,2021-03-01 17:51:40
830,Raunak Sarkar,02868618190,DL08305099,EcomExpress,Mysuru,Karnataka,Inactive,2020-02-25 08:28:05
831,Piya DAlia,+913344252912,DL08313047,BlueDart,Ahmedabad,Gujarat,Active,2020-03-19 06:46:24
832,Seher Dhawan,+916021921221,DL08327086,In-house,Bengaluru,Karnataka,Inactive,2025-08-19 06:55:51
833,Aarush Balasubramanian,01585410665,DL08335774,Delhivery,Coimbatore,Tamil Nadu,Active,2020-03-07 13:36:40
834,Siya Talwar,07552981546,DL08343023,EcomExpress,Bengaluru,Karnataka,Inactive,2023-04-01 05:35:47
835,Ritvik Bala,4945571155,DL08353785,BlueDart,Coimbatore,Tamil Nadu,Active,2024-02-26 02:17:34
836,Ojas Salvi,4451312993,DL08365421,BlueDart,Surat,Gujarat,Active,2020-08-18 13:10:23
837,Jivin Vyas,06939872943,DL08371766,EcomExpress,Chennai,Tamil Nadu,Active,2023-12-11 05:22:14
838,Mehul Datta,+910312614250,DL08381974,In-house,New Delhi,Delhi,Active,2022-06-02 04:13:19
839,Veer Kala,03720283412,DL08393560,EcomExpress,Coimbatore,Tamil Nadu,Inactive,2024-08-10 15:58:37
840,Ishaan Sane,+912286683910,DL08403420,Shadowfax,Ahmedabad,Gujarat,Inactive,2023-10-21 21:37:12
841,Ritvik Dua,+915154531553,DL08414161,Shadowfax,Mysuru,Karnataka,Inactive,2024-09-16 18:03:42
842,Damini Sinha,04424164358,DL08422839,Shadowfax,Surat,Gujarat,Active,2023-05-10 16:32:38
843,Romil Sura,04065582230,DL08436549,Delhivery,Bengaluru,Karnataka,Active,2023-02-17 21:07:19
844,Lagan Tailor,2987772673,DL08444039,EcomExpress,Mysuru,Karnataka,Active,2020-07-24 07:07:32
845,Rati Chokshi,08812767990,DL08456362,Delhivery,New Delhi,Delhi,Active,2023-03-03 04:41:26
846,Hridaan Saraf,+912860001290,DL08467362,EcomExpress,Pune,Maharashtra,Inactive,2021-06-06 22:37:32
847,Tarini Majumdar,+914298775563,DL08473106,Delhivery,Bengaluru,Karnataka,Active,2023-03-20 11:25:19
848,Devansh Rattan,1653226571,DL08488953,Delhivery,New Delhi,Delhi,Inactive,2022-09-26 06:49:34
849,Divij Ravi,+918882875677,DL08494785,BlueDart,New Delhi,Delhi,Active,2021-01-09 08:37:54
850,Manjari Venkatesh,4066572138,DL08508186,In-house,Mumbai,Maharashtra,Inactive,2020-06-10 10:48:31
851,Navya Sarraf,+915030123692,DL08518524,EcomExpress,New Delhi,Delhi,Active,2025-04-14 08:11:52
852,Aayush Mani,+914665556684,DL08523480,Shadowfax,Mysuru,Karnataka,Active,2024-09-11 09:47:44
853,Aniruddh Subramanian,2728213912,DL08531498,EcomExpress,Ahmedabad,Gujarat,Inactive,2023-03-20 20:00:39
854,Zain Warrior,0680777891,DL08548175,In-house,Bengaluru,Karnataka,Active,2023-12-06 21:20:00
855,Lavanya Keer,+919110737153,DL08553810,EcomExpress,Surat,Gujarat,Inactive,2022-12-11 17:41:10
856,Nirvaan Seshadri,1029981111,DL08561693,BlueDart,Pune,Maharashtra,Active,2023-02-16 05:11:11
857,Miraan Sami,+918635781768,DL08572066,Shadowfax,Mysuru,Karnataka,Inactive,2022-01-10 11:39:12
858,Anvi Dua,+918446566737,DL08587114,In-house,Mysuru,Karnataka,Active,2025-05-31 05:00:28
859,Urvi Kanda,+915711191224,DL08596440,BlueDart,Surat,Gujarat,Inactive,2023-02-03 22:28:55
860,Devansh Baria,9569769493,DL08601344,EcomExpress,Surat,Gujarat,Active,2024-12-21 11:53:18
861,Romil Lal,00299182104,DL08619188,In-house,Mysuru,Karnataka,Inactive,2024-04-03 00:45:26
862,Aayush Ghose,7557862193,DL08627563,EcomExpress,Chennai,Tamil Nadu,Inactive,2022-11-07 11:31:44
863,Nakul Bose,8855484060,DL08635915,BlueDart,Mysuru,Karnataka,Active,2022-09-19 17:05:12
864,Hazel Yogi,08205017091,DL08642557,Delhivery,Chennai,Tamil Nadu,Active,2022-01-21 22:37:43
865,Rohan Sandal,02843902261,DL08659406,EcomExpress,Mysuru,Karnataka,Active,2022-09-05 16:02:05
866,Dharmajan Mallick,00879230992,DL08664480,In-house,Bengaluru,Karnataka,Inactive,2022-06-29 16:32:51
867,Dharmajan Dewan,9004815258,DL08679522,EcomExpress,Chennai,Tamil Nadu,Inactive,2023-09-21 11:04:33
868,Sahil Dugal,00744846820,DL08682825,Shadowfax,Bengaluru,Karnataka,Active,2022-12-20 04:14:52
869,Advik Sathe,00343216249,DL08691707,EcomExpress,Surat,Gujarat,Inactive,2021-02-04 05:04:25
870,Ryan Gara,5587601822,DL08706855,EcomExpress,Mysuru,Karnataka,Active,2021-01-20 09:31:35
871,Vritika Gokhale,0951965033,DL08713431,Delhivery,Ahmedabad,Gujarat,Active,2025-02-27 14:26:07
872,Saira Mandal,+915141657006,DL08721932,In-house,Chennai,Tamil Nadu,Inactive,2023-09-16 20:19:28
873,Lavanya Kala,+917385843494,DL08733445,Shadowfax,Mumbai,Maharashtra,Inactive,2021-04-29 07:43:07
874,Alia Mand,0856537972,DL08748416,EcomExpress,Nagpur,Maharashtra,Active,2024-04-30 03:53:38
875,Aaryahi Kalla,00747254180,DL08759240,Shadowfax,Ahmedabad,Gujarat,Inactive,2021-06-20 14:57:47
876,Vaibhav Varughese,08750073454,DL08768586,BlueDart,Mysuru,Karnataka,Active,2021-06-14 04:44:29
877,Tanya Hayre,7857521700,DL08775703,EcomExpress,Chennai,Tamil Nadu,Active,2022-02-01 17:15:55
878,Madhup Mani,2631120322,DL08789360,Shadowfax,Chennai,Tamil Nadu,Inactive,2024-11-22 05:53:38
879,Nitara Doshi,03564884529,DL08792679,EcomExpress,Mysuru,Karnataka,Active,2023-08-01 19:21:55
880,Riaan Chandra,0455042694,DL08802947,In-house,Ahmedabad,Gujarat,Active,2021-03-14 14:24:14
881,Mamooty Sood,+919527062981,DL08814338,Delhivery,Surat,Gujarat,Inactive,2021-04-22 01:01:00
882,Vidur Sabharwal,+915977774147,DL08825520,Delhivery,Nagpur,Maharashtra,Inactive,2025-04-27 00:14:03
883,Jivika Shukla,7729866723,DL08839623,Delhivery,New Delhi,Delhi,Inactive,2020-02-22 23:34:16
884,Saanvi Bhasin,07364727971,DL08844778,EcomExpress,Coimbatore,Tamil Nadu,Active,2024-09-07 11:19:47
885,Reyansh Madan,+916718138620,DL08853608,BlueDart,Chennai,Tamil Nadu,Active,2023-05-25 20:01:21
886,Saanvi Agrawal,1206165975,DL08869196,Delhivery,Mysuru,Karnataka,Inactive,2022-06-06 02:26:36
887,Jayan Din,06064725607,DL08874024,Shadowfax,Chennai,Tamil Nadu,Active,2025-08-25 06:55:21
888,Kiara Ramanathan,+919824023636,DL08884552,In-house,Nagpur,Maharashtra,Inactive,2022-03-29 19:23:19
889,Dharmajan Deshmukh,04571061129,DL08893927,Delhivery,Coimbatore,Tamil Nadu,Active,2023-04-11 23:27:37
890,Yasmin Wadhwa,+916067051059,DL08908331,BlueDart,Surat,Gujarat,Inactive,2022-09-08 08:00:39
891,Samiha Madan,+911654190471,DL08912079,BlueDart,Mysuru,Karnataka,Inactive,2024-05-27 07:06:00
892,Kiara Vyas,+914784800912,DL08924921,BlueDart,New Delhi,Delhi,Inactive,2024-07-02 17:25:55
893,Eshani Dash,+910268937240,DL08934216,In-house,New Delhi,Delhi,Active,2022-04-18 11:22:18
894,Riya Sharma,+915545769041,DL08948668,BlueDart,New Delhi,Delhi,Inactive,2021-09-12 21:09:03
895,Shamik Lall,08647288052,DL08951432,BlueDart,Bengaluru,Karnataka,Active,2020-07-19 09:10:56
896,Divyansh Ratti,00246076727,DL08968560,EcomExpress,New Delhi,Delhi,Active,2024-07-15 13:43:53
897,Anahita Kashyap,+916457715471,DL08971947,BlueDart,Surat,Gujarat,Active,2022-08-08 09:13:47
898,Miraan Swamy,+917292234555,DL08984515,EcomExpress,Surat,Gujarat,Inactive,2025-06-07 10:33:47
899,Anahi Barad,+911802570378,DL08993308,Shadowfax,New Delhi,Delhi,Active,2024-02-26 06:06:34
900,Vaibhav Sharaf,5975972109,DL09003160,BlueDart,Surat,Gujarat,Active,2024-02-01 06:28:08
901,Romil Sundaram,4988718958,DL09015816,Delhivery,Bengaluru,Karnataka,Active,2023-05-28 03:06:50
902,Saira Swaminathan,+912684690258,DL09022720,Shadowfax,Mumbai,Maharashtra,Inactive,2023-12-19 11:39:22
903,Diya Hora,1593493656,DL09031956,Delhivery,Surat,Gujarat,Active,2020-11-15 02:15:34
904,Romil Ganguly,2345323949,DL09046482,Shadowfax,Mysuru,Karnataka,Inactive,2020-08-22 06:51:25
905,Yakshit Sahota,07405983250,DL09051144,Delhivery,Nagpur,Maharashtra,Active,2020-09-04 22:38:20
906,Gatik Chaudhry,0708057492,DL09065536,BlueDart,Mysuru,Karnataka,Inactive,2025-02-22 17:05:36
907,Yuvraj  Ganguly,03600463632,DL09074478,Delhivery,Mysuru,Karnataka,Inactive,2020-01-19 06:08:02
908,Arnav Lad,0363773555,DL09082052,Shadowfax,Chennai,Tamil Nadu,Active,2021-01-02 22:48:41
909,Advika Bora,6979869204,DL09092355,BlueDart,Surat,Gujarat,Inactive,2024-11-08 00:23:35
910,Samarth Chhabra,+913994751859,DL09105218,In-house,Mysuru,Karnataka,Active,2024-02-03 16:15:16
911,Kimaya Doshi,07893971693,DL09111732,In-house,Coimbatore,Tamil Nadu,Active,2022-08-19 06:36:10
912,Nehmat Sane,04373201703,DL09121951,BlueDart,Pune,Maharashtra,Active,2023-09-28 15:28:22
913,Indrans Sandhu,6891453179,DL09139352,Shadowfax,New Delhi,Delhi,Inactive,2024-09-05 10:22:11
914,Sara Chada,01332170537,DL09146289,Shadowfax,Mysuru,Karnataka,Active,2024-01-11 00:57:42
915,Suhana Sabharwal,0911087034,DL09155459,Delhivery,Mysuru,Karnataka,Active,2020-09-03 15:12:30
916,Lakshit Shah,6030101399,DL09168865,BlueDart,Chennai,Tamil Nadu,Active,2022-10-19 07:44:29
917,Divyansh Rama,6721458920,DL09175922,Delhivery,Mumbai,Maharashtra,Active,2020-09-17 13:29:39
918,Priyansh Hari,00360367087,DL09186122,Delhivery,Mumbai,Maharashtra,Inactive,2022-12-23 21:55:43
919,Damini Ravel,07021782037,DL09193511,EcomExpress,Bengaluru,Karnataka,Active,2020-02-07 04:12:37
920,Rania Hans,+912376633199,DL09203017,Shadowfax,Mysuru,Karnataka,Active,2020-02-22 15:06:57
921,Mahika Doctor,06254477167,DL09219588,Shadowfax,Coimbatore,Tamil Nadu,Inactive,2024-11-28 12:47:50
922,Shayak Choudhury,8972624392,DL09226199,Shadowfax,Coimbatore,Tamil Nadu,Inactive,2024-03-09 18:30:51
923,Vidur Apte,01421204919,DL09237887,In-house,Mumbai,Maharashtra,Inactive,2022-06-19 23:56:20
924,Divit Dutta,5024144827,DL09245091,EcomExpress,Mysuru,Karnataka,Active,2023-10-05 18:25:45
925,Stuvan Sule,1320704640,DL09257164,Shadowfax,Ahmedabad,Gujarat,Inactive,2021-06-12 00:28:34
926,Armaan Dave,+912213044442,DL09268623,BlueDart,New Delhi,Delhi,Inactive,2024-06-24 20:15:39
927,Indrans Mani,08183945314,DL09279558,Shadowfax,Ahmedabad,Gujarat,Active,2024-12-13 00:07:11
928,Nitya Kashyap,3061949959,DL09281604,Shadowfax,New Delhi,Delhi,Active,2020-10-31 15:42:10
929,Ritvik Shere,02375813258,DL09294064,Delhivery,Surat,Gujarat,Inactive,2020-10-08 13:54:40
930,Zeeshan Chandran,+910353173082,DL09308011,Shadowfax,Chennai,Tamil Nadu,Inactive,2020-07-27 07:01:13
931,Stuvan Kashyap,5484599752,DL09311507,BlueDart,Pune,Maharashtra,Inactive,2025-08-24 03:37:45
932,Dhanush Sengupta,1254195125,DL09323407,Delhivery,Mumbai,Maharashtra,Active,2023-02-16 13:49:41
933,Nayantara Gole,8805295436,DL09339964,EcomExpress,Pune,Maharashtra,Inactive,2020-01-21 11:12:51
934,Divit Chandra,+910926028962,DL09345986,Shadowfax,Mysuru,Karnataka,Inactive,2025-09-04 14:58:20
935,Anay Kadakia,3422033504,DL09355869,Delhivery,Surat,Gujarat,Active,2020-01-27 16:45:05
936,Dishani Rout,+911329402407,DL09369488,Delhivery,Mysuru,Karnataka,Active,2023-06-28 01:25:28
937,Piya Sheth,00799859138,DL09372785,In-house,New Delhi,Delhi,Inactive,2021-11-07 06:16:56
938,Kiara Bali,+918161327424,DL09383427,In-house,New Delhi,Delhi,Inactive,2023-12-12 15:05:28
939,Lakshay Kata,+910914320779,DL09398179,Shadowfax,Ahmedabad,Gujarat,Inactive,2020-02-14 01:28:56
940,Divit Sahota,07462568719,DL09403805,Delhivery,Mumbai,Maharashtra,Inactive,2022-03-28 21:46:20
941,Saksham Sharma,7926055153,DL09415376,Shadowfax,Ahmedabad,Gujarat,Active,2022-10-10 03:33:53
942,Rohan Goyal,06531185028,DL09427639,Shadowfax,Nagpur,Maharashtra,Active,2020-01-06 23:18:13
943,Keya Bhavsar,+915233885080,DL09437011,Shadowfax,Bengaluru,Karnataka,Inactive,2020-12-24 15:24:54
944,Jivin Warrior,+914363013357,DL09444945,BlueDart,Nagpur,Maharashtra,Inactive,2022-09-12 16:06:27
945,Mahika Gaba,00190411843,DL09458317,Delhivery,Coimbatore,Tamil Nadu,Inactive,2023-05-19 21:05:20
946,Veer Saran,+910507162580,DL09469282,BlueDart,Pune,Maharashtra,Active,2024-04-08 05:42:47
947,Ritvik Kant,+911765970747,DL09474947,In-house,Pune,Maharashtra,Inactive,2025-09-08 17:41:41
948,Dhanush Sama,+914554213321,DL09486459,Delhivery,Mysuru,Karnataka,Active,2021-01-03 04:14:40
949,Samarth Borah,+915752506135,DL09497588,Shadowfax,Coimbatore,Tamil Nadu,Inactive,2023-09-19 09:39:42
950,Emir Upadhyay,9344378697,DL09508667,Delhivery,Surat,Gujarat,Active,2023-12-28 00:02:31
951,Tanya Taneja,3967515991,DL09513686,EcomExpress,New Delhi,Delhi,Inactive,2022-02-22 09:26:00
952,Samarth Brahmbhatt,9309393623,DL09523304,BlueDart,Chennai,Tamil Nadu,Inactive,2020-04-10 08:53:59
953,Gatik Mane,+919738331059,DL09536825,In-house,Mysuru,Karnataka,Active,2024-03-02 17:53:22
954,Diya Rajagopal,04367472507,DL09549388,Shadowfax,Bengaluru,Karnataka,Active,2022-05-15 06:07:00
955,Anika Sengupta,00853319953,DL09557271,BlueDart,Pune,Maharashtra,Active,2023-01-22 08:16:52
956,Lagan Konda,07773891786,DL09561838,In-house,Ahmedabad,Gujarat,Active,2024-01-24 18:49:10
957,Ritvik Shanker,4434586278,DL09572356,Delhivery,Ahmedabad,Gujarat,Inactive,2024-03-19 22:21:46
958,Bhamini Lata,4336911696,DL09586264,Delhivery,Bengaluru,Karnataka,Inactive,2022-10-17 18:44:18
959,Kartik Varughese,07078761781,DL09598577,In-house,Mysuru,Karnataka,Inactive,2024-11-12 11:40:43
960,Fateh Balasubramanian,01766811328,DL09606965,EcomExpress,Mysuru,Karnataka,Active,2020-03-27 21:56:33
961,Samarth Setty,03607861228,DL09618004,In-house,Mysuru,Karnataka,Inactive,2020-05-20 00:15:52
962,Himmat Gole,9210675541,DL09626402,In-house,Ahmedabad,Gujarat,Active,2025-03-29 06:11:47
963,Azad Chokshi,3271288696,DL09633655,BlueDart,Coimbatore,Tamil Nadu,Inactive,2021-02-18 18:14:48
964,Renee Kar,05980680934,DL09648896,BlueDart,New Delhi,Delhi,Active,2020-07-26 07:19:07
965,Hunar Lala,6270192171,DL09655777,Shadowfax,Nagpur,Maharashtra,Inactive,2024-11-16 02:23:09
966,Kiaan Atwal,+914946783149,DL09664212,EcomExpress,Coimbatore,Tamil Nadu,Inactive,2020-10-18 20:09:07
967,Mehul Rao,3885648082,DL09671611,In-house,Pune,Maharashtra,Inactive,2022-02-08 13:21:39
968,Divij Kala,+912310733876,DL09687758,Shadowfax,Chennai,Tamil Nadu,Inactive,2021-08-11 05:27:43
969,Miraya Ahluwalia,01800811665,DL09699425,Shadowfax,Bengaluru,Karnataka,Active,2023-03-23 14:24:20
970,Nirvaan Rege,3369266376,DL09706215,EcomExpress,Nagpur,Maharashtra,Inactive,2024-05-05 07:52:21
971,Azad Devi,03586424110,DL09717740,In-house,Bengaluru,Karnataka,Inactive,2024-12-07 00:16:59
972,Nayantara Upadhyay,+917823968116,DL09721828,EcomExpress,Nagpur,Maharashtra,Active,2022-08-18 00:56:31
973,Dishani Sehgal,03302197099,DL09736235,Delhivery,Ahmedabad,Gujarat,Inactive,2020-01-19 15:17:36
974,Shamik Rastogi,3099478828,DL09748084,Delhivery,New Delhi,Delhi,Inactive,2020-01-01 09:47:05
975,Damini Dasgupta,8182456312,DL09758026,EcomExpress,Mumbai,Maharashtra,Inactive,2025-01-21 13:28:27
976,Nitara Lanka,+919291281876,DL09769334,EcomExpress,New Delhi,Delhi,Inactive,2025-05-31 15:57:49
977,Madhup Manne,+917320990206,DL09779993,EcomExpress,Surat,Gujarat,Inactive,2025-01-11 14:04:08
978,Anahi Dash,9327095044,DL09782729,Shadowfax,Coimbatore,Tamil Nadu,Inactive,2024-01-09 15:46:04
979,Dhanuk Chokshi,6950235514,DL09793237,EcomExpress,Surat,Gujarat,Inactive,2022-01-31 00:26:08
980,Aarav Ghose,8794036683,DL09807307,BlueDart,Bengaluru,Karnataka,Inactive,2023-02-16 16:07:08
981,Vanya Khosla,+916664762693,DL09815619,EcomExpress,Pune,Maharashtra,Inactive,2022-08-30 00:51:05
982,Samiha Chaudhary,+913225200236,DL09821158,Delhivery,Nagpur,Maharashtra,Inactive,2022-08-25 07:57:07
983,Ojas Singhal,7102698401,DL09833670,Delhivery,Ahmedabad,Gujarat,Active,2024-11-25 02:03:01
984,Divyansh Tailor,+912551413178,DL09849025,EcomExpress,Ahmedabad,Gujarat,Inactive,2020-07-17 06:24:50
985,Bhamini Sunder,08305989557,DL09854569,Shadowfax,Coimbatore,Tamil Nadu,Active,2021-09-04 00:08:50
986,Vidur Golla,+912166090572,DL09869014,In-house,Coimbatore,Tamil Nadu,Active,2020-05-20 23:08:57
987,Taran Bal,8811266860,DL09875475,Delhivery,Chennai,Tamil Nadu,Active,2023-09-01 08:24:18
988,Biju Gole,00858289250,DL09888890,Delhivery,Chennai,Tamil Nadu,Inactive,2025-04-15 10:45:59
989,Trisha Swaminathan,07626301622,DL09897831,Shadowfax,Chennai,Tamil Nadu,Inactive,2024-07-12 11:56:16
990,Lavanya Sekhon,+918413863146,DL09905410,BlueDart,Chennai,Tamil Nadu,Inactive,2023-07-03 16:08:05
991,Miraya Vyas,+918771738652,DL09915578,BlueDart,New Delhi,Delhi,Active,2022-02-16 18:44:43
992,Shamik Lala,0656078065,DL09924586,Delhivery,Pune,Maharashtra,Active,2021-04-16 05:23:44
993,Jayesh Hora,06017933489,DL09936467,Delhivery,Surat,Gujarat,Active,2024-01-15 12:18:14
994,Anahi Subramanian,1989172496,DL09943846,In-house,New Delhi,Delhi,Active,2023-04-15 15:06:32
995,Yuvaan Iyengar,07733563282,DL09958098,BlueDart,New Delhi,Delhi,Inactive,2021-06-24 13:32:33
996,Purab Basak,8407140072,DL09969048,In-house,Nagpur,Maharashtra,Inactive,2024-06-13 01:25:08
997,Pihu Rout,+916709932238,DL09971943,In-house,New Delhi,Delhi,Active,2024-04-16 14:42:06
998,Kartik Warrior,9834442255,DL09989590,EcomExpress,Coimbatore,Tamil Nadu,Active,2021-04-14 09:44:22
999,Hridaan Shankar,+916305084101,DL09991457,In-house,New Delhi,Delhi,Active,2024-03-02 01:30:01
1000,Shayak Varughese,+916616749843,DL10003235,In-house,Surat,Gujarat,Inactive,2025-06-14 13:43:00
1001,Emir Dhawan,+911572890823,DL10011807,BlueDart,Surat,Gujarat,Inactive,2020-05-08 12:51:09
1002,Raunak Tailor,0946709725,DL10022236,In-house,Surat,Gujarat,Active,2023-09-20 19:36:41
1003,Raghav Krishna,8544755246,DL10037867,In-house,Ahmedabad,Gujarat,Inactive,2024-06-26 08:41:54
1004,Zara Chaudhuri,1559245776,DL10041811,BlueDart,New Delhi,Delhi,Active,2022-11-23 06:34:38
1005,Aaryahi Mani,+912454442278,DL10052956,EcomExpress,Surat,Gujarat,Inactive,2020-03-13 12:58:02
1006,Parinaaz Sarna,9552420059,DL10065422,BlueDart,Pune,Maharashtra,Inactive,2024-08-15 00:07:26
1007,Nitara Grewal,00616399879,DL10077765,BlueDart,Surat,Gujarat,Active,2021-02-06 11:42:34
1008,Nakul Chaudhary,+917853342464,DL10087133,In-house,New Delhi,Delhi,Active,2023-07-22 22:51:47
1009,Samarth Mammen,0311712119,DL10096643,EcomExpress,Coimbatore,Tamil Nadu,Inactive,2022-09-29 10:33:02
1010,Shalv Shan,+919417637610,DL10103778,Shadowfax,New Delhi,Delhi,Active,2022-04-04 01:01:50
1011,Kashvi Keer,1589766650,DL10112312,EcomExpress,Nagpur,Maharashtra,Inactive,2020-03-06 19:36:29
1012,Divit Kale,4644282482,DL10126240,Delhivery,Bengaluru,Karnataka,Active,2024-07-28 01:52:52
1013,Charvi Bahl,03972144329,DL10139965,Shadowfax,Coimbatore,Tamil Nadu,Inactive,2021-01-16 15:40:19
1014,Yuvaan Seth,02036825335,DL10146531,EcomExpress,Mysuru,Karnataka,Active,2023-05-09 00:10:40
1015,Sara Mand,7715934668,DL10153348,In-house,Bengaluru,Karnataka,Active,2024-06-07 22:14:17
1016,Anvi Dave,+914076885453,DL10161376,Shadowfax,Ahmedabad,Gujarat,Inactive,2020-03-20 09:36:34
1017,Yakshit Bala,9887067989,DL10179123,BlueDart,Coimbatore,Tamil Nadu,Inactive,2024-04-04 19:28:44
1018,Nirvi Majumdar,+919310448341,DL10183987,BlueDart,Mysuru,Karnataka,Active,2021-09-16 12:12:31
1019,Khushi Dixit,07578008067,DL10191825,Shadowfax,Ahmedabad,Gujarat,Inactive,2021-05-20 10:26:46
1020,Devansh Rattan,04912998717,DL10207687,Shadowfax,Surat,Gujarat,Inactive,2023-05-12 09:20:31
1021,Tanya Bala,3387662532,DL10211996,BlueDart,Ahmedabad,Gujarat,Inactive,2024-06-27 19:54:42
1022,Vidur Chanda,+914121079706,DL10225259,In-house,Ahmedabad,Gujarat,Inactive,2024-03-09 15:07:08
1023,Ivan Vora,00661747362,DL10235258,Delhivery,Bengaluru,Karnataka,Inactive,2024-04-06 12:27:10
1024,Sana Borde,+915675564901,DL10242334,BlueDart,Bengaluru,Karnataka,Active,2020-01-03 04:51:37
1025,Amira Khatri,07805115878,DL10256146,In-house,Mysuru,Karnataka,Inactive,2021-03-28 10:16:42
1026,Nitara Uppal,02537152866,DL10264556,BlueDart,Pune,Maharashtra,Inactive,2024-09-27 06:39:42
1027,Advik Seshadri,05856733422,DL10274231,EcomExpress,Nagpur,Maharashtra,Inactive,2022-08-21 03:46:20
1028,Ishaan Vaidya,+910000534774,DL10286455,BlueDart,Chennai,Tamil Nadu,Active,2025-03-28 00:18:27
1029,Himmat Chhabra,+912708347148,DL10296909,Shadowfax,Pune,Maharashtra,Inactive,2023-05-04 08:14:53
1030,Lagan Kulkarni,00205996115,DL10302013,BlueDart,Coimbatore,Tamil Nadu,Active,2022-10-04 10:52:21
1031,Aayush Virk,08003782443,DL10315260,BlueDart,Mumbai,Maharashtra,Inactive,2024-03-15 06:28:24
1032,Pari Bath,9708013612,DL10322016,In-house,Nagpur,Maharashtra,Inactive,2025-04-29 22:10:42
1033,Ahana  Gera,0039192180,DL10331407,In-house,Ahmedabad,Gujarat,Active,2021-09-23 07:03:24
1034,Zara Kannan,01887090864,DL10341293,BlueDart,Surat,Gujarat,Active,2021-08-01 01:20:49
1035,Amani Rege,07406092600,DL10356192,In-house,New Delhi,Delhi,Inactive,2025-08-11 01:18:49
1036,Kimaya Soni,01109573336,DL10369007,In-house,Coimbatore,Tamil Nadu,Active,2020-06-18 18:36:20
1037,Alia Bahl,00763397176,DL10376207,EcomExpress,Chennai,Tamil Nadu,Active,2022-08-17 11:11:18
1038,Advik Sundaram,9952894880,DL10384777,In-house,Mumbai,Maharashtra,Inactive,2024-07-05 10:15:39
1039,Anahi Bansal,+910985119254,DL10394743,EcomExpress,Ahmedabad,Gujarat,Active,2021-06-30 10:58:17
1040,Nehmat Rao,2936641681,DL10406018,EcomExpress,Ahmedabad,Gujarat,Active,2023-08-31 16:57:54
1041,Dhanuk Deol,07129597686,DL10415965,In-house,New Delhi,Delhi,Inactive,2023-11-27 21:55:40
1042,Vaibhav Rout,8662789952,DL10424089,Shadowfax,Surat,Gujarat,Active,2024-10-02 20:02:19
1043,Kavya Soni,+913221929572,DL10433378,In-house,Nagpur,Maharashtra,Inactive,2022-11-02 10:38:12
1044,Miraya Balakrishnan,1161995604,DL10444843,In-house,Ahmedabad,Gujarat,Active,2021-12-27 22:47:08
1045,Uthkarsh Singhal,3760316641,DL10453575,EcomExpress,Nagpur,Maharashtra,Inactive,2024-05-04 12:33:23
1046,Kimaya Vaidya,+913208442210,DL10468131,In-house,Nagpur,Maharashtra,Active,2022-08-12 11:31:03
1047,Jayesh Lalla,03489067308,DL10478044,EcomExpress,New Delhi,Delhi,Inactive,2024-11-15 04:48:40
1048,Charvi Mannan,03356201847,DL10488947,In-house,Surat,Gujarat,Inactive,2023-12-03 09:25:25
1049,Anahita Contractor,+911287718148,DL10495521,In-house,Pune,Maharashtra,Inactive,2025-03-04 19:00:50
1050,Indrajit Ratta,4674475705,DL10502867,EcomExpress,Ahmedabad,Gujarat,Active,2020-07-08 02:38:10
1051,Pari Chanda,+917744387318,DL10511107,In-house,Nagpur,Maharashtra,Active,2022-01-21 17:17:43
1052,Divyansh Jain,+918897416500,DL10525709,EcomExpress,Coimbatore,Tamil Nadu,Inactive,2022-02-27 18:24:42
1053,Nirvi Samra,3202408173,DL10539270,Shadowfax,Chennai,Tamil Nadu,Inactive,2024-11-20 20:38:14
1054,Parinaaz Kaul,0323789148,DL10548422,Delhivery,New Delhi,Delhi,Inactive,2024-03-31 07:28:17
1055,Siya Bassi,7982363870,DL10555565,BlueDart,Surat,Gujarat,Active,2023-12-23 05:02:56
1056,Romil Sood,03590606401,DL10565934,BlueDart,Chennai,Tamil Nadu,Inactive,2024-10-29 13:45:47
1057,Jivika Sarma,+916557769719,DL10579530,In-house,Mysuru,Karnataka,Active,2020-02-07 21:20:53
1058,Vihaan Dhawan,0142929116,DL10581832,In-house,Mysuru,Karnataka,Inactive,2020-06-23 13:00:40
1059,Advik Ravi,08581765638,DL10597698,BlueDart,New Delhi,Delhi,Inactive,2023-04-17 09:24:26
1060,Urvi Chokshi,02750934842,DL10606154,EcomExpress,New Delhi,Delhi,Active,2025-06-28 20:52:38
1061,Siya Balay,+919438859226,DL10614657,EcomExpress,Bengaluru,Karnataka,Inactive,2023-07-30 05:09:29
1062,Kaira Sarraf,02176432753,DL10621854,BlueDart,Ahmedabad,Gujarat,Active,2022-09-04 05:19:35
1063,Vritika Majumdar,8988169240,DL10638126,BlueDart,Chennai,Tamil Nadu,Inactive,2021-11-07 23:06:48
1064,Renee Saraf,+911440147481,DL10647479,In-house,Bengaluru,Karnataka,Active,2022-02-25 16:18:19
1065,Aarna Lalla,07142898375,DL10653479,In-house,New Delhi,Delhi,Inactive,2022-03-14 02:40:24
1066,Anya Balay,6043390069,DL10661254,Shadowfax,New Delhi,Delhi,Active,2021-03-04 21:58:53
1067,Piya Luthra,02668928982,DL10679948,Shadowfax,New Delhi,Delhi,Inactive,2024-11-24 23:25:55
1068,Alisha Sule,5468382147,DL10689450,EcomExpress,Ahmedabad,Gujarat,Active,2022-11-05 20:10:09
1069,Vaibhav Virk,08665319899,DL10697812,In-house,Mysuru,Karnataka,Active,2024-03-19 04:49:03
1070,Vardaniya Anand,+916175324909,DL10704744,EcomExpress,Mysuru,Karnataka,Active,2021-09-02 15:50:48
1071,Tiya Raval,+919987738868,DL10719283,EcomExpress,Nagpur,Maharashtra,Active,2023-04-25 10:46:48
1072,Fateh Banerjee,0869490864,DL10722296,Shadowfax,Chennai,Tamil Nadu,Active,2020-05-21 04:37:39
1073,Kiara Dara,+917640714294,DL10738428,EcomExpress,Mumbai,Maharashtra,Inactive,2025-09-08 03:56:22
1074,Kashvi Sha,4763264128,DL10742994,Delhivery,New Delhi,Delhi,Active,2024-12-24 12:07:06
1075,Sara Sinha,01502505043,DL10753106,EcomExpress,Pune,Maharashtra,Inactive,2023-12-08 09:31:30
1076,Ranbir Rao,+914375688630,DL10763924,Shadowfax,Chennai,Tamil Nadu,Inactive,2023-04-27 11:28:16
1077,Ira Dutt,+911327336753,DL10772664,In-house,Ahmedabad,Gujarat,Active,2021-04-01 23:48:06
1078,Oorja Khare,02984869646,DL10785484,In-house,Coimbatore,Tamil Nadu,Inactive,2020-05-20 21:30:53
1079,Indrans Andra,+919903729785,DL10794907,In-house,New Delhi,Delhi,Active,2020-02-26 11:53:13
1080,Ojas Borde,06834967738,DL10805521,BlueDart,New Delhi,Delhi,Inactive,2025-02-20 14:27:55
1081,Keya Sabharwal,08392462800,DL10811846,In-house,Surat,Gujarat,Inactive,2023-05-08 04:46:37
1082,Ishaan Gill,3343176163,DL10828518,Shadowfax,Surat,Gujarat,Active,2022-03-02 05:31:28
1083,Rania Saran,04947546088,DL10832444,BlueDart,Chennai,Tamil Nadu,Inactive,2025-09-03 08:20:19
1084,Tushar Suresh,07033847930,DL10847972,Delhivery,Surat,Gujarat,Inactive,2023-01-29 00:33:56
1085,Advik Khare,+916007357626,DL10851159,BlueDart,Ahmedabad,Gujarat,Active,2024-04-27 07:45:29
1086,Myra Sarna,6195043581,DL10868783,EcomExpress,Chennai,Tamil Nadu,Inactive,2021-11-28 02:33:06
1087,Ryan Dara,9264627934,DL10879629,EcomExpress,New Delhi,Delhi,Inactive,2024-12-01 19:28:00
1088,Rhea Devi,9030659334,DL10884105,Shadowfax,Mumbai,Maharashtra,Inactive,2021-09-08 13:13:47
1089,Anvi Warrior,+910625529075,DL10896626,EcomExpress,Bengaluru,Karnataka,Active,2022-07-03 12:17:26
1090,Faiyaz Suresh,+913406392559,DL10901391,In-house,Chennai,Tamil Nadu,Inactive,2025-03-13 20:28:33
1091,Madhup Ben,+911056111878,DL10911539,EcomExpress,Ahmedabad,Gujarat,Active,2021-10-29 16:08:57
1092,Kashvi Ray,+916042936193,DL10928623,In-house,Mysuru,Karnataka,Active,2020-04-09 18:48:49
1093,Nirvaan Acharya,04636535348,DL10931501,EcomExpress,Nagpur,Maharashtra,Active,2021-04-04 01:36:42
1094,Tara Dugar,+910176953589,DL10947375,BlueDart,Mumbai,Maharashtra,Inactive,2021-09-01 09:33:59
1095,Reyansh Venkatesh,2876068256,DL10955097,EcomExpress,New Delhi,Delhi,Inactive,2024-02-13 06:15:23
1096,Sahil Johal,3156137934,DL10969182,In-house,New Delhi,Delhi,Active,2022-09-06 13:11:52
1097,Armaan Sandhu,08596482634,DL10974442,BlueDart,Surat,Gujarat,Inactive,2023-01-30 01:02:43
1098,Kabir Mand,05937181996,DL10987183,In-house,Mumbai,Maharashtra,Inactive,2025-04-28 09:19:57
1099,Fateh Sodhi,07771858067,DL10991903,BlueDart,New Delhi,Delhi,Inactive,2025-04-16 14:18:12
1100,Ivana Balakrishnan,05414523755,DL11005133,In-house,Ahmedabad,Gujarat,Active,2022-12-17 08:49:12
1101,Chirag Subramanian,+910152250770,DL11012929,In-house,Coimbatore,Tamil Nadu,Active,2020-01-20 06:15:51
1102,Ivan Tripathi,07368871022,DL11021181,EcomExpress,New Delhi,Delhi,Inactive,2021-04-20 03:45:18
1103,Neysa Bobal,00107805612,DL11032926,BlueDart,New Delhi,Delhi,Active,2020-08-19 11:22:58
1104,Abram Kannan,+916277941895,DL11041579,BlueDart,Coimbatore,Tamil Nadu,Active,2021-03-01 09:30:05
1105,Ivana Bhalla,8891362873,DL11051695,Delhivery,Mysuru,Karnataka,Inactive,2024-08-19 07:02:56
1106,Advik Sankar,+919972125128,DL11069827,In-house,Bengaluru,Karnataka,Inactive,2023-04-16 17:44:38
1107,Dishani Kapadia,1453943415,DL11075299,Shadowfax,Coimbatore,Tamil Nadu,Active,2023-11-20 20:12:35
1108,Anay Lad,01531989073,DL11083967,Delhivery,Coimbatore,Tamil Nadu,Inactive,2020-11-03 10:07:41
1109,Sahil Balakrishnan,+914637166160,DL11094584,In-house,Chennai,Tamil Nadu,Active,2025-07-06 22:26:59
1110,Ira Agrawal,7997205717,DL11101095,EcomExpress,Mumbai,Maharashtra,Active,2020-06-21 23:43:04
1111,Chirag Roy,+914972386653,DL11116610,EcomExpress,Bengaluru,Karnataka,Inactive,2024-04-18 23:51:37
1112,Mehul Tara,+912086562500,DL11123060,Delhivery,New Delhi,Delhi,Inactive,2020-04-28 16:21:05
1113,Rania Chawla,+917630531347,DL11137767,EcomExpress,Chennai,Tamil Nadu,Inactive,2020-10-29 20:45:24
1114,Ritvik Yadav,01265530253,DL11146523,Delhivery,Mumbai,Maharashtra,Inactive,2024-06-11 19:09:58
1115,Tejas Varma,+913886396516,DL11158911,In-house,Chennai,Tamil Nadu,Inactive,2025-05-10 05:33:51
1116,Piya Bala,06209127125,DL11162890,Shadowfax,Coimbatore,Tamil Nadu,Inactive,2025-06-23 21:24:06
1117,Jayan Loyal,+918356416162,DL11171504,EcomExpress,Mysuru,Karnataka,Inactive,2023-07-22 22:43:49
1118,Inaaya  Manda,+913143320700,DL11185704,Delhivery,Nagpur,Maharashtra,Active,2023-04-13 03:13:57
1119,Trisha Bhardwaj,09993984828,DL11197296,Shadowfax,Pune,Maharashtra,Active,2024-11-18 20:10:51
1120,Fateh Chander,+916488984883,DL11202434,Delhivery,Coimbatore,Tamil Nadu,Active,2020-11-03 10:42:05
1121,Kiaan Dass,9435508075,DL11216148,In-house,New Delhi,Delhi,Active,2025-05-25 11:18:43
1122,Nakul Varty,+915099114318,DL11225291,BlueDart,New Delhi,Delhi,Active,2023-01-06 21:38:48
1123,Aaina Lall,+910014231832,DL11231391,Delhivery,New Delhi,Delhi,Inactive,2024-12-09 03:46:19
1124,Trisha Bandi,+918543570719,DL11244980,Delhivery,Pune,Maharashtra,Active,2021-02-16 08:47:45
1125,Hridaan Dhawan,+918215792553,DL11258184,Shadowfax,Pune,Maharashtra,Inactive,2024-10-30 18:26:31
1126,Diya Rajagopalan,+916589589172,DL11268996,BlueDart,Coimbatore,Tamil Nadu,Inactive,2025-04-28 07:14:47
1127,Drishya Dhillon,0315650169,DL11277648,Shadowfax,Coimbatore,Tamil Nadu,Active,2021-05-12 09:24:50
1128,Samaira Sem,08409988321,DL11281054,EcomExpress,Surat,Gujarat,Inactive,2024-11-27 10:05:30
1129,Anay Cheema,6839892804,DL11298809,Shadowfax,Chennai,Tamil Nadu,Inactive,2023-01-11 18:19:01
1130,Sumer Mani,+917268437058,DL11304377,EcomExpress,Mumbai,Maharashtra,Inactive,2020-11-04 00:20:28
1131,Prisha Badal,+916803157198,DL11315274,Shadowfax,Surat,Gujarat,Active,2022-05-03 20:05:23
1132,Biju Dhingra,3436404239,DL11325362,Shadowfax,Ahmedabad,Gujarat,Active,2022-02-13 02:03:30
1133,Divyansh Dada,+915578621902,DL11333957,EcomExpress,Bengaluru,Karnataka,Active,2022-08-02 06:21:33
1134,Saksham Sangha,5117864824,DL11348634,Delhivery,Surat,Gujarat,Active,2020-06-07 08:46:13
1135,Chirag Chatterjee,09459051036,DL11358702,BlueDart,Nagpur,Maharashtra,Active,2024-09-20 09:45:32
1136,Shaan Banik,08386062678,DL11368717,EcomExpress,Mysuru,Karnataka,Active,2023-04-09 13:30:52
1137,Anaya Sahota,6140888900,DL11375889,EcomExpress,Ahmedabad,Gujarat,Active,2024-11-06 07:59:22
1138,Manjari Madan,06552549030,DL11381501,Delhivery,New Delhi,Delhi,Inactive,2022-04-14 16:12:37
1139,Urvi Tella,+913498275077,DL11394342,Shadowfax,Nagpur,Maharashtra,Active,2023-07-10 05:49:14
1140,Priyansh Saraf,+911390414713,DL11406603,In-house,Chennai,Tamil Nadu,Active,2021-10-06 12:02:53
1141,Rania Gera,7485056998,DL11417461,In-house,Coimbatore,Tamil Nadu,Inactive,2021-12-31 16:22:27
1142,Samiha Savant,00278328566,DL11424899,Shadowfax,Chennai,Tamil Nadu,Active,2024-10-16 21:18:16
1143,Shlok Rama,8218022373,DL11435729,EcomExpress,Surat,Gujarat,Inactive,2024-03-14 13:44:06
1144,Inaaya  Bal,+914051952430,DL11447645,Delhivery,Bengaluru,Karnataka,Active,2023-01-30 22:53:49
1145,Hiran Dugal,03245956581,DL11456868,BlueDart,Surat,Gujarat,Active,2023-08-16 18:46:14
1146,Parinaaz Ramachandran,+911049577667,DL11468582,In-house,New Delhi,Delhi,Active,2024-08-13 21:06:37
1147,Urvi Khanna,00226204753,DL11471835,In-house,Ahmedabad,Gujarat,Active,2024-04-24 17:04:20
1148,Stuvan Ravi,+918633610107,DL11489040,BlueDart,Surat,Gujarat,Active,2024-11-17 14:46:20
1149,Vihaan Bir,7761220372,DL11493241,Delhivery,Mysuru,Karnataka,Inactive,2021-12-25 09:24:00
1150,Advika Acharya,+914609303327,DL11503711,Shadowfax,Bengaluru,Karnataka,Inactive,2025-02-25 16:30:21
1151,Ishaan Rajagopal,07762276711,DL11518620,EcomExpress,New Delhi,Delhi,Inactive,2024-10-15 23:51:09
1152,Heer Randhawa,0512337189,DL11522460,EcomExpress,Ahmedabad,Gujarat,Inactive,2023-09-08 04:45:33
1153,Shalv Deol,+915396691208,DL11532974,Shadowfax,Ahmedabad,Gujarat,Inactive,2020-12-18 16:15:26
1154,Dhruv Randhawa,1363607460,DL11545692,EcomExpress,Bengaluru,Karnataka,Active,2022-01-04 06:59:43
1155,Myra Mandal,02860617634,DL11553874,Shadowfax,New Delhi,Delhi,Active,2023-06-12 14:19:17
1156,Hunar Divan,+914058090075,DL11567314,Delhivery,Pune,Maharashtra,Inactive,2022-11-03 07:35:05
1157,Miraya Sridhar,02456225909,DL11578898,EcomExpress,Ahmedabad,Gujarat,Inactive,2023-05-31 16:13:54
1158,Sumer Loyal,+914596569507,DL11589664,Shadowfax,New Delhi,Delhi,Active,2025-04-07 20:04:12
1159,Aayush Golla,06935136859,DL11591410,In-house,Chennai,Tamil Nadu,Inactive,2024-12-01 18:19:13
1160,Samiha Hans,00783009831,DL11602187,EcomExpress,Surat,Gujarat,Active,2023-03-03 19:23:25
1161,Nakul Venkatesh,01115254861,DL11613835,EcomExpress,Bengaluru,Karnataka,Active,2024-08-13 20:30:16
1162,Taimur Sarraf,+913754887944,DL11629685,EcomExpress,Surat,Gujarat,Inactive,2021-05-30 03:43:24
1163,Advika Kari,04024690981,DL11631162,In-house,Surat,Gujarat,Inactive,2021-11-08 05:09:15
1164,Shaan Agate,03838472228,DL11641422,BlueDart,New Delhi,Delhi,Active,2022-03-09 13:29:20
1165,Tiya Taneja,4795851544,DL11655776,EcomExpress,Bengaluru,Karnataka,Active,2024-07-11 13:37:21
1166,Nirvi Biswas,4694694366,DL11665878,Delhivery,New Delhi,Delhi,Inactive,2021-06-28 14:09:13
1167,Ishaan Salvi,04910367664,DL11676463,EcomExpress,Chennai,Tamil Nadu,Active,2025-08-24 21:13:42
1168,Amani Kaul,+919092095783,DL11684145,Delhivery,Chennai,Tamil Nadu,Inactive,2022-10-21 15:07:55
1169,Shanaya Raval,+915670755126,DL11698937,Delhivery,Mumbai,Maharashtra,Inactive,2020-08-16 10:07:11
1170,Divij Sundaram,04705709078,DL11706419,In-house,Chennai,Tamil Nadu,Active,2022-11-13 12:21:53
1171,Nehmat Tailor,5430649682,DL11715276,Delhivery,New Delhi,Delhi,Inactive,2022-10-27 00:40:26
1172,Neelofar Goda,04480805076,DL11729430,Delhivery,Surat,Gujarat,Inactive,2023-02-09 13:12:52
1173,Miraan Sule,6014782367,DL11737015,EcomExpress,New Delhi,Delhi,Inactive,2023-06-03 19:59:13
1174,Navya Sehgal,+912788733475,DL11744874,BlueDart,Bengaluru,Karnataka,Inactive,2023-06-16 23:25:09
1175,Kanav Shroff,3404143355,DL11754514,Shadowfax,Surat,Gujarat,Active,2021-09-22 22:57:30
1176,Gokul Iyengar,+919467800861,DL11769682,In-house,Mysuru,Karnataka,Inactive,2021-10-15 18:42:22
1177,Indranil Shetty,0585282096,DL11776260,Delhivery,Mumbai,Maharashtra,Inactive,2023-07-16 14:12:20
1178,Nirvaan Dey,+915203566058,DL11786560,EcomExpress,Ahmedabad,Gujarat,Active,2022-11-01 16:03:11
1179,Madhup Sarkar,2133608352,DL11799829,Shadowfax,Nagpur,Maharashtra,Active,2021-12-07 14:49:54
1180,Vedika Swamy,02968323177,DL11801423,Delhivery,Surat,Gujarat,Active,2020-11-20 10:07:31
1181,Pihu Behl,00010441439,DL11814955,Delhivery,Pune,Maharashtra,Inactive,2020-10-11 00:23:04
1182,Aniruddh Kakar,+915602993528,DL11825231,BlueDart,Bengaluru,Karnataka,Inactive,2023-07-12 14:17:49
1183,Taimur Bhalla,07285395924,DL11833060,BlueDart,Surat,Gujarat,Active,2021-07-16 01:39:05
1184,Eshani Sharma,+910544262467,DL11846560,EcomExpress,Coimbatore,Tamil Nadu,Active,2023-11-23 11:35:58
1185,Neysa Wali,+915062072327,DL11851691,In-house,Coimbatore,Tamil Nadu,Inactive,2024-08-29 21:33:20
1186,Pranay Saini,08475542906,DL11867393,BlueDart,Mysuru,Karnataka,Active,2021-05-12 14:52:19
1187,Rhea Desai,+916142565760,DL11874385,In-house,New Delhi,Delhi,Active,2020-07-31 11:57:11
1188,Aarna Venkataraman,+910836814270,DL11881961,EcomExpress,Chennai,Tamil Nadu,Active,2020-11-14 18:12:05
1189,Nitya Sachdeva,2704900573,DL11896571,BlueDart,Nagpur,Maharashtra,Inactive,2020-11-17 09:54:28
1190,Bhamini Barad,+915838099449,DL11906106,Shadowfax,Coimbatore,Tamil Nadu,Inactive,2022-05-07 19:18:00
1191,Anvi Das,4929065034,DL11918459,In-house,Ahmedabad,Gujarat,Active,2021-08-01 04:47:54
1192,Neysa Vala,6430492093,DL11923211,Delhivery,Pune,Maharashtra,Active,2020-09-28 08:16:48
1193,Aradhya Hari,9489182301,DL11934119,Shadowfax,Surat,Gujarat,Active,2023-10-28 20:11:07
1194,Divit Sha,09053279058,DL11941042,EcomExpress,Ahmedabad,Gujarat,Inactive,2021-03-18 06:42:38
1195,Tejas Sawhney,3677887243,DL11953553,Delhivery,Coimbatore,Tamil Nadu,Active,2023-04-18 10:45:32
1196,Damini Sami,07822569838,DL11964583,EcomExpress,Coimbatore,Tamil Nadu,Active,2023-07-14 04:24:27
1197,Vivaan Wagle,07510319972,DL11975927,EcomExpress,Nagpur,Maharashtra,Inactive,2024-08-22 15:07:29
1198,Veer Ratti,+912808035468,DL11986370,Delhivery,Mysuru,Karnataka,Inactive,2020-05-21 15:47:16
1199,Darshit Mahal,01525100393,DL11994978,BlueDart,Ahmedabad,Gujarat,Inactive,2023-02-12 11:24:03
1200,Himmat Bhatia,07055561848,DL12002571,Delhivery,New Delhi,Delhi,Active,2024-11-11 07:38:37
1201,Ivana Balay,+912812767745,DL12012916,Shadowfax,Nagpur,Maharashtra,Inactive,2025-09-07 20:08:54
1202,Samaira Ratta,+913192227909,DL12026576,Shadowfax,Mysuru,Karnataka,Active,2024-04-19 20:02:43
1203,Ira Dhawan,9723796225,DL12038858,EcomExpress,Ahmedabad,Gujarat,Active,2021-05-09 05:14:00
1204,Anika Kalla,01062348079,DL12044203,EcomExpress,New Delhi,Delhi,Inactive,2020-01-30 13:41:23
1205,Amira Dhillon,+912807133259,DL12052633,In-house,New Delhi,Delhi,Active,2021-12-29 00:46:10
1206,Ivan Kurian,6366884610,DL12065833,BlueDart,Chennai,Tamil Nadu,Active,2021-10-29 08:29:36
1207,Dhanuk Bhattacharyya,05200630453,DL12073183,In-house,Mysuru,Karnataka,Active,2024-08-16 13:08:05
1208,Miraan Ben,8738202780,DL12088194,In-house,Bengaluru,Karnataka,Inactive,2020-02-22 00:39:12
1209,Vihaan Bassi,02178761656,DL12097719,Delhivery,New Delhi,Delhi,Inactive,2021-06-25 03:30:12
1210,Ishaan Kakar,7871625929,DL12105879,Shadowfax,Surat,Gujarat,Inactive,2023-02-14 22:34:37
1211,Saira Devan,00706068678,DL12118545,BlueDart,Mysuru,Karnataka,Inactive,2021-06-08 19:06:08
1212,Tiya Loke,+917751147026,DL12122775,EcomExpress,Coimbatore,Tamil Nadu,Active,2021-10-06 05:31:49
1213,Vanya Thaman,1553630693,DL12132599,Delhivery,Chennai,Tamil Nadu,Inactive,2020-01-19 01:14:19
1214,Aradhya Toor,07267887561,DL12143276,In-house,Mysuru,Karnataka,Inactive,2023-04-25 07:21:51
1215,Veer Magar,6230224775,DL12156074,BlueDart,Ahmedabad,Gujarat,Active,2020-03-30 04:10:22
1216,Eva Shanker,00122645382,DL12164319,In-house,Surat,Gujarat,Inactive,2023-09-29 15:12:33
1217,Mahika Gour,06894058829,DL12176688,Delhivery,Nagpur,Maharashtra,Inactive,2025-01-21 22:46:52
1218,Hunar Salvi,+911392219441,DL12189725,EcomExpress,Ahmedabad,Gujarat,Inactive,2020-11-15 14:23:28
1219,Nakul Mahal,7083881162,DL12192717,Shadowfax,Coimbatore,Tamil Nadu,Inactive,2024-11-17 13:21:30
1220,Armaan Gupta,9184629019,DL12202690,BlueDart,Nagpur,Maharashtra,Active,2023-03-01 13:29:38
1221,Shayak Sibal,9451295235,DL12219252,Delhivery,Ahmedabad,Gujarat,Active,2023-08-25 21:00:15
1222,Onkar Solanki,05436802025,DL12227455,BlueDart,Bengaluru,Karnataka,Active,2020-04-26 12:07:35
1223,Abram Kale,3263095114,DL12238715,EcomExpress,New Delhi,Delhi,Active,2023-04-11 16:39:55
1224,Veer Dubey,1996464310,DL12243401,In-house,New Delhi,Delhi,Active,2020-04-23 02:02:05
1225,Rasha Bava,6623536293,DL12253039,EcomExpress,Chennai,Tamil Nadu,Active,2021-09-02 06:51:47
1226,Prerak Ram,+919608025076,DL12266634,In-house,New Delhi,Delhi,Inactive,2023-08-13 20:42:53
1227,Umang Basu,6015178692,DL12271475,BlueDart,Bengaluru,Karnataka,Active,2021-10-30 01:44:09
1228,Zaina Dasgupta,00140297915,DL12287699,Shadowfax,Mumbai,Maharashtra,Inactive,2025-06-14 09:20:36
1229,Ayesha Sastry,04474814936,DL12297803,EcomExpress,Bengaluru,Karnataka,Active,2025-04-13 22:11:45
1230,Prisha Upadhyay,00821465965,DL12304903,Delhivery,Coimbatore,Tamil Nadu,Inactive,2025-09-02 23:10:39
1231,Alisha Lal,05815368259,DL12311302,Shadowfax,Coimbatore,Tamil Nadu,Active,2020-01-23 15:27:28
1232,Kismat Baria,+917207977708,DL12321373,EcomExpress,New Delhi,Delhi,Active,2021-12-27 00:42:10
1233,Eshani Sahota,01416328200,DL12335406,EcomExpress,Surat,Gujarat,Active,2024-09-07 10:55:26
1234,Kanav Shere,06493490706,DL12342009,Shadowfax,Pune,Maharashtra,Active,2020-09-23 12:05:30
1235,Neysa Dutta,4877869771,DL12356445,In-house,Surat,Gujarat,Inactive,2021-08-01 12:56:36
1236,Ayesha Cheema,+917155655866,DL12365197,In-house,New Delhi,Delhi,Active,2025-08-10 22:30:41
1237,Kismat Majumdar,05600157568,DL12374784,In-house,Surat,Gujarat,Active,2025-02-07 12:56:16
1238,Nirvaan Gera,4627285110,DL12384587,Shadowfax,Chennai,Tamil Nadu,Active,2020-10-17 23:12:55
1239,Yasmin Toor,8648762297,DL12396285,Shadowfax,Nagpur,Maharashtra,Active,2024-10-02 12:56:23
1240,Ivana Manne,+917192311037,DL12404688,BlueDart,Chennai,Tamil Nadu,Inactive,2021-06-11 06:17:44
1241,Reyansh Ravel,2342459761,DL12418490,In-house,Chennai,Tamil Nadu,Active,2023-04-12 13:55:34
1242,Tiya Solanki,6464766451,DL12429659,In-house,Surat,Gujarat,Active,2021-06-08 13:00:47
1243,Ishaan Tata,02376226044,DL12434019,BlueDart,New Delhi,Delhi,Active,2023-10-22 08:13:28
1244,Madhup Khare,4382682282,DL12447629,Delhivery,New Delhi,Delhi,Active,2025-05-26 16:41:08
1245,Myra Devan,6930133472,DL12457057,Shadowfax,Ahmedabad,Gujarat,Active,2020-02-26 23:16:20
1246,Purab Sethi,07621429746,DL12467471,Shadowfax,Mumbai,Maharashtra,Active,2022-08-27 00:29:34
1247,Inaaya  Baria,2566968348,DL12477030,BlueDart,Mysuru,Karnataka,Inactive,2023-06-13 05:00:25
1248,Jhanvi Manne,7232331833,DL12489542,Shadowfax,New Delhi,Delhi,Active,2020-05-02 11:41:46
1249,Uthkarsh Buch,8415621132,DL12495603,EcomExpress,Nagpur,Maharashtra,Inactive,2021-02-07 10:38:16
1250,Madhav Bassi,7277558649,DL12502755,EcomExpress,Pune,Maharashtra,Inactive,2023-05-02 10:37:12
1251,Nirvi Hegde,3725872178,DL12519031,EcomExpress,Bengaluru,Karnataka,Active,2021-08-11 11:52:53
1252,Azad Dugar,07404447721,DL12526916,In-house,Mysuru,Karnataka,Active,2023-03-02 10:16:45
1253,Lagan Bawa,04655818783,DL12531637,EcomExpress,Mysuru,Karnataka,Active,2020-09-15 23:23:03
1254,Nitya Sridhar,5796111419,DL12546803,Shadowfax,Surat,Gujarat,Active,2023-01-26 12:06:00
1255,Jayant Tella,9597809718,DL12556135,BlueDart,Coimbatore,Tamil Nadu,Inactive,2021-03-01 02:27:15
1256,Ojas Bhatti,+910851780451,DL12568895,Delhivery,Chennai,Tamil Nadu,Active,2020-09-30 17:08:18
1257,Pihu Bhatnagar,+917418904944,DL12576419,Delhivery,Surat,Gujarat,Active,2025-05-04 14:47:51
1258,Alia Sarma,04176174180,DL12581685,In-house,Mysuru,Karnataka,Inactive,2021-07-25 07:29:52
1259,Sahil Dube,+913398808164,DL12591033,BlueDart,Chennai,Tamil Nadu,Active,2025-08-25 14:46:38
1260,Tanya Roy,01093722820,DL12601858,In-house,Pune,Maharashtra,Active,2021-03-05 02:58:48
1261,Shanaya Apte,+913453306388,DL12617873,Delhivery,Mysuru,Karnataka,Inactive,2021-12-02 17:03:24
1262,Onkar Bhatia,+910504020960,DL12621964,In-house,Mumbai,Maharashtra,Active,2025-05-11 13:54:24
1263,Vidur Bhatnagar,+917218768368,DL12631961,In-house,New Delhi,Delhi,Inactive,2024-09-18 00:56:38
1264,Devansh Sankar,2610496377,DL12648527,EcomExpress,Nagpur,Maharashtra,Active,2022-12-13 11:26:45
1265,Emir Hayre,06450632690,DL12655563,Shadowfax,Surat,Gujarat,Active,2024-01-22 02:26:47
1266,Madhup Kalla,01243369371,DL12665122,In-house,Coimbatore,Tamil Nadu,Inactive,2022-01-26 18:59:28
1267,Raghav Deep,07875525059,DL12675485,BlueDart,Coimbatore,Tamil Nadu,Inactive,2021-03-09 04:02:45
1268,Baiju Halder,09362641652,DL12686286,Shadowfax,Chennai,Tamil Nadu,Active,2024-12-08 03:38:30
1269,Anvi Loyal,0311038756,DL12697564,BlueDart,New Delhi,Delhi,Active,2020-04-28 16:28:55
1270,Divit Jani,+917297020532,DL12704769,BlueDart,Nagpur,Maharashtra,Inactive,2021-02-12 18:07:00
1271,Madhav Buch,08730280247,DL12714750,Delhivery,Pune,Maharashtra,Active,2024-11-04 15:36:55
1272,Baiju Bose,+913749187731,DL12723304,In-house,Mysuru,Karnataka,Inactive,2021-07-02 17:14:59
1273,Ishaan Baria,9739701856,DL12737060,Shadowfax,Bengaluru,Karnataka,Inactive,2023-06-18 07:52:32
1274,Vardaniya Kota,+914699150280,DL12746805,BlueDart,Ahmedabad,Gujarat,Inactive,2024-09-19 00:47:25
1275,Vaibhav Khanna,09146540612,DL12758669,Delhivery,Bengaluru,Karnataka,Active,2020-04-13 07:09:42
1276,Shaan Dixit,00864777937,DL12766340,BlueDart,Bengaluru,Karnataka,Inactive,2023-06-05 12:57:26
1277,Hridaan Shah,+912832604774,DL12779374,In-house,Coimbatore,Tamil Nadu,Active,2021-09-17 06:16:53
1278,Taran Krish,00652557866,DL12784535,EcomExpress,Coimbatore,Tamil Nadu,Active,2022-07-06 05:46:55
1279,Dishani Brahmbhatt,+911879178741,DL12793746,In-house,Ahmedabad,Gujarat,Active,2020-10-19 12:01:58
1280,Aayush Sibal,03591387263,DL12805707,Shadowfax,Chennai,Tamil Nadu,Inactive,2023-09-01 08:58:17
1281,Arhaan Kota,+912840468028,DL12811905,Delhivery,Bengaluru,Karnataka,Inactive,2021-08-19 17:55:25
1282,Darshit Bhalla,4046664471,DL12827811,Shadowfax,Mysuru,Karnataka,Active,2023-06-27 09:02:29
1283,Samar Kale,06714737374,DL12836375,In-house,Mysuru,Karnataka,Inactive,2023-02-25 03:24:05
1284,Aayush Date,+918820852565,DL12846981,EcomExpress,Nagpur,Maharashtra,Active,2022-06-06 14:47:24
1285,Aradhya Yadav,08629003789,DL12857270,In-house,Bengaluru,Karnataka,Active,2023-09-22 07:51:48
1286,Vivaan Sachar,03584697816,DL12861443,Delhivery,Nagpur,Maharashtra,Inactive,2024-07-08 11:17:45
1287,Darshit Batra,+913173447172,DL12876923,BlueDart,Mysuru,Karnataka,Inactive,2023-12-11 15:33:49
1288,Vivaan Ramaswamy,9241096316,DL12885825,EcomExpress,Chennai,Tamil Nadu,Inactive,2023-12-27 16:49:31
1289,Jayesh Aggarwal,+917840728419,DL12892193,Delhivery,Nagpur,Maharashtra,Inactive,2023-09-21 18:16:31
1290,Pari Bhardwaj,2160198350,DL12901001,BlueDart,Coimbatore,Tamil Nadu,Active,2022-11-18 19:29:08
1291,Hrishita Singhal,02831040824,DL12916896,Delhivery,Chennai,Tamil Nadu,Active,2023-04-06 03:26:02
1292,Trisha Kamdar,7380574091,DL12925381,BlueDart,Mumbai,Maharashtra,Active,2024-05-02 17:20:47
1293,Badal Contractor,+914754969624,DL12934435,EcomExpress,Bengaluru,Karnataka,Active,2024-12-17 08:51:30
1294,Saksham Mandal,+914170167523,DL12941291,Delhivery,Coimbatore,Tamil Nadu,Inactive,2025-05-21 02:41:44
1295,Sara Mander,+913957912342,DL12951158,Delhivery,Pune,Maharashtra,Inactive,2024-04-20 01:35:55
1296,Vedika Das,09849169547,DL12966541,EcomExpress,Surat,Gujarat,Inactive,2021-09-12 12:00:55
1297,Jayan Varghese,+919180090030,DL12976259,EcomExpress,Chennai,Tamil Nadu,Inactive,2024-10-21 00:26:46
1298,Ishaan Iyer,+911153644441,DL12981395,BlueDart,Ahmedabad,Gujarat,Inactive,2020-07-11 04:21:56
1299,Samarth Sagar,05580491156,DL12998942,In-house,Pune,Maharashtra,Inactive,2025-05-31 12:47:36
1300,Aaryahi Dugal,5324125296,DL13007190,EcomExpress,Pune,Maharashtra,Inactive,2020-04-19 14:30:02
1301,Tarini Varty,1494327010,DL13013399,Delhivery,New Delhi,Delhi,Inactive,2023-08-06 14:14:40
1302,Azad Guha,05456050542,DL13025334,BlueDart,Bengaluru,Karnataka,Inactive,2024-02-17 14:08:14
1303,Riya Khosla,+919560942721,DL13038962,In-house,Coimbatore,Tamil Nadu,Inactive,2022-11-05 04:10:49
1304,Advika Virk,6502690109,DL13045258,Delhivery,New Delhi,Delhi,Inactive,2023-06-15 21:05:40
1305,Dhanuk Loyal,02714397184,DL13052875,BlueDart,New Delhi,Delhi,Active,2025-08-27 12:39:43
1306,Nayantara Raja,+917003575991,DL13065989,BlueDart,Ahmedabad,Gujarat,Active,2023-08-03 04:49:29
1307,Yuvaan Rajagopalan,00504522782,DL13074265,In-house,Bengaluru,Karnataka,Inactive,2024-01-30 23:54:42
1308,Kanav Dewan,3740471907,DL13089278,Delhivery,Mysuru,Karnataka,Active,2020-11-26 13:13:02
1309,Kavya Borde,5676009922,DL13095651,Delhivery,Ahmedabad,Gujarat,Active,2020-12-12 13:07:03
1310,Jayant Vohra,03509665229,DL13109269,Delhivery,Chennai,Tamil Nadu,Inactive,2020-11-26 23:43:26
1311,Emir Shroff,0167987787,DL13114672,Shadowfax,Bengaluru,Karnataka,Inactive,2022-09-06 08:28:28
1312,Aayush Doctor,01480671887,DL13126221,EcomExpress,Coimbatore,Tamil Nadu,Inactive,2023-11-15 22:06:52
1313,Kiara Srivastava,+912472062687,DL13133181,In-house,Chennai,Tamil Nadu,Active,2021-08-13 19:43:15
1314,Oorja Behl,3853427513,DL13145420,In-house,New Delhi,Delhi,Active,2025-02-26 10:34:43
1315,Romil Dayal,08386315621,DL13153948,BlueDart,Coimbatore,Tamil Nadu,Active,2022-07-26 20:13:31
1316,Madhup Som,8434151087,DL13163988,In-house,Coimbatore,Tamil Nadu,Inactive,2020-07-07 20:20:31
1317,Kabir Karnik,+915555012359,DL13176620,BlueDart,New Delhi,Delhi,Active,2025-03-11 12:38:28
1318,Kaira Agate,00819269473,DL13189106,Delhivery,New Delhi,Delhi,Inactive,2023-03-07 01:18:27
1319,Tiya Dubey,+918253292929,DL13197659,BlueDart,Surat,Gujarat,Inactive,2022-06-22 13:00:12
1320,Tara Kuruvilla,4270130533,DL13209994,BlueDart,Bengaluru,Karnataka,Active,2024-07-03 20:42:05
1321,Akarsh Dhingra,05754397282,DL13214999,EcomExpress,New Delhi,Delhi,Active,2024-08-26 22:58:51
1322,Gatik Kade,8027221411,DL13225033,Shadowfax,New Delhi,Delhi,Inactive,2021-02-04 21:00:43
1323,Piya Mannan,8706219235,DL13232884,EcomExpress,Chennai,Tamil Nadu,Inactive,2025-01-04 04:06:47
1324,Inaaya  Sane,+918953881069,DL13246207,In-house,Pune,Maharashtra,Active,2024-05-01 00:55:35
1325,Faiyaz Lata,+911147513773,DL13257040,BlueDart,New Delhi,Delhi,Inactive,2022-04-14 11:21:06
1326,Tiya Ganguly,8550897289,DL13268704,Shadowfax,Coimbatore,Tamil Nadu,Active,2022-02-26 21:50:40
1327,Rania Krishnamurthy,2266386587,DL13277132,BlueDart,Ahmedabad,Gujarat,Active,2024-10-23 07:21:59
1328,Heer Chowdhury,4917796022,DL13283455,BlueDart,Nagpur,Maharashtra,Active,2022-08-12 09:32:27
1329,Yuvraj  Singhal,01742828336,DL13293867,In-house,Ahmedabad,Gujarat,Inactive,2020-03-23 20:12:23
1330,Dhruv Ramakrishnan,4044453774,DL13305644,In-house,Mysuru,Karnataka,Active,2022-10-17 20:36:27
1331,Arhaan Ganguly,00228611707,DL13313442,BlueDart,Ahmedabad,Gujarat,Inactive,2024-04-21 16:56:44
1332,Seher Wason,+913090211847,DL13327241,In-house,Mysuru,Karnataka,Active,2025-08-16 23:57:27
1333,Ayesha Tiwari,+912841930009,DL13337246,Delhivery,New Delhi,Delhi,Active,2020-12-08 21:12:47
1334,Shray Solanki,00569594417,DL13345365,Delhivery,Mysuru,Karnataka,Active,2024-07-10 23:40:57
1335,Fateh Butala,9714308221,DL13351204,Shadowfax,New Delhi,Delhi,Inactive,2022-05-18 14:09:54
1336,Gatik Zacharia,1592453356,DL13365145,EcomExpress,Pune,Maharashtra,Inactive,2024-04-08 18:50:31
1337,Jivika Raja,7407557746,DL13377829,Delhivery,New Delhi,Delhi,Active,2024-04-01 08:56:28
1338,Vaibhav Kannan,4262650629,DL13388986,Shadowfax,Ahmedabad,Gujarat,Active,2023-01-10 12:01:28
1339,Shamik Master,+917700994284,DL13398903,EcomExpress,Coimbatore,Tamil Nadu,Inactive,2022-12-19 17:36:40
1340,Dhanuk Char,9759876031,DL13406238,In-house,Surat,Gujarat,Inactive,2020-02-13 07:46:36
1341,Kiaan Andra,7081026020,DL13419210,Delhivery,Mysuru,Karnataka,Active,2023-02-12 12:36:17
1342,Purab Balakrishnan,7320631595,DL13427452,Shadowfax,New Delhi,Delhi,Active,2025-04-21 16:20:29
1343,Amani Sridhar,00049997452,DL13432056,BlueDart,New Delhi,Delhi,Inactive,2022-06-04 00:52:19
1344,Miraan Chawla,4559925878,DL13442114,EcomExpress,Bengaluru,Karnataka,Inactive,2022-04-08 03:20:00
1345,Siya Borde,+919151468664,DL13459544,In-house,Bengaluru,Karnataka,Active,2021-12-09 11:11:13
1346,Yuvraj  Thaker,8019642077,DL13466385,In-house,Coimbatore,Tamil Nadu,Inactive,2020-05-06 22:28:14
1347,Emir Mani,+918468188214,DL13473582,Delhivery,Mumbai,Maharashtra,Active,2020-03-05 01:08:28
1348,Mamooty Hayre,1934909335,DL13484797,Shadowfax,New Delhi,Delhi,Active,2020-01-26 13:25:09
1349,Divyansh Agarwal,01900703449,DL13495904,Shadowfax,Coimbatore,Tamil Nadu,Active,2024-01-24 05:10:08
1350,Purab Goel,+910735020365,DL13503347,EcomExpress,New Delhi,Delhi,Inactive,2022-03-05 00:36:34
1351,Romil Kuruvilla,06281453137,DL13519417,BlueDart,Bengaluru,Karnataka,Inactive,2025-01-03 09:19:05
1352,Lavanya Kanda,09138665509,DL13529607,In-house,Pune,Maharashtra,Active,2025-04-25 19:31:54
1353,Advika Raman,+917756183430,DL13532794,Shadowfax,Chennai,Tamil Nadu,Inactive,2020-05-29 19:21:19
1354,Zain Sabharwal,2526241253,DL13543424,Shadowfax,Coimbatore,Tamil Nadu,Active,2023-04-24 13:29:54
1355,Ira Sehgal,+915731625240,DL13554354,In-house,Surat,Gujarat,Inactive,2020-06-07 02:48:33
1356,Heer Kumer,06373064652,DL13562933,Delhivery,Mysuru,Karnataka,Inactive,2024-05-15 20:15:22
1357,Indranil Basak,5726805734,DL13576234,BlueDart,Coimbatore,Tamil Nadu,Inactive,2023-11-03 21:23:58
1358,Jivika Bhagat,+919530519620,DL13583749,In-house,New Delhi,Delhi,Inactive,2022-02-15 16:15:00
1359,Tiya Doctor,+910456843515,DL13599120,EcomExpress,New Delhi,Delhi,Inactive,2024-10-11 08:49:44
1360,Navya Kumer,+910732753474,DL13607967,Shadowfax,Coimbatore,Tamil Nadu,Inactive,2025-07-25 14:53:14
1361,Hazel Dutta,7468777332,DL13617282,In-house,Bengaluru,Karnataka,Active,2021-11-24 19:38:39
1362,Yakshit Kamdar,9540359961,DL13628181,BlueDart,New Delhi,Delhi,Inactive,2020-09-26 04:45:47
1363,Anika Wadhwa,+912788518091,DL13633510,EcomExpress,Mysuru,Karnataka,Active,2020-03-16 06:03:22
1364,Amira Yohannan,00931886624,DL13641898,EcomExpress,Bengaluru,Karnataka,Active,2021-07-05 15:29:01
1365,Sana Dasgupta,09359508417,DL13653229,EcomExpress,Ahmedabad,Gujarat,Inactive,2021-06-21 09:53:59
1366,Samiha Jain,6828711886,DL13666470,Shadowfax,Mysuru,Karnataka,Active,2020-08-13 16:39:24
1367,Nirvaan Rama,+912164567225,DL13679195,BlueDart,Mumbai,Maharashtra,Inactive,2021-12-27 04:22:22
1368,Rhea Hans,09933831575,DL13687008,EcomExpress,New Delhi,Delhi,Active,2021-07-17 04:26:04
1369,Umang Rau,+912020263148,DL13695250,In-house,Ahmedabad,Gujarat,Inactive,2025-02-28 02:26:45
1370,Kavya Gala,02049838213,DL13706235,In-house,Mysuru,Karnataka,Inactive,2020-11-12 16:38:17
1371,Dhanush Toor,9846686527,DL13718443,Delhivery,New Delhi,Delhi,Inactive,2022-03-13 00:32:27
1372,Anya Sibal,9064830880,DL13729582,In-house,Ahmedabad,Gujarat,Active,2023-10-21 17:10:29
1373,Piya Sandal,+915329985325,DL13734066,In-house,New Delhi,Delhi,Active,2023-12-07 04:19:34
1374,Nishith Taneja,09165047749,DL13744870,BlueDart,Surat,Gujarat,Active,2021-07-20 18:13:04
1375,Divit Garde,1459485753,DL13754124,Delhivery,Bengaluru,Karnataka,Inactive,2020-11-08 05:18:22
1376,Anya Karnik,05211292905,DL13768390,Shadowfax,Bengaluru,Karnataka,Inactive,2021-07-31 02:13:43
1377,Khushi Dugar,3500617299,DL13779136,EcomExpress,Ahmedabad,Gujarat,Inactive,2023-04-01 21:10:22
1378,Lavanya Mannan,08349132760,DL13781927,Delhivery,Bengaluru,Karnataka,Active,2020-03-26 15:10:21
1379,Urvi Barman,4754781636,DL13795304,EcomExpress,Chennai,Tamil Nadu,Inactive,2021-12-04 17:35:23
1380,Priyansh Sane,3341512079,DL13806851,EcomExpress,Ahmedabad,Gujarat,Active,2024-12-21 23:53:44
1381,Misha Barad,00616110496,DL13815137,In-house,Coimbatore,Tamil Nadu,Inactive,2020-07-03 09:56:55
1382,Kavya Chatterjee,2250784219,DL13826491,EcomExpress,Mysuru,Karnataka,Inactive,2023-03-04 19:27:21
1383,Prisha Borra,+919087850935,DL13834392,Delhivery,Bengaluru,Karnataka,Inactive,2023-05-12 21:54:35
1384,Uthkarsh Bhandari,5079645306,DL13847233,EcomExpress,New Delhi,Delhi,Active,2020-11-19 18:08:31
1385,Yashvi Bobal,9599799137,DL13855048,Delhivery,Surat,Gujarat,Inactive,2021-11-02 06:09:49
1386,Indrajit Konda,02825524723,DL13865064,EcomExpress,New Delhi,Delhi,Inactive,2022-02-19 06:08:32
1387,Parinaaz Chada,8426680508,DL13873125,BlueDart,Surat,Gujarat,Active,2021-02-21 05:03:16
1388,Lakshit Soni,+915917766654,DL13887321,EcomExpress,Bengaluru,Karnataka,Active,2022-01-05 22:32:38
1389,Vihaan Chada,+916403748048,DL13899835,Shadowfax,Mysuru,Karnataka,Inactive,2021-06-14 05:00:44
1390,Himmat Sangha,3067999111,DL13902502,Delhivery,Mysuru,Karnataka,Inactive,2023-03-10 02:14:19
1391,Hazel Walla,+911336525050,DL13917158,Shadowfax,Mumbai,Maharashtra,Inactive,2020-03-28 10:13:47
1392,Adira Bains,04158966500,DL13929898,Delhivery,Surat,Gujarat,Inactive,2023-03-01 09:48:46
1393,Alisha Comar,04872051358,DL13934240,EcomExpress,New Delhi,Delhi,Inactive,2023-07-20 00:42:55
1394,Anika Mani,+914690000833,DL13948969,Shadowfax,Chennai,Tamil Nadu,Inactive,2021-02-11 19:05:47
1395,Abram Saraf,8469609383,DL13955735,In-house,Mysuru,Karnataka,Inactive,2022-09-18 22:37:39
1396,Vihaan Wali,5687007386,DL13962984,Shadowfax,Coimbatore,Tamil Nadu,Active,2020-09-18 04:27:34
1397,Yuvaan Raval,09956909136,DL13976128,Delhivery,Mysuru,Karnataka,Inactive,2022-09-02 22:36:01
1398,Shalv Issac,7431238234,DL13984361,Delhivery,New Delhi,Delhi,Active,2021-08-30 18:55:21
1399,Aaryahi Chana,3551936092,DL13991678,In-house,Mysuru,Karnataka,Inactive,2022-10-11 07:23:17
1400,Ahana  Kale,0388089033,DL14008148,EcomExpress,Coimbatore,Tamil Nadu,Active,2022-05-24 16:39:14
1401,Ayesha Gole,02814475087,DL14018829,BlueDart,Coimbatore,Tamil Nadu,Inactive,2020-04-25 03:21:56
1402,Anaya Sharaf,09211696420,DL14029457,Delhivery,Mumbai,Maharashtra,Inactive,2020-02-04 17:34:57
1403,Raunak Sathe,00199174918,DL14031636,EcomExpress,Pune,Maharashtra,Active,2023-04-01 17:04:37
1404,Amani Viswanathan,+912176723449,DL14047206,In-house,New Delhi,Delhi,Active,2024-08-18 09:45:14
1405,Rasha Borde,09347100631,DL14054297,BlueDart,Mumbai,Maharashtra,Active,2022-10-30 09:21:22
1406,Vanya Buch,01463400885,DL14064079,Delhivery,Surat,Gujarat,Inactive,2024-10-05 22:49:16
1407,Kismat Upadhyay,5627035874,DL14073930,BlueDart,New Delhi,Delhi,Inactive,2022-05-26 08:40:14
1408,Suhana Sarin,5970921652,DL14087337,In-house,Bengaluru,Karnataka,Inactive,2022-08-12 08:41:12
1409,Urvi Kari,+910762950039,DL14099892,In-house,Nagpur,Maharashtra,Active,2020-05-05 06:14:08
1410,Devansh Vora,3665870654,DL14109571,Delhivery,New Delhi,Delhi,Inactive,2023-06-30 12:34:36
1411,Saksham Anand,08793448441,DL14118474,Delhivery,New Delhi,Delhi,Inactive,2021-12-22 09:23:05
1412,Siya Dani,7359525846,DL14125328,EcomExpress,Mysuru,Karnataka,Inactive,2024-12-26 02:58:53
1413,Miraan Sant,4084742175,DL14137553,Delhivery,Bengaluru,Karnataka,Active,2023-01-20 07:23:53
1414,Bhavin Karnik,2980775027,DL14143811,EcomExpress,New Delhi,Delhi,Inactive,2020-08-02 22:23:21
1415,Inaaya  Bhardwaj,+914867268813,DL14154076,In-house,Ahmedabad,Gujarat,Active,2023-11-29 21:23:58
1416,Vaibhav Kota,00980097582,DL14165295,Delhivery,Mysuru,Karnataka,Inactive,2024-04-13 16:05:18
1417,Pranay Zachariah,8984093374,DL14172044,EcomExpress,New Delhi,Delhi,Inactive,2020-10-21 23:47:44
1418,Pari Khalsa,2635691065,DL14189299,In-house,Mysuru,Karnataka,Active,2022-06-19 17:48:33
1419,Jayesh Lal,06718131059,DL14194569,EcomExpress,Pune,Maharashtra,Inactive,2025-07-31 08:55:57
1420,Anya Brar,6117168541,DL14201909,BlueDart,Mysuru,Karnataka,Active,2023-01-20 08:15:40
1421,Aarav Mand,07601638041,DL14219386,Delhivery,Pune,Maharashtra,Inactive,2020-10-02 03:09:44
1422,Darshit Tripathi,9672283976,DL14223368,In-house,New Delhi,Delhi,Inactive,2020-09-18 11:19:50
1423,Aaina Dalal,+914782163555,DL14233530,EcomExpress,Surat,Gujarat,Inactive,2023-02-06 19:06:22
1424,Lakshit Banerjee,06674369921,DL14248525,BlueDart,Surat,Gujarat,Inactive,2021-07-10 04:26:47
1425,Aarna Choudhury,5852427444,DL14254050,In-house,Surat,Gujarat,Inactive,2025-01-26 23:50:05
1426,Alia Gokhale,0232758101,DL14269148,Shadowfax,Ahmedabad,Gujarat,Active,2023-09-02 15:33:11
1427,Arnav Chaudhary,8251937620,DL14271007,In-house,Nagpur,Maharashtra,Active,2023-06-01 12:13:26
1428,Alia Ramakrishnan,2422553350,DL14289574,Shadowfax,Ahmedabad,Gujarat,Inactive,2023-01-31 02:12:00
1429,Fateh Chopra,06061621747,DL14291170,Delhivery,Mysuru,Karnataka,Inactive,2021-10-09 04:16:04
1430,Anahi Jaggi,6714306773,DL14306128,Delhivery,Mumbai,Maharashtra,Active,2020-03-31 17:36:15
1431,Shalv Bhatia,03391617257,DL14312446,Delhivery,Mysuru,Karnataka,Active,2020-12-12 04:51:11
1432,Saksham DAlia,+918326484365,DL14328154,Shadowfax,New Delhi,Delhi,Inactive,2023-02-28 13:22:25
1433,Pihu DAlia,06058626424,DL14338737,EcomExpress,Chennai,Tamil Nadu,Inactive,2021-07-09 08:09:02
1434,Stuvan Hayre,1550046718,DL14344828,BlueDart,New Delhi,Delhi,Inactive,2022-08-05 00:42:32
1435,Ishita Jha,0847067495,DL14356652,BlueDart,Ahmedabad,Gujarat,Inactive,2023-04-08 14:39:43
1436,Jiya Sankaran,+910847683174,DL14364382,In-house,Bengaluru,Karnataka,Active,2021-05-07 10:55:09
1437,Vaibhav Dutta,6629193639,DL14372406,Shadowfax,New Delhi,Delhi,Inactive,2025-03-30 12:52:55
1438,Piya Devi,02289562389,DL14389873,EcomExpress,New Delhi,Delhi,Active,2020-06-04 03:56:36
1439,Raunak Sidhu,+915520645703,DL14393463,Delhivery,Mysuru,Karnataka,Inactive,2024-12-29 08:19:09
1440,Nayantara Balan,06274030574,DL14406990,In-house,Mumbai,Maharashtra,Inactive,2023-10-02 22:39:01
1441,Taimur Bakshi,+915036447422,DL14418150,BlueDart,Ahmedabad,Gujarat,Inactive,2024-07-26 02:46:42
1442,Onkar Bains,7023017611,DL14425964,Delhivery,New Delhi,Delhi,Inactive,2020-05-03 01:50:29
1443,Kavya Korpal,3193648834,DL14437958,In-house,New Delhi,Delhi,Inactive,2022-06-25 18:03:00
1444,Anahi Chaudry,4552328220,DL14441012,EcomExpress,Ahmedabad,Gujarat,Inactive,2020-03-21 04:24:41
1445,Dhruv Dewan,00701320986,DL14451778,In-house,New Delhi,Delhi,Inactive,2023-02-10 12:02:01
1446,Suhana Chandra,3392874516,DL14463947,In-house,Pune,Maharashtra,Inactive,2022-10-30 06:32:28
1447,Yasmin Saini,8404214883,DL14474948,Delhivery,Surat,Gujarat,Inactive,2025-02-03 14:10:52
1448,Gatik Iyengar,02356147681,DL14487525,BlueDart,New Delhi,Delhi,Active,2022-05-03 09:11:41
1449,Jhanvi Barad,09535698590,DL14498708,Shadowfax,Coimbatore,Tamil Nadu,Active,2021-11-10 08:31:43
1450,Madhav Sunder,3577737047,DL14505230,In-house,Mysuru,Karnataka,Inactive,2020-03-05 11:02:27
1451,Seher Sem,04344760567,DL14511728,BlueDart,New Delhi,Delhi,Active,2021-03-30 20:46:46
1452,Madhav Sethi,02824517921,DL14521571,Shadowfax,New Delhi,Delhi,Inactive,2020-01-29 23:29:02
1453,Nitara Kala,05789762210,DL14534573,BlueDart,Coimbatore,Tamil Nadu,Active,2020-01-24 23:56:57
1454,Yakshit Bains,3901499909,DL14546203,EcomExpress,Nagpur,Maharashtra,Inactive,2023-11-11 21:32:56
1455,Khushi Lanka,03126988766,DL14558872,Shadowfax,Mysuru,Karnataka,Inactive,2022-09-03 10:20:53
1456,Sana Bhatt,06281447822,DL14567894,BlueDart,Pune,Maharashtra,Inactive,2025-06-03 20:50:05
1457,Nishith Sharma,02120843221,DL14576563,Delhivery,Chennai,Tamil Nadu,Inactive,2023-11-04 03:33:36
1458,Yuvraj  Tella,+917019058225,DL14581565,BlueDart,Pune,Maharashtra,Active,2025-06-13 06:49:01
1459,Samaira Warrior,5692855447,DL14597753,EcomExpress,Bengaluru,Karnataka,Active,2024-12-12 08:54:25
1460,Aarush Rajagopalan,1711667717,DL14601913,Shadowfax,Ahmedabad,Gujarat,Active,2023-08-20 13:34:35
1461,Prerak Sane,+918349919687,DL14611924,Shadowfax,Coimbatore,Tamil Nadu,Active,2022-10-09 03:04:10
1462,Sana Vyas,06723429138,DL14623901,Delhivery,Surat,Gujarat,Inactive,2022-10-21 19:09:47
1463,Mahika Khare,05313032049,DL14634086,Delhivery,Mumbai,Maharashtra,Inactive,2024-06-08 09:04:00
1464,Romil Madan,0249348069,DL14648954,In-house,Bengaluru,Karnataka,Inactive,2024-02-07 08:27:48
1465,Madhup Johal,+919207272267,DL14657612,EcomExpress,Mumbai,Maharashtra,Active,2020-12-31 01:42:53
1466,Bhavin Goyal,4691346912,DL14664742,EcomExpress,Ahmedabad,Gujarat,Active,2022-03-30 23:50:30
1467,Khushi Dalal,02446884277,DL14676474,Delhivery,Coimbatore,Tamil Nadu,Active,2020-12-08 19:42:42
1468,Stuvan Savant,+914734047814,DL14685858,BlueDart,Mysuru,Karnataka,Inactive,2023-11-19 15:51:18
1469,Kiaan Thakkar,5760847894,DL14693319,EcomExpress,Coimbatore,Tamil Nadu,Active,2023-11-01 09:21:56
1470,Jivin Banerjee,5828837877,DL14704842,BlueDart,Mysuru,Karnataka,Inactive,2021-02-22 08:02:16
1471,Divit Shankar,8122127148,DL14716899,Shadowfax,New Delhi,Delhi,Inactive,2023-04-08 08:56:29
1472,Hrishita Kamdar,5531352660,DL14724971,Shadowfax,Coimbatore,Tamil Nadu,Active,2023-12-17 23:28:33
1473,Hridaan Sem,7654449227,DL14735506,EcomExpress,Surat,Gujarat,Active,2021-09-12 01:07:15
1474,Neelofar Chauhan,07638513573,DL14742816,Delhivery,Mumbai,Maharashtra,Inactive,2020-03-10 11:01:24
1475,Shray Dhawan,08151368156,DL14751461,Delhivery,Coimbatore,Tamil Nadu,Inactive,2022-05-17 17:26:10
1476,Pihu Ghose,4363781313,DL14761349,In-house,Bengaluru,Karnataka,Active,2022-06-27 05:15:20
1477,Priyansh Dayal,4548339333,DL14776984,Delhivery,Mysuru,Karnataka,Inactive,2021-03-09 16:38:32
1478,Lavanya Varkey,03016728586,DL14781058,Delhivery,New Delhi,Delhi,Active,2025-05-10 04:51:42
1479,Urvi Kala,+917684782288,DL14795339,Delhivery,Bengaluru,Karnataka,Inactive,2020-12-03 23:53:50
1480,Yasmin Doshi,+919123033302,DL14809975,BlueDart,Mumbai,Maharashtra,Active,2024-12-20 00:34:12
1481,Priyansh Shenoy,07811986930,DL14813256,BlueDart,New Delhi,Delhi,Inactive,2024-10-17 09:25:30
1482,Aarav Choudhry,2725241731,DL14821320,BlueDart,Ahmedabad,Gujarat,Inactive,2020-05-03 09:47:21
1483,Shlok Madan,06541876680,DL14838820,EcomExpress,New Delhi,Delhi,Active,2022-09-01 21:03:17
1484,Samar Arya,5630808025,DL14843835,EcomExpress,Ahmedabad,Gujarat,Active,2022-11-05 11:48:24
1485,Ela De,+915172220819,DL14851681,BlueDart,New Delhi,Delhi,Inactive,2023-11-07 22:38:55
1486,Adah Deo,5604098920,DL14864464,Delhivery,Pune,Maharashtra,Active,2020-07-06 02:04:17
1487,Akarsh Biswas,+913596151496,DL14874529,BlueDart,Chennai,Tamil Nadu,Inactive,2021-06-14 06:34:04
1488,Shanaya Kapoor,+911298429074,DL14889369,Shadowfax,Coimbatore,Tamil Nadu,Active,2024-05-19 23:15:15
1489,Mishti Banerjee,+917193040548,DL14898830,BlueDart,Chennai,Tamil Nadu,Inactive,2024-12-11 05:21:26
1490,Aarav Kaul,+911037440173,DL14907238,In-house,Surat,Gujarat,Inactive,2023-09-02 11:43:27
1491,Navya Ramaswamy,+910504863035,DL14916818,BlueDart,Chennai,Tamil Nadu,Inactive,2021-08-25 02:29:12
1492,Arnav Lalla,+918401904176,DL14929599,EcomExpress,Mysuru,Karnataka,Active,2022-08-14 13:25:57
1493,Zeeshan Singh,+917195969440,DL14938308,EcomExpress,New Delhi,Delhi,Inactive,2025-03-20 23:58:48
1494,Amira Sibal,9661202722,DL14941306,EcomExpress,Mumbai,Maharashtra,Active,2022-05-21 09:14:28
1495,Diya Bath,8098933192,DL14959575,BlueDart,Mysuru,Karnataka,Active,2022-02-19 11:03:33
1496,Ira Bedi,+919205862622,DL14964372,Shadowfax,Chennai,Tamil Nadu,Inactive,2023-12-11 16:01:51
1497,Rohan Kunda,8727090681,DL14972126,Shadowfax,Pune,Maharashtra,Active,2021-03-21 00:52:33
1498,Ritvik Korpal,1319638105,DL14984393,Shadowfax,Nagpur,Maharashtra,Inactive,2022-02-19 20:06:09
1499,Taimur Rajagopalan,09918299716,DL14994308,EcomExpress,Coimbatore,Tamil Nadu,Inactive,2025-02-28 20:50:24
1500,Nehmat Bassi,+916944292763,DL15007109,BlueDart,New Delhi,Delhi,Inactive,2022-04-15 05:03:26
1501,Emir Chakraborty,0683709498,DL15015256,Shadowfax,Chennai,Tamil Nadu,Inactive,2025-09-04 09:39:19
1502,Aayush Soman,+911191740631,DL15025293,Delhivery,Nagpur,Maharashtra,Active,2025-08-23 03:20:37
1503,Tushar Sura,+910086879224,DL15031074,Delhivery,Chennai,Tamil Nadu,Inactive,2021-06-13 06:13:09
1504,Aaryahi Mannan,06529315631,DL15043705,BlueDart,Nagpur,Maharashtra,Inactive,2020-02-07 11:37:52
1505,Miraya Sule,08358809918,DL15058606,EcomExpress,New Delhi,Delhi,Active,2021-02-09 04:16:25
1506,Umang Rege,06175487267,DL15062601,EcomExpress,Surat,Gujarat,Active,2023-09-02 03:50:44
1507,Shray Manne,6711435440,DL15075197,In-house,Ahmedabad,Gujarat,Inactive,2021-06-04 01:35:10
1508,Dharmajan Vora,+911641904493,DL15081445,BlueDart,Surat,Gujarat,Inactive,2024-06-29 17:39:29
1509,Aniruddh Acharya,3121156083,DL15096561,Shadowfax,Surat,Gujarat,Inactive,2022-03-04 12:22:23
1510,Alia Bali,4419776200,DL15107591,Shadowfax,Coimbatore,Tamil Nadu,Inactive,2023-12-15 12:22:23
1511,Shamik Tak,01993278682,DL15118228,BlueDart,Bengaluru,Karnataka,Active,2022-12-21 06:23:20
1512,Uthkarsh Master,1401217048,DL15126925,In-house,Bengaluru,Karnataka,Inactive,2023-10-21 15:34:13
1513,Suhana Doshi,2239651379,DL15137107,EcomExpress,Ahmedabad,Gujarat,Active,2025-03-05 10:00:57
1514,Vihaan Chauhan,4567515121,DL15145492,Shadowfax,New Delhi,Delhi,Active,2023-03-22 20:55:01
1515,Vaibhav Kakar,+917179394721,DL15152654,Shadowfax,Pune,Maharashtra,Inactive,2020-09-19 08:26:21
1516,Kashvi Bansal,8999464724,DL15161579,In-house,New Delhi,Delhi,Active,2025-04-01 21:38:50
1517,Ritvik Korpal,+917703394437,DL15172046,In-house,New Delhi,Delhi,Active,2021-03-31 04:15:13
1518,Amani DAlia,09825989847,DL15189828,Delhivery,Chennai,Tamil Nadu,Inactive,2023-09-24 03:15:06
1519,Saira Dubey,9824286695,DL15195666,Delhivery,Bengaluru,Karnataka,Inactive,2025-07-26 11:10:44
1520,Jayesh Shetty,03774261541,DL15204133,In-house,New Delhi,Delhi,Active,2021-06-26 17:24:25
1521,Myra Kannan,+919774134793,DL15215208,BlueDart,Chennai,Tamil Nadu,Inactive,2023-06-29 07:57:26
1522,Miraan Kumer,07986254038,DL15221780,Delhivery,Ahmedabad,Gujarat,Inactive,2022-11-01 01:15:09
1523,Taran Datta,+912053705528,DL15236217,EcomExpress,Chennai,Tamil Nadu,Inactive,2024-09-15 09:58:02
1524,Rhea Shan,1253111929,DL15242025,In-house,Coimbatore,Tamil Nadu,Inactive,2022-01-25 21:17:45
1525,Pranay Sastry,01359943784,DL15251430,BlueDart,Ahmedabad,Gujarat,Inactive,2023-08-24 11:59:52
1526,Navya Guha,08326274939,DL15265125,In-house,New Delhi,Delhi,Inactive,2025-01-15 16:47:39
1527,Ranbir Upadhyay,2799118694,DL15276537,Delhivery,Coimbatore,Tamil Nadu,Active,2023-04-30 18:23:22
1528,Kashvi Balay,05759725268,DL15289720,Delhivery,Surat,Gujarat,Inactive,2020-07-15 01:24:36
1529,Zara Barad,+913412479280,DL15292695,BlueDart,New Delhi,Delhi,Inactive,2021-10-07 11:55:54
1530,Aniruddh Saha,+919351148618,DL15308509,Shadowfax,Surat,Gujarat,Active,2021-11-02 02:27:20
1531,Jivin Rau,+912128904674,DL15314605,EcomExpress,New Delhi,Delhi,Active,2022-06-13 05:18:28
1532,Ayesha Shenoy,+918276882455,DL15327277,Shadowfax,Ahmedabad,Gujarat,Active,2023-10-28 17:54:50
1533,Yakshit Sant,+912462283003,DL15332021,In-house,New Delhi,Delhi,Active,2021-09-14 17:16:27
1534,Manikya Chandra,06790394133,DL15343230,In-house,Nagpur,Maharashtra,Inactive,2022-09-20 11:25:54
1535,Uthkarsh Sur,+910194002520,DL15358921,EcomExpress,New Delhi,Delhi,Active,2025-01-01 12:35:21
1536,Zeeshan Vyas,0254554253,DL15366281,Delhivery,New Delhi,Delhi,Inactive,2024-11-06 08:43:30
1537,Ishita Srinivas,02826558737,DL15374479,In-house,Coimbatore,Tamil Nadu,Inactive,2020-03-08 08:41:16
1538,Jayan Kannan,04543142779,DL15388425,Delhivery,Ahmedabad,Gujarat,Active,2024-02-19 21:30:43
1539,Yasmin Joshi,9442929763,DL15392671,EcomExpress,Ahmedabad,Gujarat,Inactive,2020-05-02 22:08:46
1540,Dishani Bakshi,09306184955,DL15405867,In-house,Coimbatore,Tamil Nadu,Active,2020-10-15 15:50:08
1541,Lagan Chawla,04058172965,DL15411521,Delhivery,New Delhi,Delhi,Inactive,2022-04-03 16:56:14
1542,Khushi Mane,+910274679264,DL15427501,EcomExpress,Coimbatore,Tamil Nadu,Active,2021-08-13 20:08:50
1543,Nehmat Khosla,+916982296623,DL15433212,Delhivery,Bengaluru,Karnataka,Active,2023-10-03 12:02:16
1544,Tushar Wason,+918282168451,DL15446552,Delhivery,Mysuru,Karnataka,Inactive,2022-05-12 05:39:03
1545,Amira Koshy,02750642748,DL15454026,Shadowfax,Mysuru,Karnataka,Active,2024-03-24 09:20:50
1546,Divit Mander,08962309720,DL15466832,In-house,Nagpur,Maharashtra,Inactive,2024-09-28 08:36:58
1547,Mamooty Sangha,8339275041,DL15476956,BlueDart,Pune,Maharashtra,Active,2024-12-30 16:49:04
1548,Hunar Khalsa,+917794828325,DL15484344,Shadowfax,Ahmedabad,Gujarat,Inactive,2021-06-05 20:07:32
1549,Manjari Khanna,+911481973917,DL15496449,In-house,Surat,Gujarat,Inactive,2021-04-22 11:38:47
1550,Zeeshan Walla,03147602807,DL15505776,In-house,Chennai,Tamil Nadu,Inactive,2024-06-23 13:11:30
1551,Vaibhav Sathe,03271463365,DL15511367,EcomExpress,Ahmedabad,Gujarat,Active,2022-03-10 10:32:44
1552,Dhanuk Banerjee,+914334953713,DL15529723,Delhivery,New Delhi,Delhi,Inactive,2021-05-16 19:54:49
1553,Aayush Mall,0886192739,DL15534354,BlueDart,Nagpur,Maharashtra,Inactive,2023-01-21 07:27:32
1554,Hiran Varkey,+910384605888,DL15542677,In-house,Mumbai,Maharashtra,Active,2022-06-20 11:18:54
1555,Dhruv Bhasin,+915403296878,DL15555782,Shadowfax,Surat,Gujarat,Inactive,2025-01-26 17:34:34
1556,Indrajit Sahni,+919610353417,DL15564890,BlueDart,Mysuru,Karnataka,Inactive,2023-07-12 23:35:48
1557,Raunak Kurian,+914374412078,DL15571172,BlueDart,Bengaluru,Karnataka,Inactive,2020-10-29 08:51:08
1558,Hridaan Basu,4502584446,DL15583939,EcomExpress,Coimbatore,Tamil Nadu,Inactive,2022-02-21 16:54:37
1559,Umang Goel,0073694998,DL15596445,BlueDart,Ahmedabad,Gujarat,Active,2024-02-28 20:49:58
1560,Mamooty Barman,04011200234,DL15609173,Delhivery,Mysuru,Karnataka,Active,2022-05-27 18:11:09
1561,Umang Bains,03336239374,DL15612822,BlueDart,Mysuru,Karnataka,Active,2022-01-27 05:43:34
1562,Armaan Devan,9637727868,DL15626965,In-house,New Delhi,Delhi,Active,2024-02-05 21:39:22
1563,Riya Gulati,00167343141,DL15639755,EcomExpress,Ahmedabad,Gujarat,Inactive,2023-11-15 16:20:04
1564,Anaya Gade,2824523556,DL15642990,BlueDart,Pune,Maharashtra,Inactive,2020-10-25 06:43:03
1565,Nitara Ravel,+919419535728,DL15657466,Shadowfax,Coimbatore,Tamil Nadu,Inactive,2021-07-16 11:24:47
1566,Zeeshan Tailor,07303361404,DL15665069,Shadowfax,Mysuru,Karnataka,Inactive,2021-10-27 19:43:59
1567,Gokul Bandi,+913177544006,DL15677156,In-house,Coimbatore,Tamil Nadu,Active,2021-12-16 02:05:37
1568,Nayantara Vaidya,07152738694,DL15684962,Shadowfax,Surat,Gujarat,Active,2021-08-20 15:05:19
1569,Gatik Badal,07842467106,DL15698397,BlueDart,Surat,Gujarat,Active,2021-09-27 14:46:09
1570,Neelofar Sathe,04293067485,DL15706447,In-house,Mysuru,Karnataka,Inactive,2024-05-30 11:00:25
1571,Myra Khosla,00479414346,DL15717084,In-house,Coimbatore,Tamil Nadu,Active,2025-05-14 01:42:04
1572,Tiya Chada,+918624077495,DL15723853,In-house,Surat,Gujarat,Inactive,2024-09-11 17:05:48
1573,Ishita Grewal,09005579734,DL15739512,Shadowfax,New Delhi,Delhi,Active,2021-01-29 15:13:36
1574,Mehul Issac,04020704697,DL15741941,Delhivery,Ahmedabad,Gujarat,Active,2024-09-19 03:39:56
1575,Himmat Kaur,06298711139,DL15753605,BlueDart,Mysuru,Karnataka,Inactive,2020-04-16 12:26:03
1576,Taran Sane,7415152219,DL15764297,Shadowfax,Nagpur,Maharashtra,Inactive,2021-07-26 05:10:25
1577,Manikya Sama,5080585362,DL15771070,BlueDart,Bengaluru,Karnataka,Inactive,2023-08-22 02:17:49
1578,Aniruddh Bora,06281556817,DL15786856,EcomExpress,Surat,Gujarat,Active,2021-07-01 06:50:41
1579,Zain Sarma,04428201874,DL15793624,Shadowfax,Ahmedabad,Gujarat,Inactive,2024-01-13 09:17:02
1580,Taran Sodhi,01291786483,DL15804611,In-house,Ahmedabad,Gujarat,Inactive,2021-10-06 11:29:29
1581,Rohan Boase,05825955368,DL15818125,In-house,Pune,Maharashtra,Active,2024-05-10 19:36:20
1582,Priyansh Taneja,4170294159,DL15821454,EcomExpress,Nagpur,Maharashtra,Active,2024-09-13 17:13:26
1583,Priyansh Bawa,9453748555,DL15834081,In-house,Mysuru,Karnataka,Inactive,2021-07-07 15:23:36
1584,Aaina Rastogi,07208556996,DL15848379,In-house,Bengaluru,Karnataka,Active,2022-04-09 01:46:04
1585,Baiju Badami,+919514793448,DL15851611,EcomExpress,Mysuru,Karnataka,Active,2025-03-24 04:08:23
1586,Nishith Kulkarni,+917248955080,DL15861719,BlueDart,Bengaluru,Karnataka,Active,2021-01-04 11:37:21
1587,Oorja Chana,07113092428,DL15871670,Shadowfax,Nagpur,Maharashtra,Active,2023-07-15 15:06:06
1588,Devansh Bawa,6540634971,DL15883163,In-house,Chennai,Tamil Nadu,Inactive,2025-03-30 09:21:52
1589,Mohanlal Thaker,+918244200878,DL15896822,In-house,Pune,Maharashtra,Active,2022-03-29 03:20:27
1590,Kanav Bose,+911692650688,DL15907322,BlueDart,Chennai,Tamil Nadu,Active,2022-09-08 21:51:38
1591,Hiran Setty,04895289102,DL15912618,Delhivery,Bengaluru,Karnataka,Active,2024-04-14 07:33:27
1592,Neysa Barman,4804740627,DL15924577,Shadowfax,New Delhi,Delhi,Inactive,2023-04-02 09:33:55
1593,Anika Shah,3394534011,DL15937456,EcomExpress,Chennai,Tamil Nadu,Inactive,2021-03-19 12:46:57
1594,Mamooty Sabharwal,+912843967298,DL15945679,BlueDart,New Delhi,Delhi,Active,2020-07-06 00:48:59
1595,Dhanuk Sethi,0770418602,DL15959687,EcomExpress,Mumbai,Maharashtra,Active,2022-09-17 04:17:18
1596,Shlok Khurana,1466231901,DL15961333,In-house,New Delhi,Delhi,Inactive,2021-09-07 11:30:14
1597,Indrajit Ghosh,6147800229,DL15976963,Shadowfax,Surat,Gujarat,Inactive,2022-04-10 18:50:49
1598,Anaya Doctor,6752808653,DL15985936,Delhivery,Nagpur,Maharashtra,Inactive,2024-07-07 17:13:25
1599,Chirag Gaba,01009396298,DL15999857,Delhivery,Surat,Gujarat,Active,2025-03-10 08:50:02
1600,Ira Loyal,+910986838617,DL16004048,EcomExpress,New Delhi,Delhi,Active,2022-10-25 14:27:41
1601,Ritvik Gandhi,04592448105,DL16019504,Shadowfax,Nagpur,Maharashtra,Inactive,2020-08-21 16:08:35
1602,Rasha Garde,4149108651,DL16024492,Delhivery,Surat,Gujarat,Inactive,2023-10-10 11:53:40
1603,Rohan Kaur,1138496978,DL16038359,BlueDart,Bengaluru,Karnataka,Active,2020-07-21 00:16:09
1604,Tanya Bhatti,+918481066559,DL16049028,BlueDart,Mysuru,Karnataka,Active,2020-02-21 16:19:36
1605,Ahana  Magar,+917610701897,DL16054220,BlueDart,Mysuru,Karnataka,Active,2021-02-09 14:39:21
1606,Rhea Lad,3992905597,DL16067670,EcomExpress,Pune,Maharashtra,Inactive,2022-08-15 12:19:24
1607,Advik Raj,+915895596100,DL16076534,Delhivery,Chennai,Tamil Nadu,Active,2022-11-10 04:04:06
1608,Saksham Chokshi,7864534085,DL16088028,In-house,Mumbai,Maharashtra,Active,2022-09-08 13:05:13
1609,Chirag Viswanathan,+919683758288,DL16097495,Delhivery,Bengaluru,Karnataka,Active,2022-09-06 12:21:47
1610,Ritvik Chakrabarti,2321714062,DL16108908,EcomExpress,Surat,Gujarat,Inactive,2024-09-02 08:57:31
1611,Suhana Kade,04273686436,DL16119832,Delhivery,Mysuru,Karnataka,Active,2020-09-28 12:55:14
1612,Nehmat Khatri,7723214952,DL16126141,Delhivery,Bengaluru,Karnataka,Active,2022-07-05 18:54:16
1613,Amira Talwar,8774431900,DL16134606,EcomExpress,New Delhi,Delhi,Inactive,2023-12-08 20:51:57
1614,Vivaan Chandran,04187508498,DL16148143,Shadowfax,Mumbai,Maharashtra,Inactive,2021-05-21 17:13:35
1615,Shayak Bawa,1855431987,DL16155779,Delhivery,New Delhi,Delhi,Active,2022-12-31 20:54:16
1616,Saksham Chatterjee,05464262052,DL16162564,Delhivery,Mysuru,Karnataka,Inactive,2025-07-02 00:35:26
1617,Rhea Deo,05201628135,DL16175038,Shadowfax,Ahmedabad,Gujarat,Inactive,2021-08-12 04:15:35
1618,Tushar Kapoor,9910162294,DL16189802,EcomExpress,Surat,Gujarat,Active,2024-08-06 09:42:07
1619,Neysa Garde,+910618728965,DL16195734,EcomExpress,Surat,Gujarat,Inactive,2024-09-24 17:39:11
1620,Khushi Gola,9803960753,DL16209188,Shadowfax,Nagpur,Maharashtra,Active,2020-04-07 21:03:15
1621,Tiya Loke,5012638149,DL16214727,Delhivery,Mumbai,Maharashtra,Active,2021-05-11 10:24:22
1622,Veer Dyal,+913551643369,DL16223102,Shadowfax,Ahmedabad,Gujarat,Active,2021-01-18 20:29:24
1623,Keya Contractor,+911715963097,DL16234803,Delhivery,Ahmedabad,Gujarat,Inactive,2025-06-28 04:40:44
1624,Hiran Sodhi,+914750799020,DL16244357,Delhivery,Coimbatore,Tamil Nadu,Inactive,2024-11-04 17:58:36
1625,Inaaya  Grover,+911261252406,DL16257880,EcomExpress,Ahmedabad,Gujarat,Inactive,2020-02-28 10:42:05
1626,Ahana  Deol,+910917078023,DL16268704,Shadowfax,New Delhi,Delhi,Inactive,2023-04-10 21:04:03
1627,Adah Bora,4351382357,DL16279429,BlueDart,New Delhi,Delhi,Active,2021-05-11 14:57:55
1628,Ishaan Varghese,+914020247753,DL16287263,Delhivery,Coimbatore,Tamil Nadu,Active,2021-06-18 08:24:05
1629,Shray Karnik,07835279250,DL16293049,BlueDart,Mumbai,Maharashtra,Inactive,2025-04-14 18:36:04
1630,Stuvan Talwar,6456137716,DL16303104,In-house,Surat,Gujarat,Active,2020-12-12 23:49:07
1631,Arhaan Sangha,8136568917,DL16312040,Delhivery,Mumbai,Maharashtra,Active,2023-11-23 18:11:38
1632,Tiya Singhal,+919451821878,DL16323408,EcomExpress,Bengaluru,Karnataka,Inactive,2022-10-16 15:23:21
1633,Anvi Bali,+915441436158,DL16334300,EcomExpress,Mysuru,Karnataka,Active,2020-12-27 22:03:18
1634,Dhanush Bal,4923203022,DL16344336,EcomExpress,Pune,Maharashtra,Active,2024-12-07 18:50:06
1635,Ehsaan Kohli,00848808741,DL16358014,In-house,Coimbatore,Tamil Nadu,Active,2024-02-03 16:14:04
1636,Renee Sunder,5760469209,DL16367279,In-house,Pune,Maharashtra,Active,2025-01-07 14:39:38
1637,Damini Chandra,09568268563,DL16376412,Delhivery,Pune,Maharashtra,Active,2020-11-24 19:03:52
1638,Kimaya Chad,+912028066060,DL16384233,In-house,Chennai,Tamil Nadu,Active,2025-07-12 08:43:34
1639,Shanaya Bora,08419890314,DL16399775,Shadowfax,Bengaluru,Karnataka,Inactive,2022-04-16 02:14:06
1640,Shalv Batta,8455735461,DL16406381,In-house,New Delhi,Delhi,Inactive,2023-08-27 15:04:24
1641,Akarsh Chawla,05258941062,DL16419042,In-house,Ahmedabad,Gujarat,Inactive,2020-04-26 18:07:44
1642,Raghav Dyal,01755518707,DL16421881,In-house,Chennai,Tamil Nadu,Active,2022-04-01 07:20:15
1643,Rohan Bhagat,4500158346,DL16438804,In-house,Coimbatore,Tamil Nadu,Active,2024-03-30 23:59:59
1644,Kavya Bala,9193349365,DL16449011,Delhivery,Surat,Gujarat,Active,2024-05-12 19:42:14
1645,Zain Lad,6119876514,DL16453788,In-house,Mumbai,Maharashtra,Inactive,2022-05-10 04:07:49
1646,Aayush Bahl,+919138116235,DL16467308,Delhivery,Ahmedabad,Gujarat,Active,2022-12-01 05:33:49
1647,Kavya Kala,7635877418,DL16476978,BlueDart,Bengaluru,Karnataka,Inactive,2020-10-15 03:49:04
1648,Riya Kapoor,04052659483,DL16486986,BlueDart,Mysuru,Karnataka,Active,2025-04-20 18:44:13
1649,Fateh Kulkarni,+914912135929,DL16491840,BlueDart,Surat,Gujarat,Active,2022-08-03 02:45:22
1650,Dharmajan Dasgupta,05453531986,DL16508478,Shadowfax,Ahmedabad,Gujarat,Active,2021-01-25 18:10:10
1651,Saira Vyas,3668565645,DL16513501,BlueDart,Bengaluru,Karnataka,Active,2025-01-08 22:30:13
1652,Inaaya  Sabharwal,6931504953,DL16526424,In-house,Coimbatore,Tamil Nadu,Inactive,2024-03-17 08:21:50
1653,Nitara Sarkar,01845811802,DL16532753,BlueDart,Chennai,Tamil Nadu,Active,2020-10-17 00:59:14
1654,Nishith Lala,09083232167,DL16549688,In-house,New Delhi,Delhi,Active,2025-07-01 12:03:06
1655,Zoya Sama,0717684857,DL16559942,Shadowfax,Coimbatore,Tamil Nadu,Active,2024-06-21 11:59:26
1656,Ahana  Din,+916910856921,DL16562935,BlueDart,Surat,Gujarat,Inactive,2021-07-22 08:56:44
1657,Anahita Chahal,0378736603,DL16577707,BlueDart,Chennai,Tamil Nadu,Active,2023-07-27 08:03:52
1658,Shaan Bali,+913595305801,DL16589609,Shadowfax,Surat,Gujarat,Active,2024-10-14 06:31:01
1659,Anvi Tailor,+911163362999,DL16594945,Delhivery,Bengaluru,Karnataka,Active,2022-06-01 09:18:44
1660,Seher Bobal,+915685658877,DL16602785,Shadowfax,Bengaluru,Karnataka,Inactive,2024-12-24 16:01:41
1661,Samiha Bhat,01132674939,DL16618984,EcomExpress,New Delhi,Delhi,Active,2023-06-25 09:04:03
1662,Shaan Sundaram,09660489438,DL16626087,In-house,Coimbatore,Tamil Nadu,Active,2021-09-27 02:28:32
1663,Divyansh Jha,1594813036,DL16638761,In-house,Chennai,Tamil Nadu,Active,2023-11-24 06:56:25
1664,Neysa Sangha,+910431857821,DL16647766,Shadowfax,Surat,Gujarat,Inactive,2020-07-10 05:18:08
1665,Yuvraj  Kapur,9447523389,DL16657259,BlueDart,Coimbatore,Tamil Nadu,Active,2020-01-11 00:36:03
1666,Abram Yogi,4541631384,DL16665795,Delhivery,Mumbai,Maharashtra,Active,2025-05-26 00:00:37
1667,Shaan Arya,2129477888,DL16675255,Delhivery,Bengaluru,Karnataka,Inactive,2025-03-16 19:50:22
1668,Alia Bhavsar,02500300484,DL16689095,BlueDart,Nagpur,Maharashtra,Inactive,2023-03-23 13:23:48
1669,Charvi Chaudhari,+917056354012,DL16692330,Shadowfax,New Delhi,Delhi,Active,2020-08-24 03:55:26
1670,Mamooty Dash,7540001904,DL16701256,Shadowfax,Bengaluru,Karnataka,Active,2022-12-30 04:44:48
1671,Gokul Varghese,+915331787551,DL16711527,BlueDart,New Delhi,Delhi,Active,2021-06-27 19:09:16
1672,Nishith Hora,6507322475,DL16725684,Shadowfax,Coimbatore,Tamil Nadu,Active,2025-05-18 02:18:58
1673,Hiran Chaudhuri,6931663974,DL16733785,BlueDart,Bengaluru,Karnataka,Active,2025-08-19 18:28:48
1674,Rati Jayaraman,09954400596,DL16749713,EcomExpress,Mysuru,Karnataka,Inactive,2020-12-02 20:58:16
1675,Faiyaz Lad,+917624068571,DL16753514,BlueDart,Coimbatore,Tamil Nadu,Inactive,2024-03-05 23:43:32
1676,Armaan Iyengar,03650363690,DL16766969,EcomExpress,Nagpur,Maharashtra,Inactive,2024-01-12 10:11:15
1677,Anahi Yadav,00240767957,DL16779032,EcomExpress,Pune,Maharashtra,Inactive,2022-11-05 21:09:55
1678,Kashvi Vora,9696642123,DL16787743,BlueDart,Bengaluru,Karnataka,Inactive,2020-08-23 19:48:13
1679,Samar Shanker,8272265544,DL16796068,Shadowfax,New Delhi,Delhi,Active,2020-05-13 14:36:03
1680,Neelofar Agarwal,07614801729,DL16808548,BlueDart,Ahmedabad,Gujarat,Inactive,2022-02-09 20:05:31
1681,Rasha Batta,06183641514,DL16819321,Delhivery,Coimbatore,Tamil Nadu,Inactive,2021-04-11 17:26:41
1682,Hrishita Chaudhuri,+913428827152,DL16822988,In-house,Nagpur,Maharashtra,Active,2020-01-16 07:46:58
1683,Taran Ganguly,+915540429535,DL16837691,Shadowfax,Mumbai,Maharashtra,Active,2020-04-05 16:13:35
1684,Raunak Banik,+910679054757,DL16849615,EcomExpress,New Delhi,Delhi,Active,2022-03-27 07:25:32
1685,Piya Krishna,2053552452,DL16854838,EcomExpress,Ahmedabad,Gujarat,Inactive,2024-12-08 20:55:07
1686,Nishith Issac,+916713871847,DL16864702,Delhivery,Chennai,Tamil Nadu,Active,2022-06-07 03:21:53
1687,Charvi Zachariah,6716520091,DL16879062,EcomExpress,Ahmedabad,Gujarat,Active,2023-05-09 22:08:08
1688,Aarush Srinivasan,2039105816,DL16881285,In-house,Nagpur,Maharashtra,Inactive,2020-11-11 00:16:03
1689,Samar Basak,2762001853,DL16895006,EcomExpress,Coimbatore,Tamil Nadu,Inactive,2024-03-30 02:19:50
1690,Shray Korpal,7619882528,DL16901389,In-house,Nagpur,Maharashtra,Inactive,2024-04-02 11:34:40
1691,Ivan Sharma,+918771245529,DL16917778,BlueDart,Surat,Gujarat,Active,2020-04-25 07:02:16
1692,Nitya Sura,03173635374,DL16927893,BlueDart,New Delhi,Delhi,Inactive,2023-08-25 23:56:08
1693,Saksham Shan,5862579212,DL16935898,EcomExpress,Mysuru,Karnataka,Active,2022-09-20 23:32:21
1694,Amira Kamdar,04178934979,DL16947752,Delhivery,Bengaluru,Karnataka,Active,2023-08-09 09:56:11
1695,Zoya Chadha,06185258192,DL16957005,Delhivery,Chennai,Tamil Nadu,Active,2022-03-03 18:03:41
1696,Neelofar Hegde,3435175721,DL16966991,BlueDart,Mumbai,Maharashtra,Active,2024-01-19 20:53:26
1697,Bhamini Mani,00447698164,DL16978546,EcomExpress,Coimbatore,Tamil Nadu,Active,2023-07-22 23:54:57
1698,Reyansh Sarkar,00212176422,DL16981704,BlueDart,Mysuru,Karnataka,Active,2024-12-16 10:50:12
1699,Tiya Bath,+912797423591,DL16994173,EcomExpress,Mysuru,Karnataka,Active,2023-09-07 20:43:47
1700,Manikya Bhattacharyya,6405249660,DL17003155,Shadowfax,Pune,Maharashtra,Inactive,2023-01-22 12:03:12
1701,Siya Sami,2650675387,DL17018667,BlueDart,New Delhi,Delhi,Active,2025-05-24 00:32:06
1702,Adira Arora,02425490000,DL17024514,EcomExpress,Mysuru,Karnataka,Active,2022-03-02 14:37:00
1703,Ira Kohli,08048794340,DL17031641,BlueDart,Ahmedabad,Gujarat,Inactive,2020-05-21 12:21:11
1704,Prisha Dada,+911450960156,DL17044797,EcomExpress,New Delhi,Delhi,Inactive,2020-12-29 23:26:02
1705,Baiju Lalla,6253882903,DL17052908,BlueDart,Ahmedabad,Gujarat,Active,2021-11-01 23:41:48
1706,Raghav Ghosh,04415744665,DL17065991,Shadowfax,Mysuru,Karnataka,Active,2025-06-06 23:47:02
1707,Mishti Bandi,5718206321,DL17077726,In-house,Ahmedabad,Gujarat,Active,2022-02-12 23:01:33
1708,Emir Sawhney,9393145996,DL17084088,EcomExpress,Mumbai,Maharashtra,Active,2022-11-25 18:19:29
1709,Rohan Tiwari,9100016112,DL17095754,In-house,Chennai,Tamil Nadu,Inactive,2023-06-07 23:06:50
1710,Damini Dey,02734100877,DL17106345,In-house,Surat,Gujarat,Active,2023-03-08 07:39:09
1711,Anahi Tripathi,2829384641,DL17113669,EcomExpress,Surat,Gujarat,Inactive,2023-09-22 02:20:13
1712,Piya Saha,+913005581935,DL17122504,Delhivery,Mysuru,Karnataka,Inactive,2024-05-29 09:23:39
1713,Nirvaan Chad,6453786817,DL17134613,BlueDart,Bengaluru,Karnataka,Inactive,2024-11-09 10:57:26
1714,Madhav Sarkar,08857849835,DL17145279,EcomExpress,Nagpur,Maharashtra,Inactive,2022-02-22 18:59:40
1715,Shamik Bobal,4731079682,DL17156925,In-house,Ahmedabad,Gujarat,Active,2020-04-17 18:43:10
1716,Gokul Bora,05291302756,DL17166198,Shadowfax,Bengaluru,Karnataka,Inactive,2025-07-03 15:09:06
1717,Stuvan Sen,00965746737,DL17178614,In-house,Mumbai,Maharashtra,Inactive,2024-02-06 11:12:51
1718,Ranbir Boase,+914215449011,DL17183804,BlueDart,Mysuru,Karnataka,Inactive,2023-06-08 22:19:06
1719,Kartik Kanda,2085497460,DL17195408,BlueDart,New Delhi,Delhi,Inactive,2022-06-10 21:32:07
1720,Tara Lad,+917116603071,DL17201576,Shadowfax,Mumbai,Maharashtra,Active,2023-02-20 11:50:22
1721,Onkar Balasubramanian,7547463383,DL17215221,In-house,Chennai,Tamil Nadu,Inactive,2025-03-23 18:44:57
1722,Miraya Varghese,3010941234,DL17224270,BlueDart,Coimbatore,Tamil Nadu,Inactive,2020-11-18 08:31:12
1723,Riaan Jain,+911664031188,DL17236530,BlueDart,Bengaluru,Karnataka,Inactive,2022-11-17 00:53:09
1724,Reyansh Rajan,+919629413941,DL17247591,EcomExpress,Ahmedabad,Gujarat,Active,2022-05-22 05:10:29
1725,Eshani Bawa,+917387943799,DL17258633,Shadowfax,Coimbatore,Tamil Nadu,Active,2025-05-31 18:30:56
1726,Madhav Varty,07341540642,DL17269566,Shadowfax,Bengaluru,Karnataka,Active,2023-12-07 09:23:15
1727,Neysa Bahri,0397006575,DL17272915,In-house,Mysuru,Karnataka,Active,2023-09-13 08:54:38
1728,Lavanya Varghese,+919364905847,DL17289613,Shadowfax,Mysuru,Karnataka,Active,2022-10-25 15:50:43
1729,Kartik Apte,0454381223,DL17293896,EcomExpress,Nagpur,Maharashtra,Active,2022-10-21 21:31:34
1730,Faiyaz Bahri,+915530943407,DL17308803,In-house,Coimbatore,Tamil Nadu,Active,2020-06-30 17:40:31
1731,Zeeshan Gara,+918126217161,DL17313470,In-house,Ahmedabad,Gujarat,Active,2022-03-27 19:50:36
1732,Raghav Golla,+911010756725,DL17323543,Shadowfax,Mysuru,Karnataka,Active,2024-07-02 22:05:48
1733,Seher Bala,1527343460,DL17338531,Delhivery,Ahmedabad,Gujarat,Inactive,2022-12-09 07:02:16
1734,Samaira Bora,+910327526706,DL17348132,Shadowfax,Chennai,Tamil Nadu,Active,2024-03-25 02:06:46
1735,Adira Kant,+913552053245,DL17353939,BlueDart,New Delhi,Delhi,Active,2023-06-17 03:17:59
1736,Gokul Goda,09418957887,DL17367050,BlueDart,Chennai,Tamil Nadu,Inactive,2025-07-10 12:13:04
1737,Inaaya  Kota,+919921570150,DL17376016,BlueDart,Coimbatore,Tamil Nadu,Inactive,2021-10-02 04:06:01
1738,Uthkarsh Basak,9795861775,DL17381858,Delhivery,Ahmedabad,Gujarat,Active,2021-12-01 10:57:35
1739,Manjari Uppal,02463699907,DL17398403,In-house,Mumbai,Maharashtra,Inactive,2023-05-04 22:35:47
1740,Ivan Viswanathan,9674952694,DL17409254,Delhivery,Mysuru,Karnataka,Inactive,2020-10-02 03:43:00
1741,Shalv Devan,+912400596655,DL17417480,In-house,Coimbatore,Tamil Nadu,Active,2020-08-01 10:18:14
1742,Arnav Samra,7176616917,DL17427692,Delhivery,Pune,Maharashtra,Active,2022-02-23 08:06:27
1743,Purab Jha,4527353047,DL17438139,Shadowfax,Coimbatore,Tamil Nadu,Inactive,2024-04-17 08:33:04
1744,Jiya Char,0853286432,DL17449048,BlueDart,Ahmedabad,Gujarat,Inactive,2023-01-02 02:34:17
1745,Taran Lal,1495562707,DL17452497,EcomExpress,Mysuru,Karnataka,Active,2023-02-08 05:29:06
1746,Kabir Walia,+910147834341,DL17464012,In-house,Bengaluru,Karnataka,Inactive,2021-06-16 02:23:04
1747,Shalv Bala,02885899817,DL17473665,BlueDart,New Delhi,Delhi,Active,2024-09-28 05:07:12
1748,Ritvik Shan,08706961051,DL17481194,BlueDart,New Delhi,Delhi,Active,2020-12-14 16:32:40
1749,Zain Chandran,09914652104,DL17495038,Shadowfax,Mumbai,Maharashtra,Active,2023-07-24 07:41:46
1750,Ishita Dubey,05285927168,DL17503180,BlueDart,Chennai,Tamil Nadu,Inactive,2023-07-02 20:32:09
1751,Onkar Sridhar,4210418286,DL17513567,Shadowfax,Mysuru,Karnataka,Inactive,2020-07-16 08:08:11
1752,Eva Saran,+919736928566,DL17529023,In-house,Nagpur,Maharashtra,Inactive,2021-03-05 12:16:22
1753,Saira Rajagopal,00540919022,DL17536618,BlueDart,Coimbatore,Tamil Nadu,Active,2023-01-08 15:42:14
1754,Darshit Talwar,1739107113,DL17547912,Delhivery,Bengaluru,Karnataka,Active,2024-09-23 06:18:40
1755,Shalv Karan,+914083529190,DL17556030,BlueDart,Ahmedabad,Gujarat,Inactive,2023-01-14 07:55:13
1756,Jivin Khosla,2927119475,DL17563990,In-house,Mysuru,Karnataka,Inactive,2023-02-03 19:27:23
1757,Miraya Kale,+911379997108,DL17573402,EcomExpress,New Delhi,Delhi,Active,2021-09-19 11:33:09
1758,Tara Hari,+911549502729,DL17587391,Shadowfax,Mumbai,Maharashtra,Inactive,2024-04-22 15:23:02
1759,Arhaan Tata,+914754600801,DL17596716,BlueDart,Coimbatore,Tamil Nadu,Inactive,2022-05-05 02:09:20
1760,Tara Bawa,+914456752007,DL17605653,EcomExpress,Surat,Gujarat,Inactive,2020-06-30 18:15:53
1761,Aayush Raman,2258704359,DL17612987,BlueDart,Mumbai,Maharashtra,Active,2023-01-29 12:53:36
1762,Aarush Sama,+910068667987,DL17621578,BlueDart,Pune,Maharashtra,Active,2024-09-27 07:12:08
1763,Diya Sachdeva,+917843047138,DL17638540,EcomExpress,Nagpur,Maharashtra,Active,2022-06-02 20:37:42
1764,Tiya Chand,+915702833432,DL17641632,Delhivery,New Delhi,Delhi,Inactive,2020-03-18 17:55:52
1765,Damini Babu,0660997453,DL17659869,Shadowfax,New Delhi,Delhi,Inactive,2023-07-24 23:33:39
1766,Ayesha Dash,3444527264,DL17667339,Shadowfax,Ahmedabad,Gujarat,Inactive,2021-07-25 01:01:00
1767,Jivika Deol,5837475007,DL17679780,BlueDart,New Delhi,Delhi,Active,2024-10-07 07:46:57
1768,Indrajit Sibal,8525719029,DL17682298,EcomExpress,Nagpur,Maharashtra,Inactive,2020-12-07 07:38:39
1769,Dishani Solanki,2140110843,DL17691315,EcomExpress,Mysuru,Karnataka,Inactive,2025-03-23 23:25:06
1770,Heer Chandra,+912073503110,DL17707704,Shadowfax,Chennai,Tamil Nadu,Inactive,2023-08-27 00:26:38
1771,Renee Dhaliwal,6609455018,DL17712494,BlueDart,New Delhi,Delhi,Inactive,2024-07-12 13:15:08
1772,Aaina Gupta,+917841935288,DL17723990,Delhivery,New Delhi,Delhi,Active,2021-11-16 00:31:03
1773,Advika Shanker,+913271634851,DL17733388,Shadowfax,New Delhi,Delhi,Inactive,2022-06-18 14:30:19
1774,Anya Vaidya,05955258653,DL17741634,EcomExpress,New Delhi,Delhi,Inactive,2022-07-07 17:52:41
1775,Zoya Balasubramanian,9203579311,DL17751510,EcomExpress,Mumbai,Maharashtra,Inactive,2023-08-25 15:57:45
1776,Kabir Chander,05183378917,DL17764499,Delhivery,Ahmedabad,Gujarat,Inactive,2022-08-23 05:39:52
1777,Baiju Sood,05390482713,DL17777796,EcomExpress,Surat,Gujarat,Inactive,2021-09-05 09:59:30
1778,Shray Ravi,3038106369,DL17789728,EcomExpress,New Delhi,Delhi,Inactive,2025-07-26 13:27:18
1779,Bhamini Sahota,03514781604,DL17793746,Delhivery,Coimbatore,Tamil Nadu,Active,2024-06-02 02:47:12
1780,Aniruddh Gola,02468684570,DL17801281,EcomExpress,New Delhi,Delhi,Inactive,2020-12-28 05:22:11
1781,Tanya Char,+916349874909,DL17817656,EcomExpress,Chennai,Tamil Nadu,Active,2020-07-13 05:26:37
1782,Farhan Samra,+916112105934,DL17827549,EcomExpress,New Delhi,Delhi,Active,2023-07-15 19:28:12
1783,Divit Tank,7455965486,DL17832320,Shadowfax,New Delhi,Delhi,Inactive,2021-04-19 20:47:07
1784,Misha Raja,5718856814,DL17848630,BlueDart,Pune,Maharashtra,Active,2021-08-11 13:33:20
1785,Hridaan Thakur,+915159334818,DL17853984,BlueDart,Chennai,Tamil Nadu,Inactive,2021-10-25 20:19:13
1786,Zaina Walla,4126013946,DL17866388,BlueDart,Surat,Gujarat,Inactive,2024-07-10 14:18:14
1787,Eshani Thakur,8129676670,DL17874997,In-house,Coimbatore,Tamil Nadu,Inactive,2025-01-13 16:23:08
1788,Kismat Sarin,2162764653,DL17885026,BlueDart,New Delhi,Delhi,Active,2022-07-06 06:47:29
1789,Mohanlal Venkataraman,+918443784332,DL17894767,In-house,Chennai,Tamil Nadu,Active,2021-12-10 03:21:15
1790,Ahana  Reddy,08703320511,DL17904113,Shadowfax,Ahmedabad,Gujarat,Active,2020-05-24 11:12:06
1791,Siya Salvi,+914422209673,DL17914342,Delhivery,New Delhi,Delhi,Inactive,2024-08-16 04:34:44
1792,Keya Handa,+910132088834,DL17921186,Delhivery,Surat,Gujarat,Inactive,2020-02-03 05:01:59
1793,Vivaan Gala,+912871972816,DL17934524,EcomExpress,Coimbatore,Tamil Nadu,Inactive,2022-04-15 13:52:22
1794,Eva Tak,+919116733733,DL17942075,BlueDart,Bengaluru,Karnataka,Inactive,2020-05-14 02:30:26
1795,Aayush Bhavsar,+910088830974,DL17958256,In-house,New Delhi,Delhi,Inactive,2022-11-10 12:12:02
1796,Bhavin Cheema,09895907086,DL17965627,In-house,Mumbai,Maharashtra,Active,2022-07-08 00:00:28
1797,Samar Bedi,+913520583205,DL17975292,BlueDart,Mumbai,Maharashtra,Inactive,2025-03-11 16:31:50
1798,Suhana Ramesh,07118215757,DL17987507,Delhivery,Bengaluru,Karnataka,Inactive,2025-06-06 16:28:09
1799,Hazel Kulkarni,2376467246,DL17991879,EcomExpress,Surat,Gujarat,Active,2021-05-12 23:43:15
1800,Mohanlal Anne,03528386176,DL18002996,In-house,Mysuru,Karnataka,Inactive,2022-09-26 11:24:06
1801,Shanaya Chaudhari,1990264016,DL18012387,EcomExpress,Chennai,Tamil Nadu,Inactive,2022-10-20 11:49:04
1802,Raunak Majumdar,0333842238,DL18026874,In-house,Mumbai,Maharashtra,Active,2024-10-10 01:40:05
1803,Kiara Dash,09573890619,DL18033886,BlueDart,New Delhi,Delhi,Active,2022-04-16 08:52:59
1804,Reyansh Rajagopalan,7664982676,DL18049860,EcomExpress,Ahmedabad,Gujarat,Inactive,2022-03-02 01:18:43
1805,Urvi Madan,+910092534487,DL18058478,BlueDart,Mumbai,Maharashtra,Active,2022-03-30 08:52:45
1806,Aarav Khatri,01374543815,DL18061468,Delhivery,Coimbatore,Tamil Nadu,Inactive,2023-08-07 06:37:47
1807,Siya Gole,1278258566,DL18071429,In-house,New Delhi,Delhi,Inactive,2024-11-12 16:50:17
1808,Amani Mander,+917955826434,DL18088365,EcomExpress,Surat,Gujarat,Active,2022-03-31 20:41:42
1809,Ayesha Mahajan,2992969910,DL18099774,BlueDart,New Delhi,Delhi,Inactive,2022-10-28 10:36:04
1810,Kiara Ganesan,03490819863,DL18108353,BlueDart,New Delhi,Delhi,Inactive,2020-11-22 05:56:16
1811,Anika Sridhar,+917421545430,DL18113155,BlueDart,Nagpur,Maharashtra,Inactive,2024-02-06 07:13:20
1812,Saira Bahl,+919972161309,DL18125477,EcomExpress,New Delhi,Delhi,Inactive,2023-06-12 20:09:56
1813,Devansh Dyal,6886095485,DL18132814,In-house,Bengaluru,Karnataka,Active,2021-02-04 10:37:46
1814,Shamik Varma,4700167417,DL18143506,BlueDart,New Delhi,Delhi,Active,2023-06-25 17:59:25
1815,Shamik Mannan,+912401982362,DL18155072,EcomExpress,Nagpur,Maharashtra,Active,2023-11-30 10:40:46
1816,Nirvi Lata,+916001154993,DL18162328,EcomExpress,Surat,Gujarat,Inactive,2024-07-22 17:06:13
1817,Manikya Batta,9735266279,DL18172469,EcomExpress,Chennai,Tamil Nadu,Inactive,2021-11-21 04:25:44
1818,Vanya Viswanathan,09632121514,DL18184753,Shadowfax,Mumbai,Maharashtra,Inactive,2023-08-04 15:40:18
1819,Yashvi Sampath,5526577457,DL18192345,BlueDart,Bengaluru,Karnataka,Inactive,2025-04-21 05:27:09
1820,Kavya Sankar,8974400083,DL18201112,Shadowfax,New Delhi,Delhi,Active,2022-03-31 06:50:08
1821,Adah Kant,+911723621245,DL18211380,Delhivery,Mysuru,Karnataka,Inactive,2022-07-08 03:11:14
1822,Amira Ravel,+919469390015,DL18224794,EcomExpress,Nagpur,Maharashtra,Inactive,2025-04-07 08:06:45
1823,Vihaan Lad,1541957910,DL18238109,Shadowfax,Coimbatore,Tamil Nadu,Inactive,2021-08-17 14:59:56
1824,Urvi Kalita,8667386006,DL18247354,In-house,Bengaluru,Karnataka,Inactive,2023-08-06 00:01:51
1825,Eshani Amble,1667910962,DL18256751,Shadowfax,Pune,Maharashtra,Inactive,2021-02-14 04:41:31
1826,Anahita Sarin,+917813583495,DL18263080,Shadowfax,Pune,Maharashtra,Inactive,2022-05-27 09:29:05
1827,Seher Buch,07702322802,DL18277215,EcomExpress,Chennai,Tamil Nadu,Inactive,2025-08-26 11:25:19
1828,Indrajit Cherian,+911391928732,DL18284494,EcomExpress,Surat,Gujarat,Active,2023-10-31 06:44:27
1829,Mehul Ahluwalia,05453517387,DL18293820,In-house,Surat,Gujarat,Inactive,2020-06-29 15:36:55
1830,Anika Mallick,3139337318,DL18307540,EcomExpress,Coimbatore,Tamil Nadu,Active,2022-04-08 00:01:24
1831,Zeeshan Gola,7480816512,DL18313656,BlueDart,New Delhi,Delhi,Inactive,2022-05-17 04:53:48
1832,Aaina Venkataraman,05823490518,DL18326344,In-house,Nagpur,Maharashtra,Inactive,2022-03-01 15:48:25
1833,Yuvaan Behl,00879068854,DL18337336,EcomExpress,Surat,Gujarat,Active,2023-06-03 05:08:36
1834,Shaan Maharaj,+912360922164,DL18349009,In-house,Chennai,Tamil Nadu,Inactive,2022-03-02 22:06:24
1835,Divit Korpal,07449504541,DL18356523,BlueDart,Surat,Gujarat,Active,2021-04-21 10:37:15
1836,Amani Barman,7637644813,DL18364680,BlueDart,Chennai,Tamil Nadu,Active,2020-02-01 08:19:29
1837,Sana Goda,+914868611528,DL18378063,In-house,Mumbai,Maharashtra,Active,2020-03-10 09:32:55
1838,Parinaaz Hans,+913926995525,DL18381574,EcomExpress,Ahmedabad,Gujarat,Inactive,2024-09-28 18:29:22
1839,Madhup Jani,1291449367,DL18399918,BlueDart,Chennai,Tamil Nadu,Active,2024-04-12 01:42:27
1840,Pranay Kamdar,01141829607,DL18401768,EcomExpress,Bengaluru,Karnataka,Active,2024-02-22 23:13:24
1841,Urvi Mangat,4921077151,DL18415008,In-house,New Delhi,Delhi,Inactive,2020-03-26 22:21:47
1842,Ishita Wable,+918905807613,DL18421671,In-house,Surat,Gujarat,Inactive,2025-05-29 18:53:05
1843,Advika Ramachandran,+917397543705,DL18431828,BlueDart,Mumbai,Maharashtra,Active,2022-04-17 08:19:49
1844,Hansh Shah,09486244813,DL18444049,Shadowfax,Chennai,Tamil Nadu,Inactive,2022-10-18 02:50:57
1845,Adira Raj,06250556848,DL18456073,Shadowfax,Surat,Gujarat,Active,2025-02-01 01:03:41
1846,Shanaya Chaudhari,+918612784658,DL18461728,Delhivery,Ahmedabad,Gujarat,Inactive,2020-02-13 03:38:42
1847,Dhanuk Soni,+915770680240,DL18475764,EcomExpress,New Delhi,Delhi,Active,2020-05-07 00:37:08
1848,Nitara Bhat,04538088352,DL18485990,EcomExpress,Bengaluru,Karnataka,Active,2022-06-09 20:12:04
1849,Samarth Kapadia,05950633678,DL18492691,Shadowfax,Surat,Gujarat,Inactive,2020-05-27 17:16:56
1850,Lavanya Jain,+916768402773,DL18506906,In-house,New Delhi,Delhi,Inactive,2025-08-11 06:47:11
1851,Khushi Magar,1304194920,DL18518928,EcomExpress,New Delhi,Delhi,Active,2023-04-16 18:59:36
1852,Ahana  Kunda,03984518403,DL18523525,EcomExpress,Surat,Gujarat,Inactive,2025-03-04 23:52:26
1853,Hrishita Vaidya,+918709972746,DL18533886,Delhivery,New Delhi,Delhi,Active,2022-04-09 05:55:30
1854,Dhanuk Krishnamurthy,0772449093,DL18542039,Delhivery,Nagpur,Maharashtra,Inactive,2020-01-04 06:20:17
1855,Kiaan Lal,+914885229746,DL18553452,EcomExpress,Bengaluru,Karnataka,Inactive,2024-11-02 03:11:34
1856,Aaryahi Iyer,+914108806225,DL18562679,In-house,Coimbatore,Tamil Nadu,Active,2022-10-31 02:07:09
1857,Trisha Cheema,5603784800,DL18574182,EcomExpress,New Delhi,Delhi,Inactive,2022-04-21 01:25:14
1858,Ishita Khosla,01627365132,DL18583391,BlueDart,Bengaluru,Karnataka,Active,2022-05-20 19:11:22
1859,Elakshi Raju,3250916761,DL18591484,Delhivery,Ahmedabad,Gujarat,Active,2024-03-10 21:50:16
1860,Aarush Barad,4020171336,DL18609666,BlueDart,Surat,Gujarat,Active,2021-07-02 17:44:05
1861,Bhamini Apte,07614028758,DL18619755,Delhivery,New Delhi,Delhi,Active,2021-08-03 00:01:28
1862,Sahil Dalal,3120671756,DL18627416,EcomExpress,New Delhi,Delhi,Active,2020-03-06 07:46:51
1863,Mamooty Sahni,06379854908,DL18632749,Delhivery,New Delhi,Delhi,Active,2024-01-25 19:02:45
1864,Trisha Dave,+911740959262,DL18649068,Delhivery,Surat,Gujarat,Active,2021-05-29 20:40:06
1865,Onkar Choudhary,01089231892,DL18659262,Delhivery,Mysuru,Karnataka,Inactive,2025-04-08 16:16:27
1866,Indranil Kade,6900731318,DL18665840,Delhivery,Mysuru,Karnataka,Active,2023-01-01 00:49:57
1867,Ranbir Sawhney,01425867582,DL18679617,In-house,Bengaluru,Karnataka,Inactive,2024-10-28 08:41:51
1868,Nitya Bansal,03810724819,DL18687736,In-house,Coimbatore,Tamil Nadu,Active,2023-02-16 08:42:17
1869,Tushar Ahluwalia,+911043813046,DL18695102,Shadowfax,Mysuru,Karnataka,Active,2022-10-17 13:05:49
1870,Charvi Grewal,3321392928,DL18703626,In-house,New Delhi,Delhi,Active,2022-03-30 21:42:59
1871,Keya Vaidya,1678014622,DL18719389,Shadowfax,Bengaluru,Karnataka,Inactive,2025-05-11 23:34:29
1872,Anahita Sahota,4663360982,DL18728775,Delhivery,Ahmedabad,Gujarat,Inactive,2021-10-31 00:12:52
1873,Neysa Jain,+917127777882,DL18738607,BlueDart,Chennai,Tamil Nadu,Active,2021-09-29 01:42:44
1874,Zeeshan Sathe,7792135950,DL18744688,BlueDart,Coimbatore,Tamil Nadu,Active,2024-12-29 14:40:07
1875,Yuvraj  Bajwa,00831341002,DL18755505,Delhivery,Mumbai,Maharashtra,Active,2023-03-14 18:51:43
1876,Farhan Walia,+917258728612,DL18765249,Delhivery,Pune,Maharashtra,Active,2024-03-01 14:15:21
1877,Oorja Sanghvi,06295631405,DL18774245,EcomExpress,Nagpur,Maharashtra,Active,2023-08-24 16:01:22
1878,Amira Krish,+910742032222,DL18783480,EcomExpress,New Delhi,Delhi,Active,2024-12-14 16:47:20
1879,Indranil Rao,+914663198342,DL18798424,Delhivery,Mysuru,Karnataka,Inactive,2023-04-06 07:51:32
1880,Anahita Bala,5195767547,DL18806364,Shadowfax,Surat,Gujarat,Inactive,2024-07-01 11:05:53
1881,Jayesh Sibal,+910181967553,DL18811625,BlueDart,Nagpur,Maharashtra,Active,2020-07-23 04:54:34
1882,Shlok Mahal,+910383283125,DL18824368,EcomExpress,Chennai,Tamil Nadu,Active,2021-11-17 12:13:38
1883,Taimur Hans,5713041347,DL18836759,BlueDart,Ahmedabad,Gujarat,Active,2024-10-19 10:23:30
1884,Farhan Jha,+919319221500,DL18849460,Shadowfax,New Delhi,Delhi,Inactive,2022-12-06 09:07:29
1885,Vanya Korpal,3433324251,DL18852624,Shadowfax,Chennai,Tamil Nadu,Inactive,2025-04-09 11:49:56
1886,Prisha Dhar,02851918130,DL18864576,Shadowfax,Ahmedabad,Gujarat,Active,2024-08-05 15:26:38
1887,Sumer Rattan,+919469808914,DL18874710,BlueDart,Bengaluru,Karnataka,Inactive,2020-01-25 08:48:21
1888,Ojas Ghosh,05398601429,DL18887551,Shadowfax,Surat,Gujarat,Active,2021-07-24 21:48:19
1889,Hunar Gole,+912278164765,DL18895036,Shadowfax,New Delhi,Delhi,Inactive,2021-06-06 11:18:54
1890,Nishith Tripathi,6223919794,DL18907734,Delhivery,Nagpur,Maharashtra,Inactive,2024-03-28 12:28:35
1891,Rhea Sastry,+911823123516,DL18919185,Shadowfax,Coimbatore,Tamil Nadu,Inactive,2025-02-21 15:53:52
1892,Seher Bhandari,08634939539,DL18926854,EcomExpress,Coimbatore,Tamil Nadu,Active,2023-03-01 03:26:20
1893,Himmat Kar,+912456681186,DL18934352,BlueDart,Nagpur,Maharashtra,Inactive,2024-09-15 11:09:21
1894,Dhruv Shenoy,04127516647,DL18947982,EcomExpress,Surat,Gujarat,Inactive,2025-02-11 09:23:16
1895,Nirvaan Karan,9982827626,DL18951971,EcomExpress,Chennai,Tamil Nadu,Active,2025-07-13 09:11:54
1896,Kaira Mani,+919417713660,DL18965797,Shadowfax,Bengaluru,Karnataka,Inactive,2021-01-27 20:14:00
1897,Kimaya Deep,+916905406280,DL18978907,EcomExpress,Bengaluru,Karnataka,Inactive,2021-11-13 13:24:46
1898,Nirvaan Shankar,07790926757,DL18984268,EcomExpress,Mumbai,Maharashtra,Active,2020-06-18 14:14:52
1899,Zara Madan,3338947474,DL18992567,BlueDart,New Delhi,Delhi,Inactive,2022-08-26 01:31:55
1900,Anahi Sampath,00486296611,DL19007418,In-house,Pune,Maharashtra,Inactive,2025-05-14 05:36:02
1901,Dharmajan Wason,08556727789,DL19016058,EcomExpress,Surat,Gujarat,Active,2024-04-22 14:04:23
1902,Kashvi Trivedi,01873380094,DL19026092,Shadowfax,Mysuru,Karnataka,Inactive,2022-08-27 16:47:36
1903,Shanaya Ramanathan,+917159772417,DL19039694,In-house,New Delhi,Delhi,Active,2021-10-24 19:25:56
1904,Zeeshan Swamy,3481722792,DL19043297,EcomExpress,Mysuru,Karnataka,Inactive,2025-01-10 05:25:02
1905,Rohan Korpal,00302710008,DL19057737,In-house,Surat,Gujarat,Active,2023-01-13 21:41:07
1906,Ishita Loke,09035163637,DL19063966,Shadowfax,Surat,Gujarat,Active,2022-09-06 19:29:10
1907,Aarush Sane,09759633055,DL19078973,EcomExpress,Pune,Maharashtra,Active,2023-06-03 10:10:42
1908,Zara Kanda,08335956829,DL19087694,BlueDart,Coimbatore,Tamil Nadu,Inactive,2022-01-13 20:08:21
1909,Vardaniya Gole,01760167979,DL19091667,BlueDart,Mysuru,Karnataka,Active,2024-07-21 13:36:33
1910,Anaya Varma,09090575504,DL19108341,BlueDart,Mysuru,Karnataka,Active,2021-06-26 01:34:15
1911,Sana Upadhyay,+915075038303,DL19114405,BlueDart,Mumbai,Maharashtra,Active,2023-05-11 18:03:04
1912,Parinaaz Jhaveri,05357262560,DL19121847,In-house,Nagpur,Maharashtra,Inactive,2021-05-05 03:43:03
1913,Indrans Saini,05375209279,DL19134941,EcomExpress,Mumbai,Maharashtra,Active,2024-04-22 03:07:43
1914,Shamik Setty,04838279637,DL19143038,Delhivery,New Delhi,Delhi,Inactive,2021-01-02 06:37:37
1915,Ela Varty,3382334052,DL19152268,Delhivery,Mumbai,Maharashtra,Inactive,2020-12-25 07:39:29
1916,Faiyaz Shere,+912593502425,DL19166463,In-house,Chennai,Tamil Nadu,Inactive,2023-06-28 18:53:48
1917,Riya Goda,06630844852,DL19171861,Delhivery,Bengaluru,Karnataka,Inactive,2023-01-22 10:17:43
1918,Divyansh Rau,7026357531,DL19189522,Shadowfax,Surat,Gujarat,Active,2025-03-02 08:31:54
1919,Vihaan Joshi,03337075589,DL19192041,In-house,Ahmedabad,Gujarat,Inactive,2022-09-16 18:06:17
1920,Anahi Rattan,+911703589323,DL19206092,In-house,Coimbatore,Tamil Nadu,Active,2020-09-05 02:21:31
1921,Vaibhav Uppal,0802373896,DL19215741,BlueDart,Coimbatore,Tamil Nadu,Inactive,2020-02-23 23:39:13
1922,Mannat Dora,08099531123,DL19222504,EcomExpress,Mumbai,Maharashtra,Inactive,2021-07-27 09:35:34
1923,Riaan Comar,+914606623024,DL19233406,Delhivery,Chennai,Tamil Nadu,Active,2024-11-18 08:10:08
1924,Saanvi Chatterjee,+918838396770,DL19248658,Shadowfax,Mysuru,Karnataka,Active,2025-03-27 01:20:44
1925,Abram Sem,+913471681596,DL19251538,EcomExpress,Coimbatore,Tamil Nadu,Active,2022-01-22 08:23:35
1926,Damini Varkey,+911525106325,DL19268046,Shadowfax,Chennai,Tamil Nadu,Inactive,2021-03-18 18:01:15
1927,Aarna Trivedi,04486021324,DL19275644,Shadowfax,Ahmedabad,Gujarat,Inactive,2023-09-14 16:24:51
1928,Faiyaz Char,+916812939207,DL19285365,EcomExpress,New Delhi,Delhi,Active,2021-02-25 15:45:40
1929,Baiju Sem,6482069300,DL19294400,In-house,Mumbai,Maharashtra,Active,2021-01-06 14:56:59
1930,Baiju Garg,9133899229,DL19307493,BlueDart,Pune,Maharashtra,Inactive,2021-05-02 21:58:12
1931,Vedika Sur,6154975850,DL19316541,EcomExpress,Mysuru,Karnataka,Inactive,2022-11-19 02:03:27
1932,Anya Chatterjee,+914529807538,DL19323825,Shadowfax,New Delhi,Delhi,Inactive,2021-08-11 10:25:46
1933,Yashvi Thakur,+917334648993,DL19339896,EcomExpress,Surat,Gujarat,Inactive,2024-01-31 03:16:37
1934,Hunar Bahri,06154157882,DL19341547,BlueDart,Coimbatore,Tamil Nadu,Active,2020-05-30 02:27:14
1935,Divij Vyas,7617050405,DL19352051,Shadowfax,New Delhi,Delhi,Active,2025-09-09 12:44:48
1936,Ira Doshi,06762881567,DL19362480,Shadowfax,Ahmedabad,Gujarat,Inactive,2020-10-04 12:58:23
1937,Aaryahi Yogi,06911565335,DL19371729,Shadowfax,Mumbai,Maharashtra,Active,2025-04-25 08:12:18
1938,Amira Dara,+916610932077,DL19386330,Delhivery,Surat,Gujarat,Inactive,2022-06-15 23:49:21
1939,Amira Chakrabarti,4112014142,DL19397434,Delhivery,Bengaluru,Karnataka,Active,2023-12-02 10:33:40
1940,Romil Kale,1142208293,DL19405856,Delhivery,Mysuru,Karnataka,Inactive,2020-08-05 14:15:06
1941,Indranil Raja,6355294764,DL19412430,Delhivery,Mysuru,Karnataka,Active,2021-09-04 09:06:11
1942,Arhaan Thakur,04247180412,DL19421727,In-house,Ahmedabad,Gujarat,Active,2020-06-28 12:00:20
1943,Yakshit Gaba,7344722109,DL19432816,EcomExpress,Mumbai,Maharashtra,Inactive,2024-02-02 15:23:42
1944,Jivin Batta,9601531469,DL19445750,EcomExpress,Pune,Maharashtra,Inactive,2024-11-07 02:32:38
1945,Suhana Soman,+912128594712,DL19451313,Delhivery,Coimbatore,Tamil Nadu,Inactive,2021-12-26 12:21:37
1946,Lavanya Dhaliwal,+917025906748,DL19467781,EcomExpress,Coimbatore,Tamil Nadu,Inactive,2023-05-07 13:07:36
1947,Urvi Sant,0574201547,DL19474283,In-house,Coimbatore,Tamil Nadu,Inactive,2024-02-01 14:52:51
1948,Shalv Swaminathan,0732385975,DL19482899,Delhivery,Ahmedabad,Gujarat,Inactive,2020-03-03 12:02:11
1949,Ishaan Madan,+914899539519,DL19496386,BlueDart,Ahmedabad,Gujarat,Active,2024-06-21 01:13:18
1950,Arhaan Choudhary,+916562469035,DL19501910,EcomExpress,New Delhi,Delhi,Active,2025-03-11 18:17:43
1951,Gokul Chandran,5114643707,DL19514966,Shadowfax,Chennai,Tamil Nadu,Active,2021-11-06 15:38:57
1952,Samiha Behl,09203811092,DL19529683,EcomExpress,Ahmedabad,Gujarat,Active,2021-11-02 12:15:43
1953,Nitara Hora,+919933543913,DL19536573,In-house,New Delhi,Delhi,Active,2025-03-13 13:20:47
1954,Aarush Walia,+912688002933,DL19547307,Delhivery,Ahmedabad,Gujarat,Inactive,2022-02-12 02:12:19
1955,Vritika Ratta,00572601532,DL19554882,In-house,Ahmedabad,Gujarat,Inactive,2021-04-11 23:16:36
1956,Parinaaz Karpe,+913409969949,DL19569889,EcomExpress,Nagpur,Maharashtra,Inactive,2024-07-13 06:36:54
1957,Ehsaan Varughese,+917533554821,DL19576659,BlueDart,Chennai,Tamil Nadu,Active,2024-03-12 08:25:38
1958,Vedika Handa,1046252322,DL19588033,In-house,Ahmedabad,Gujarat,Active,2023-04-03 14:15:21
1959,Prerak Bhagat,00108085542,DL19595275,Shadowfax,Bengaluru,Karnataka,Active,2022-05-21 06:34:57
1960,Diya Master,07057695685,DL19607571,BlueDart,Surat,Gujarat,Active,2022-11-20 16:06:13
1961,Aarna Zacharia,02393228361,DL19619356,In-house,New Delhi,Delhi,Active,2022-02-03 08:04:33
1962,Jivika Sekhon,08307463115,DL19622975,EcomExpress,Chennai,Tamil Nadu,Active,2020-11-19 12:41:53
1963,Vritika Kar,+914182200013,DL19639329,BlueDart,Coimbatore,Tamil Nadu,Inactive,2024-04-02 15:07:33
1964,Priyansh Chandra,8037156240,DL19647407,In-house,Surat,Gujarat,Inactive,2024-02-24 13:57:26
1965,Mamooty Krishnan,01419914837,DL19658298,EcomExpress,Mysuru,Karnataka,Active,2024-09-24 09:42:22
1966,Ayesha Sani,+915887444196,DL19666947,Shadowfax,Mumbai,Maharashtra,Inactive,2020-03-17 00:00:30
1967,Vanya Vala,+914882202291,DL19678755,BlueDart,Surat,Gujarat,Inactive,2023-01-24 07:33:52
1968,Lakshay Gour,+913098116821,DL19687530,EcomExpress,Coimbatore,Tamil Nadu,Inactive,2023-06-06 20:49:00
1969,Biju Kothari,06477193465,DL19695074,Shadowfax,Pune,Maharashtra,Inactive,2023-11-23 23:18:02
1970,Raunak Dhillon,01855586666,DL19701649,Delhivery,Bengaluru,Karnataka,Inactive,2023-04-13 01:50:10
1971,Diya Bhatia,+918937870682,DL19717880,In-house,Pune,Maharashtra,Inactive,2024-09-10 15:29:43
1972,Rania Tripathi,+916371611812,DL19729545,Delhivery,Chennai,Tamil Nadu,Inactive,2023-12-12 05:00:23
1973,Riaan Grewal,2796744949,DL19732718,BlueDart,Chennai,Tamil Nadu,Inactive,2022-09-18 06:48:08
1974,Nehmat Soman,00440815227,DL19742454,In-house,Mysuru,Karnataka,Inactive,2020-02-21 13:39:45
1975,Lagan Ranganathan,+911366566899,DL19757561,EcomExpress,Nagpur,Maharashtra,Active,2025-03-17 08:54:09
1976,Mishti Kurian,+917020083858,DL19764955,BlueDart,Chennai,Tamil Nadu,Inactive,2020-06-20 18:35:31
1977,Manjari Chokshi,5410728739,DL19777291,EcomExpress,Nagpur,Maharashtra,Inactive,2022-07-10 02:30:59
1978,Azad Bahri,+912218881247,DL19787920,BlueDart,Coimbatore,Tamil Nadu,Active,2023-07-15 09:39:19
1979,Ivan Sura,5516714634,DL19792288,Delhivery,New Delhi,Delhi,Active,2025-03-28 18:57:27
1980,Saksham Khalsa,9554787397,DL19806035,BlueDart,Bengaluru,Karnataka,Active,2024-06-30 10:32:14
1981,Purab Goda,7931339030,DL19814189,BlueDart,Bengaluru,Karnataka,Active,2021-04-09 00:13:40
1982,Renee Sodhi,02790838688,DL19826677,In-house,Nagpur,Maharashtra,Inactive,2022-10-09 02:48:16
1983,Shaan Kumar,2456436375,DL19833271,In-house,Bengaluru,Karnataka,Active,2022-11-25 14:48:37
1984,Aniruddh Saxena,02982163007,DL19847116,Delhivery,Ahmedabad,Gujarat,Inactive,2024-12-12 16:18:00
1985,Mishti Biswas,+919291140456,DL19855842,EcomExpress,Bengaluru,Karnataka,Inactive,2021-06-30 13:05:25
1986,Dharmajan Viswanathan,5975473774,DL19863109,In-house,Pune,Maharashtra,Inactive,2020-05-19 04:27:14
1987,Nitara Raval,+916215115338,DL19877999,EcomExpress,Nagpur,Maharashtra,Inactive,2020-01-24 08:29:28
1988,Advik Varughese,5254696050,DL19884958,In-house,Mysuru,Karnataka,Inactive,2021-09-25 17:48:12
1989,Advik Sarna,9187330445,DL19896950,EcomExpress,New Delhi,Delhi,Active,2022-11-26 04:57:34
1990,Ira Choudhry,09877245235,DL19904449,BlueDart,Coimbatore,Tamil Nadu,Active,2024-04-04 16:03:44
1991,Tejas Vig,+913284809298,DL19911942,Shadowfax,Surat,Gujarat,Active,2024-11-18 05:45:43
1992,Vritika Chakrabarti,+911492875591,DL19926155,Shadowfax,Bengaluru,Karnataka,Inactive,2023-05-24 02:35:08
1993,Vivaan Chandran,06405390039,DL19934249,BlueDart,Mysuru,Karnataka,Active,2023-05-19 16:57:08
1994,Amira Suresh,0235673147,DL19945094,BlueDart,Pune,Maharashtra,Active,2021-05-31 11:34:00
1995,Tarini Virk,+919039926101,DL19958769,Delhivery,New Delhi,Delhi,Active,2021-11-17 01:14:01
1996,Samarth Kanda,+914134480915,DL19961949,In-house,Mysuru,Karnataka,Inactive,2021-02-24 07:19:23
1997,Bhamini Samra,0196201537,DL19979477,In-house,Mumbai,Maharashtra,Inactive,2022-07-14 19:02:39
1998,Anaya Dora,+917841615193,DL19989889,In-house,Bengaluru,Karnataka,Inactive,2024-09-29 21:23:09
1999,Ryan Viswanathan,+918046448415,DL19995490,Shadowfax,Mysuru,Karnataka,Active,2022-12-17 16:21:02
2000,Prerak Tank,3072764925,DL20005672,EcomExpress,Mysuru,Karnataka,Active,2020-02-12 08:18:13
